ModelForces
version=1
nRows=20
nColumns=108
inDegrees=yes

This file contains the forces exerted on a model during a simulation.

A force is a generalized force, meaning that it can be either a force (N) or a torque (Nm).

Units are S.I. units (second, meters, Newtons, ...)
Angles are in degrees.

endheader 
time	addbrev_l	addlong_l	addmagDist_l	addmagIsch_l	addmagMid_l	addmagProx_l	bflh_l	bfsh_l	edl_l	ehl_l	fdl_l	fhl_l	gaslat_l	gasmed_l	glmax1_l	glmax2_l	glmax3_l	glmed1_l	glmed2_l	glmed3_l	glmin1_l	glmin2_l	glmin3_l	grac_l	iliacus_l	perbrev_l	perlong_l	piri_l	psoas_l	recfem_l	sart_l	semimem_l	semiten_l	soleus_l	tfl_l	tibant_l	tibpost_l	vasint_l	vaslat_l	vasmed_l	addbrev_r	addlong_r	addmagDist_r	addmagIsch_r	addmagMid_r	addmagProx_r	bflh_r	bfsh_r	edl_r	ehl_r	fdl_r	fhl_r	gaslat_r	gasmed_r	glmax1_r	glmax2_r	glmax3_r	glmed1_r	glmed2_r	glmed3_r	glmin1_r	glmin2_r	glmin3_r	grac_r	iliacus_r	perbrev_r	perlong_r	piri_r	psoas_r	recfem_r	sart_r	semimem_r	semiten_r	soleus_r	tfl_r	tibant_r	tibpost_r	vasint_r	vaslat_r	vasmed_r	hip_flexion_r	hip_flexion_l	hip_adduction_r	hip_adduction_l	hip_rotation_r	hip_rotation_l	knee_angle_r	knee_angle_l	ankle_angle_r	ankle_angle_l	subtalar_angle_r	subtalar_angle_l	mtp_angle_r	mtp_angle_l	lumbar_extension	lumbar_bending	lumbar_rotation	arm_flex_l	arm_add_l	arm_rot_l	arm_flex_r	arm_add_r	arm_rot_r	elbow_flex_l	elbow_flex_r	pro_sup_l	pro_sup_r	
          1.00000000	         24.18046313	         37.04277482	         10.21369411	         12.00353746	          8.72922377	          8.17417585	         44.36065551	         69.08494932	         53.26184674	         47.26130663	         56.45494213	         11.90407747	        147.34271419	        428.88702170	        164.79400508	        226.92476668	         14.07212817	        154.39612135	        177.03663777	        303.66532401	         12.98992972	         40.00033109	         46.64916953	         24.01508508	        125.11779907	         63.43559763	        106.25913378	         77.96291859	        176.96320919	         19.57989056	         46.04589719	         82.53767226	         40.81450861	        379.61131554	        123.33554780	        447.69382983	        460.32501562	         13.33530344	         42.59840959	         21.06331887	         28.36157972	         79.92871848	          7.24335516	          8.66230786	          5.14150400	         24.56710973	         17.89694016	         51.57641025	        109.29535189	         35.07876680	         22.60589734	         41.54193983	         86.77414541	        233.43714069	         11.57626895	         16.79368824	         10.70952869	         27.72178321	         18.16856267	         40.34826476	         11.42402578	         12.36222545	         42.04497103	         19.51901018	        215.27225722	         11.91450938	        236.49118804	         72.88255983	        355.19069131	        514.06391426	         41.92675565	         30.35324888	         21.11133380	        340.16230901	         40.65634064	        441.83107734	         80.56797171	         23.99111316	         71.49496140	         35.15541907	         -0.09214383	          0.11178807	         -0.13152365	          0.12319259	         -0.06639845	         -0.17085512	         -0.23585254	          0.05360327	          0.02014372	         -0.05025818	          0.25516584	         -0.77447456	         -0.92880991	         -0.54598578	          3.30667776	         22.84731659	        -12.00581790	          1.43843948	          3.13147020	          0.83110903	         -7.26932837	         -2.99707979	         -1.52286335	          1.61724784	         -0.38749888	         -0.00750879	         -0.04825233	
          1.05000000	         32.01988452	         52.81021527	         11.71023750	         13.34873637	         10.61983086	          9.64130970	         46.74686041	         97.53138077	         13.62292705	          9.57267379	          5.11584679	        236.75964093	        155.42835344	        454.65351461	         29.97887843	         40.80219907	         15.00661699	         64.37476190	        134.84689968	        203.41080562	         18.42111144	         42.98776257	         18.88076760	         29.07607283	        135.37229572	         66.84886670	        110.82192418	          3.47432862	        195.45679533	         57.85906624	         61.62233422	         83.58862274	         41.75086572	        396.82776378	          8.26396963	        151.43010964	        571.12840382	         12.86603973	         39.82941070	         20.45114518	         38.53878756	         60.75432357	         22.69176403	          8.86822860	         21.26649769	         21.10097411	         39.80792913	         23.69251582	        118.71791881	         38.03168126	         21.24371666	         38.04805926	         83.67372761	        219.36848063	         12.81730932	         19.11584771	         61.80856277	         37.03070629	         23.09301281	         38.49769823	         14.56631399	         15.57865180	         15.03761255	         20.56120829	        150.20901683	         97.53564786	        181.72891462	        103.59068132	        200.84722621	         98.57556362	         15.47262563	         35.96030702	         21.47790208	        351.45804525	         19.42186838	        424.13541948	         87.35099026	         32.95081883	        189.85922540	         56.57150131	         -0.15458007	          0.09072906	         -0.18254558	          0.19985154	          0.09538510	         -0.03456214	         -0.01415346	          0.06234788	         -0.01237281	         -0.02040220	          0.09568924	         -1.04227763	         -0.51023103	          0.01672572	          9.32076866	         14.62993966	          5.98330088	         -1.75638246	         -0.84684400	         -0.07762902	          6.56789485	         -4.15667425	         -0.28955464	          0.77730873	          4.20167672	         -0.03381213	         -0.09593180	
          1.10000000	         43.17860092	         79.05726471	         13.10539664	         14.72448869	         12.43398339	         10.67204992	         49.47472218	         38.29165073	         11.53429767	          2.97113320	        121.38216937	        254.51282038	        160.83892103	        472.97668748	          9.12072839	         13.68944781	         15.46213499	         14.27271220	         23.83490484	         68.27536236	          5.02494430	         28.45784779	          1.58863847	         36.39734747	        318.53222809	         73.38547885	        118.75952057	          0.00026583	        658.86329581	        405.61178281	        113.56187237	         86.90485765	         44.14973834	        409.25830546	         99.21591656	        268.00017036	        683.19021933	         34.84634995	        269.11240965	         67.22881967	          9.28090527	         13.96843885	         12.95451830	         13.87521160	          2.85933405	          2.60348338	        108.44455194	         25.64643464	        132.31612105	         41.80425667	         17.72285237	         32.35482522	         94.89596671	        249.26444931	         30.40940714	         27.24179862	         48.32468713	         52.72897554	         28.09699580	         50.77582436	         21.11573079	         21.46873502	         19.79269321	         12.52304206	        134.57264501	         69.62779974	        191.08286495	         36.89779383	        159.17515463	         32.05877528	         12.75034712	        114.45551443	         27.90588545	        331.07656888	         23.71332553	        423.33362481	         78.52304980	         27.79415001	        214.28310099	         56.84909371	         -0.08467152	          0.08594318	         -0.20031868	          0.18486618	          0.30127071	          0.06361288	          0.34699380	          0.06628138	          0.03465830	         -0.02150725	         -0.17257987	         -1.77221331	         -0.27459821	          0.10902663	        -14.53115470	          8.18959356	         18.97332488	         12.06737640	         -1.65118278	         -3.53701963	         21.53706539	         -4.21801539	          1.46027035	          3.50799311	          8.58483652	         -0.20095995	         -0.10209327	
          1.15000000	         50.67215503	         99.75182904	         13.47477977	         15.36846380	         12.70867860	        127.07401347	         51.83740066	         31.54419015	         11.20510683	         76.36509438	        114.79890518	        364.50620437	        164.79568256	        486.18739941	          9.64927846	         14.46891977	         15.71568058	         12.46552855	          8.22038783	         60.93753354	          5.33917565	         16.04195226	          1.08870438	         41.61946773	        778.81284834	         77.44325791	        123.57422493	          0.62718795	       1075.33838743	        467.40223732	        251.84019042	         91.13126639	         46.20276062	        420.80821596	        125.87770555	        489.24619757	        874.50164093	         92.96722463	        661.59408373	        214.15582280	          6.02002225	          7.66265008	          6.51102370	         10.09523690	          1.68911477	          0.85926871	         80.00135324	         30.04148479	        161.94601796	         39.78486983	         13.65658057	         26.12201560	        115.16408708	        307.65206495	         58.70242220	         93.29344857	         32.85752756	        124.57060059	         74.71273334	        120.78932058	         32.99477177	         38.26561567	         52.72102206	         12.52414309	        125.45613556	         66.99700579	        140.68854252	         12.17646119	        133.14268517	          7.08547828	         12.64149447	         95.40012191	         32.93569262	        295.61170589	         25.48691861	        431.37843474	         61.66509778	         18.90383869	        139.64663049	         41.80644353	         -0.15995264	          0.00261636	         -0.11916578	          0.05585170	          0.36575683	          0.04690915	          0.36077588	          0.05921424	          0.03939747	         -0.01953039	         -0.29159977	         -2.38698899	         -0.14728457	          0.06599401	        -42.04369468	         17.70482149	         23.63547135	          6.03643497	         -0.82225597	         -1.84308900	         -5.50957421	          1.09248027	          0.27967142	          1.80258708	         -0.42079024	         -0.09302735	          0.05335529	
          1.20000000	         48.19210757	         93.34978673	         13.07822299	         15.44101008	         11.66927876	         22.97201023	         47.20566363	         87.67006257	         10.77062624	         30.77851832	         85.24572495	        284.15734269	        161.11911800	        491.75416335	         10.40290245	         15.67723784	         16.21239621	         14.49963661	        144.75458291	        338.48153337	          5.90761777	         71.66413130	          1.48422153	         41.09645335	        228.97138768	         76.05005659	        122.23833833	          1.54216201	        333.03192075	        153.81412646	         46.99751669	         77.54816858	         47.56065118	        431.76686288	         23.41328724	        380.20479749	        769.33982034	         18.98777666	        125.90960591	         41.34046130	         11.00652385	         33.41738596	          8.19345454	         12.96344812	          2.25363132	          1.12931605	         50.39715133	         32.09861213	        189.37025575	         45.61275828	         12.97045299	         25.17435975	        124.91783204	        337.14455398	         18.06878847	         30.65346428	         15.77432080	        105.85964043	         41.96319443	         40.76094671	         43.42569696	         39.05778560	         40.86012772	         13.17817204	        136.33765740	         51.88829844	        103.19671730	        133.48334313	        741.54858184	        282.88378539	         49.17646512	        112.29634543	         44.40982507	        276.23790049	         96.56607409	        499.92532782	         59.07210754	         40.65831256	        295.89270116	         85.38954888	         -0.29072261	         -0.08350018	          0.01795510	         -0.04608759	          0.11846158	         -0.02248657	          0.10150791	          0.03697364	          0.03531294	         -0.02124998	          0.00233137	         -2.05694857	         -0.08118623	          0.02665787	        -25.24062690	         14.29568223	         -6.21930932	         -4.90956967	          5.77510537	          4.22664316	        -23.65489928	          9.07789179	          0.10757420	         -0.37454505	         -7.00739914	          0.18287093	          0.12382177	
          1.25000000	         45.41627959	         83.68541954	         13.31690456	         15.59669571	         11.96823985	         10.35788154	        386.50557907	        278.53853854	         10.40892310	         16.82752044	         78.26732957	        273.80940119	        459.77715171	        493.55293139	        118.06223921	        137.58310958	         17.02789757	         47.09772831	        240.51250773	        418.70582046	          5.20850374	         74.70661744	          4.19575454	         39.90375364	        145.48601417	         71.34134875	        116.92922286	          3.27185869	        223.12606691	         31.63878775	        131.52494242	        979.39470650	         49.20017674	        438.01305363	         70.08228699	        298.77699249	        747.13317771	         13.33373873	         42.71465104	         21.10484255	         77.04281886	        106.31070373	          8.55406158	         14.42440015	          2.67097114	          2.15465376	         65.85178500	         31.68114092	        172.35606438	         48.90923204	         14.13723585	         26.92328393	        120.48337532	        322.36773579	         19.36102296	         33.50516065	         17.31222406	        124.32706840	         50.89767368	         36.88772164	         45.63202496	         44.97944622	         57.95624700	         13.66792022	        818.44104344	         34.93369005	        120.41861537	        348.51163313	       1288.70398259	        194.00420125	        165.46833023	        153.23512010	         54.56892156	        269.52810039	         28.08541390	        603.18564938	         64.70485990	        104.03282711	        791.97291002	        231.17125954	         -0.15339879	         -0.03361907	          0.01387604	          0.00388647	         -0.02322873	         -0.14486747	          0.01038313	          0.04515522	          0.02472148	         -0.00970419	          0.15493747	         -1.33179173	         -0.05712856	          0.02353800	          5.48029395	          9.19416508	        -31.99609541	         -4.73651541	         -2.86776503	          1.08902823	        -22.62598869	          1.14591102	         -2.29521938	         -0.16548493	         -5.12251219	          0.03645333	         -0.00705032	
          1.30000000	         48.32359519	         89.13976338	         13.90972845	         15.89966967	         12.99779111	         11.29267032	         95.53164316	         90.20595708	         10.03301595	          2.84926983	         69.14287071	        249.86640639	        195.86961742	        498.28521511	         61.30505153	         89.72177789	         17.30648053	         10.31425521	         62.80089658	        152.76806116	          4.32629979	         27.57288189	          0.59358030	         41.98113673	        134.56583813	         68.58589619	        113.85326636	          1.10324168	        213.25688458	          9.57174460	         58.31652789	        203.93013141	         50.00336196	        438.76145437	         29.18598655	        180.79973456	        699.89418400	         12.71648533	         39.81391603	         20.30152172	         28.81419488	         21.18985862	          7.63998513	         13.33888615	          2.79612266	          1.10271212	         65.23784967	         31.16800360	        147.36515037	         43.74847908	         11.84760500	         21.56955556	        115.14606549	        305.17119113	         18.19881588	         31.98856576	         15.66463466	        127.05162193	         52.43856097	         83.84342890	         45.27026808	         46.04108267	         63.64206598	         13.44703889	        206.83837862	         53.35407160	        113.74949823	        182.23189211	        285.81268488	         49.75768606	         35.67567977	        155.79444332	         55.37197467	        262.58317813	         15.98117710	        478.95625347	         67.91508772	         38.09954557	        270.19377260	         74.88842913	          0.03872598	          0.04028123	         -0.02254839	          0.06585826	         -0.01049275	         -0.08927928	          0.00893331	          0.07514994	          0.02375081	         -0.00043647	          0.04212089	         -1.05866225	         -0.06795397	          0.02305511	         20.14800402	          4.60688262	         -9.95999731	         -2.05811286	         -4.28951644	         -0.50523690	          3.94541690	         -2.22621176	          0.23789311	          0.46452577	          4.45043531	         -0.06386582	         -0.06350116	
          1.35000000	         54.39878188	        103.99574811	         14.70329264	         16.67133655	         14.04846005	         19.64615049	         62.87408558	         37.33787891	         23.87521921	         69.74184178	         63.81349484	        148.49749316	        164.22037528	        483.14416178	         12.44836696	         37.93362725	         17.67125180	          9.16231212	         12.24128269	         40.08961178	          4.08099428	          5.33516985	          0.01918330	         46.08942692	        135.69344997	         69.62935805	        114.48894426	          0.03270317	        243.43671025	        166.56363325	         27.28732733	        104.87299939	         51.38217806	        410.87976768	         10.71142098	        433.35456413	        643.41729998	         25.68221039	        218.25385941	         55.10515595	          6.03645050	          7.33808777	          6.84272983	         11.77905000	          1.75537461	          0.62352630	         56.05198242	         31.44234477	         26.22594333	         14.77721743	         63.24413974	        155.87209151	        114.12226149	        300.93105757	         16.92777048	         29.87270700	         13.77819398	        137.83641044	         98.06902469	        121.54375521	         48.76809647	         57.82136691	         80.66650022	         12.91004819	        163.35871418	         19.68093177	         41.87391180	        187.59869399	        241.98607920	        175.41426180	         49.77703312	        135.26392891	         50.85070694	        255.71290162	        237.10612326	        442.28098351	         46.44168915	         34.32520241	        243.05615294	         70.34347976	          0.08640574	          0.03429568	         -0.05332468	          0.08236132	          0.00378073	          0.00660089	          0.06742253	          0.07871154	          0.01075612	          0.07069368	         -0.02688686	         -1.25632469	         -0.05148285	         -0.01904163	         -4.42927972	          5.44905687	         -6.06986568	          9.53127573	         -2.25153267	         -2.33684454	         23.56162630	          2.65433206	          5.04859021	          1.34373045	          7.96711939	         -0.13499296	          0.00697320	
          1.40000000	         82.78382848	        198.39465482	         15.57430687	         17.71082085	         30.20819251	         11.83205677	         62.93301207	         31.93038734	         13.86122868	         20.99067204	         71.01844212	        260.91492781	        138.26584971	        416.74201614	          9.75588124	         14.86751263	         17.59012393	         96.02480537	          8.25693206	          9.60574766	         26.74645627	          4.19488632	          0.24099638	         48.69850573	        207.53145924	         69.52969215	        112.17428822	          0.00347514	        261.29591401	         37.78653972	         11.88706941	         91.53984477	         52.41186247	        326.70525594	          7.71540603	        505.09521558	        681.90285992	         60.89734421	        311.39384110	         97.87539651	          6.42856711	          7.81945937	          6.74668220	         11.05161705	          1.62413688	          0.70080852	         49.50475470	         31.83501255	         34.35045121	         26.59756867	         11.23355737	         18.99440139	        120.37779275	        318.17532127	         16.11401547	         28.18619290	         12.96557583	        123.47180044	         49.53440253	         39.81809295	         54.26652676	         58.21629692	         69.55620709	         12.63148466	        383.66284712	         19.27394351	         41.73035405	         56.42702117	        538.18502206	        256.76243632	         73.02981202	        118.92727771	         46.96858098	        270.10381510	        227.28602262	        340.75863702	        683.26894858	         41.08914111	        354.03087481	         94.13604031	          0.07132955	         -0.00743393	         -0.01696103	          0.02288362	         -0.00626524	          0.06202314	          0.07576732	          0.07069253	         -0.05734992	          0.18106586	         -0.05293083	         -1.53213969	          0.01363381	          0.01182904	        -41.78148872	         -1.28254022	        -10.50389336	         21.94210261	         -3.27907157	         -5.73172949	         -6.54267963	         -9.31130267	         -3.81590702	          1.07753148	          2.15298702	         -0.31422370	         -0.13125471	
          1.45000000	         54.42659812	        112.68076972	         13.41796253	         20.24563419	         12.45271894	         10.86227391	        114.94864557	         52.90431866	         15.88733882	          6.83288120	         67.57889507	        249.11216993	        321.86815993	        320.68915356	         28.90857546	         24.52265540	         16.22897025	        245.08884832	         65.59077049	         21.21387425	         31.92324144	         20.47836999	          0.95545637	         45.92013505	        145.54028679	         60.25819093	         98.30950919	          1.30746377	        221.92827235	         14.49432637	         11.77282782	        885.90645934	         72.74371331	        319.70171607	          6.25974985	        258.74499466	        642.38543639	         13.18412737	         61.62414587	         21.09070576	          7.74039045	         45.44947595	          7.46313100	         11.63713712	          2.29449000	          1.05940063	         39.11480429	         31.22400905	          9.67235784	          6.42763383	        102.16292323	        345.00433527	        118.72222832	        340.30163692	         15.90256254	         27.30480802	         13.69002106	        112.46789069	         43.28265559	         29.41451640	         53.41084615	         41.66168618	         47.57907381	         12.89662996	        624.40171521	         21.20860499	         45.81578336	          7.57256274	        933.21198076	        318.50169255	         63.62217792	         99.41544854	         44.94101425	        301.62484894	        183.35424450	        310.21356675	        655.69396865	         66.74435424	        372.42403895	        113.64127238	          0.01973974	          0.01578542	          0.08043195	         -0.08142293	         -0.01793528	         -0.00785992	         -0.01252039	          0.05006286	         -0.08684693	          0.21930460	         -0.06862344	         -0.89583267	          0.04498214	          0.16941543	        -34.19269978	        -20.39183281	        -28.02113408	        -10.65102312	          1.52754455	          2.43658511	        -11.32247368	          2.33719176	         -0.74231844	          1.09345329	         -1.38472263	          0.09011315	          0.01967856	
          1.50000000	         85.60940899	        246.04034991	         13.60863812	         17.09468692	         27.33393488	          9.16582393	         42.83123214	         31.11830507	         11.87826632	          7.24496325	         41.04741086	        126.65386287	        110.88165625	        245.19574208	          9.91766548	         14.40103430	         13.16496442	        143.18175277	         15.38942487	         11.63869501	         48.06127365	          6.36787720	          2.28040149	         38.34572698	        289.89119438	         44.82833958	         77.57158109	          2.63040240	        288.69155280	         89.35406779	         12.10131931	        144.23006148	         41.96590280	        179.59491124	         32.20178078	        362.29111644	        418.66681337	         18.21557426	         96.35307608	         31.14688856	         10.11125973	         13.86737809	          8.04710634	         11.88952275	          3.76898569	          2.03576217	        446.85733152	         45.91044270	         10.44856298	          6.07465617	         14.23149670	        108.06226714	        513.47062998	        412.43133951	         59.07286017	         59.27740866	         14.25729067	         93.01130687	         48.62775771	        150.59462138	         37.24998399	         33.52261457	         34.35529374	         13.84031831	        173.53154296	         24.59384538	         51.87019414	        182.33497731	        231.39927994	         87.38981912	         18.04716459	        689.16258899	         58.32407294	        308.85034387	         21.96483051	         39.50964194	        462.43250901	         15.35517601	         76.63215239	         25.16926014	          0.07438924	          0.08003796	          0.16840923	         -0.19180147	         -0.03891321	         -0.06474163	         -0.04753719	         -0.01464793	         -0.00813530	          0.12395269	         -0.13541853	         -0.07492265	          0.10129798	         -0.09807360	         35.96186018	        -51.86625262	         20.19319309	        -38.47298917	         21.28619389	          6.56803097	         12.75578452	         14.93496925	         10.49937620	          4.54765890	          1.93069912	          0.30314196	          0.32843566	
          1.55000000	         51.62371538	         82.74962481	          7.92797572	          8.80200637	         11.21206945	         60.65983710	         27.15101053	         47.07581423	        167.35917494	         30.46296319	         11.40747577	         29.28863020	         75.73904673	        203.71789017	         10.22284265	         14.34285364	         10.48081413	         34.77561424	         13.38726608	         54.85721830	         12.50558445	          8.39089553	         34.95085001	         33.72888965	        176.21444786	         37.97897328	         74.61284208	         28.52984072	        344.81083504	        443.88812567	         40.71946563	         48.01391665	         31.37223835	        175.55037925	         10.05499580	        297.87854796	         91.31290179	         17.05428057	         51.33107161	         25.35498236	         14.50671546	         21.05951856	          8.62475387	         11.36585454	          6.23266311	          4.71916688	         83.56507187	         47.01251817	         11.64568868	          5.61640741	         71.35861638	         13.32137380	        212.86207750	        756.07855742	         31.98701198	         33.03133355	         12.19458289	        209.91564218	        369.82922848	        543.33330842	         25.72803489	         50.46976173	         58.30632700	         16.19267373	        119.41881080	         32.40346274	         64.65701963	         61.27488401	        144.54405152	        145.46165136	         55.12573779	        145.77954098	         40.25073967	        443.66549464	        212.52185652	        229.52089623	        442.20900230	         13.80061881	         43.51327160	         21.50651552	          0.20280352	          0.03983745	          0.25595821	         -0.26590843	         -0.09392038	          0.01178371	          0.05411359	         -0.13863213	         -0.00048336	          0.01165227	         -0.27359414	          0.10737635	          0.09334763	         -0.17789178	          6.94977168	         -6.85224848	          9.74672414	        -25.14220839	        -17.71657261	         -0.92131283	         10.94687639	         -5.87961886	         -1.90437995	         -7.95906951	          2.96897827	          0.07682467	         -0.05879913	
          1.60000000	         19.92877022	         32.56869723	          6.86361628	          8.49420549	          4.48231946	          9.33529980	         24.00052992	         27.50204355	         68.63140944	         29.40050052	         10.35083745	         19.79170989	         66.18753100	        175.12833476	         53.97617249	        106.75215325	         11.35404570	        115.63669495	         85.47068197	         94.51072921	         14.82932305	         26.91250629	         22.44247067	         19.76716539	        159.15527204	         41.27492284	        119.86678810	         22.30560909	        222.60708406	         97.66345334	         15.57645839	         44.42867049	         26.47981541	        171.40630299	         28.54991305	        324.88037482	         44.72338246	         27.35281661	        154.57055639	         45.80609184	         20.55324055	         31.90799961	          9.78622242	         11.96475546	          8.36072454	          7.23292437	         38.55782682	         42.72295013	         12.40144504	          5.64085745	         42.86419295	        389.77584192	        298.59225523	        385.72194431	         10.44983181	         15.56141393	         12.59094924	         63.57109745	         67.89393729	         75.35281106	         25.57607260	         61.62373719	          8.63477182	         20.44076702	        361.06895367	         41.48809917	         77.47199801	          0.76190188	        163.86430451	        533.17913456	         99.07641790	         79.94661597	         39.39184200	        340.81480162	         10.32177528	        200.04272308	        514.90958222	         12.41931298	         39.18682918	         19.90509293	          0.16226178	         -0.10990633	          0.25974599	         -0.26694317	         -0.12156929	          0.16680281	          0.10193758	         -0.13203164	          0.01995807	          0.02325812	         -0.22377357	          0.07255007	          0.05759546	         -0.09659826	        -15.10291207	        -32.30144767	        -11.51442651	         59.17987048	        -27.67475926	         -2.41705798	        -22.49597534	        -42.63363507	         -8.44617463	         21.93421631	         -9.90921605	         -0.38807768	         -0.39290186	
          1.65000000	         13.35243416	         19.38599581	          7.34671533	          9.88633379	          4.26741682	          3.63437743	         28.45919806	         28.19757324	        124.15734497	         11.51637056	          9.82917772	         18.04915480	         60.62593000	        155.86777741	         30.30486095	         63.02909362	         11.76429635	         88.71969858	         57.67399097	         65.23499741	         16.42965950	         22.31961153	         27.93231726	         16.15968536	        144.41517719	         31.18814360	         55.80264543	         23.59109806	        180.14972981	         54.84020809	         13.15558790	         56.68915586	         28.65293447	        136.64183158	         20.37365954	        240.34271218	         42.58843001	         22.03555356	        140.64287026	         41.26036625	         26.33705324	         43.92366624	         10.85458182	         13.44116837	          9.22814629	         70.58689953	         42.89313760	         32.08182119	         12.81776422	          5.75771955	         40.77525484	        136.93794567	        136.53690791	        356.55733276	         10.98697246	         16.47228848	         13.91725618	         26.22165696	         19.83336174	        590.09338026	         11.43062546	         17.08910077	         86.55167521	         25.38687160	        369.04716920	         46.68215787	         83.89155628	          1.53798362	       1153.54588939	        557.86905244	        241.99727680	         86.01262386	         41.78539780	        659.14280174	        224.58083659	        150.89852214	        501.87841939	         24.72082475	        178.04896842	         49.97767710	          0.02810366	         -0.17781187	          0.17155180	         -0.14622937	         -0.01004903	          0.32038756	          0.09200899	          0.09616019	          0.02317624	          0.12663057	         -0.22289799	          0.00589217	          0.04310346	         -0.06185746	        -38.55467216	          3.98482289	        -10.17750175	         -4.02470216	        -10.16742965	         -1.89143045	         16.00864733	          4.00049480	         -3.00530153	          2.21391815	          3.49409540	         -0.07520083	         -0.27499110	
          1.70000000	         10.51712478	         13.73892488	          8.26056966	         11.60254316	          4.52269898	          3.31159138	         83.12786731	         29.71265233	         11.74930314	         55.24031112	          8.75555979	         19.41689638	         72.01391247	        182.81944314	         38.56430728	         60.16150167	         34.85706316	         51.53295657	         50.92565040	         75.97597023	         20.10635344	         19.30049092	         19.58855353	         15.54472872	        121.67437296	         56.69510675	        143.42607375	         19.96711698	        148.88045285	         11.40280738	         12.29486885	         85.97991829	         35.64946344	        168.59603095	         15.34379168	        379.38817831	         37.49317201	         19.46284297	        121.55683980	         36.64896349	         30.57180545	         53.61220757	         11.35713690	         14.24175919	          9.58878671	         13.90737003	         44.94657467	         31.76106697	         11.21623995	          5.05360674	         57.68265293	        199.43242544	        194.05804539	        361.90823468	         11.05214064	         16.58670123	         14.27964102	         24.22081340	         13.38354221	        134.21123164	         10.43829691	          7.69613412	         39.01652578	         28.91668634	        208.33945267	         49.19389045	         87.63778178	          0.31227710	        734.18401637	        416.57714026	        209.11365498	         89.76594809	         43.97984288	        821.04669290	         17.63308930	        156.90752568	        564.49796173	         13.60451092	         43.34111583	         21.43935306	          0.00772248	         -0.21561917	          0.09034492	         -0.05591183	          0.01539905	          0.16124904	          0.03230311	          0.12541883	         -0.09383902	         -0.13329866	         -0.22852680	         -0.04677583	          0.03397367	         -0.06426893	        -19.39641188	        -20.31961750	         -9.05002253	          0.17177329	         -3.78027062	         -0.49296439	          5.03339882	         -5.60640620	         -1.16846446	          2.55081284	         -1.00358630	         -0.06335269	         -0.03203959	
          1.75000000	          9.91251470	         12.23506797	          8.88913645	         12.97949910	          4.99359811	          3.28701047	         51.68625368	         31.37624105	        292.41740884	          3.40801702	         32.29767873	         20.85084288	        103.62190426	        276.37783489	         15.85104915	         25.28929171	         15.71027414	         60.50615650	         55.10204497	        110.24840904	         22.01716115	         27.77503132	         52.01105793	         16.08437282	        112.70127495	         36.05698973	         72.22107808	        132.56473490	        159.21373113	        161.24891601	         23.55988108	        107.49760566	         44.20054025	        249.70793200	         39.09890699	        360.47708737	        179.94007660	         14.93692136	         81.64783656	         27.82527937	         33.73804390	         61.28434295	         11.26910368	         13.79544349	          9.74520999	          8.33838008	         42.45075547	         46.81847710	          9.11833781	          4.29102408	         57.36495300	        220.13843827	        133.79911014	        992.53497567	         10.32533353	         15.36598404	         13.67787286	         21.05910279	         11.27340002	        455.74428558	          9.25677177	          6.75831667	         41.54589215	         30.56676631	        156.89148711	         49.31799850	         89.14227806	          0.95791645	        364.68040732	        423.25227736	        181.89625731	         83.65217119	         42.98207313	        468.45499632	        127.60365083	         76.93975223	        603.53426652	         14.23682623	         44.85429269	         22.09274328	          0.05598038	         -0.16864034	          0.03729943	         -0.00007202	         -0.06021609	         -0.00380691	         -0.00734299	          0.12733526	         -0.13645576	         -0.33297138	         -0.14158344	         -0.22778671	          0.03469390	         -0.08567596	         -5.21302045	        -20.24879224	         -5.46164952	        -16.23369510	          0.40495654	         -1.72698117	         -3.31746541	         -0.77582685	          0.78587216	         -2.84129077	          0.03924110	          0.01574891	          0.05112099	
          1.80000000	          9.52698133	         11.39537462	          9.59551436	         14.79885922	          5.34754056	          3.08097624	         67.36357897	         32.03293886	         34.95270652	        176.18747154	          7.02155961	         20.87607130	        138.48354926	        391.08629023	         17.19923902	         27.95891071	         17.66952638	         66.89290804	         36.84944663	        100.96015823	         22.72353794	         23.52533097	         47.87421330	         16.88380380	        136.98444797	         47.24020486	         85.62184185	        196.64991110	        248.29802782	         92.38025370	         39.22792854	        143.88623869	         53.76896020	        333.73147677	         34.97315905	        540.32482886	         31.22912470	         30.00635609	        224.25081986	         63.18649097	         37.56772693	         70.77095649	         11.39824225	         13.34176528	         10.30328438	          8.87270946	         39.46171323	         53.94662408	          8.22139923	          4.01231783	         50.87257373	        195.00850842	        775.85424952	        467.49061448	          9.60549975	         14.16498917	         13.31927508	         17.21550989	        156.00248778	        337.98347343	          7.79139478	         61.52227683	         14.37312367	         31.84291967	        159.42787348	         47.14857066	         87.59960822	          0.42928103	        231.37809094	        455.50810335	        116.06753533	         75.13646657	         40.49609789	        511.53469295	        126.28383480	         69.44506374	        565.40684529	         14.57392825	         45.59051309	         22.44162278	          0.07976096	         -0.14819179	          0.04481755	          0.01995721	         -0.09486153	          0.03996701	         -0.01020322	          0.08836563	         -0.08746280	         -0.16020340	         -0.06660041	         -0.28718269	          0.02723669	         -0.10546986	          3.66979751	        -13.39467360	         -8.28490703	        -12.13106699	          0.67438309	         -0.97729873	         -7.87545556	         -0.89088173	          1.43387155	         -2.38862401	         -0.65965109	          0.01878072	          0.07610084	
          1.85000000	         35.31437601	         35.41183300	          9.62241402	         15.72489905	         20.98996535	         21.59994355	         78.48729583	         32.00344687	        303.47070300	          9.40274555	         57.49901113	         18.56582626	        149.16303550	        430.52506136	         17.80924237	         29.47329659	         18.29335810	         74.58328374	         39.94239069	         58.02344110	         24.56382395	         25.24757693	         28.01987162	         17.26021207	         78.52078623	         54.25894186	         94.86869502	        175.10097750	        209.72177525	         12.49850468	         13.40789398	        172.31070304	         60.47578725	        360.59922936	         12.30445325	        606.15516534	        409.31762875	         39.33421781	        287.10492151	         81.68908620	         43.37028986	         86.11931886	         11.89015308	         13.41011242	         11.25796378	         80.40348283	         37.47843945	         30.56537108	          9.07434350	          4.43938010	         38.55489926	        144.17441151	        151.80098899	       1175.35581120	          8.99972574	         13.21069025	         13.22702474	         14.29406729	         26.70986857	        183.91357642	          6.68431614	         11.24563132	          1.18314823	         34.17289348	        169.57611736	         42.94660111	         81.21580596	          0.00401518	        384.07387155	        513.19590721	        101.62461618	         69.13074082	         38.63574004	        597.37119815	         16.82390795	         57.70023525	        438.11693483	         14.90169997	         46.34125366	         22.80402511	          0.08752840	         -0.07092909	          0.07431150	         -0.00532869	         -0.04450933	          0.08194340	         -0.01311205	          0.06163758	          0.05531789	         -0.00376431	         -0.00127122	         -0.35387141	          0.06164408	         -0.11889836	         -0.53318475	        -13.21977443	         -8.43721450	          0.99887956	         -2.16640741	         -0.29862887	          6.03755383	         -1.37059818	         -1.33642789	          2.06107170	          1.34209896	         -0.06173665	         -0.08867287	
          1.90000000	          8.90198460	         10.01433047	          8.89643771	         14.82503645	          4.73070562	          3.99229873	         76.70238518	         31.93068128	        264.90347888	        155.98204151	         59.28876309	         58.93421315	        154.89107324	        446.21308544	         17.09223835	         28.38865600	         17.06449174	         77.50915073	         40.67105806	         77.67807677	         25.51369917	         26.27156899	         31.07974715	         16.87820322	        172.64074825	         59.84423636	        103.70358566	        210.11960640	        562.79119772	         84.08117373	         57.95205344	        172.94005780	         60.46730461	        386.17922452	         17.59432386	        653.85089287	        426.75031947	         61.30243720	        484.58408024	        136.29271508	         50.01535880	        105.48039561	         12.28232465	         13.58352686	         12.00448903	        127.08297408	         36.04685567	         67.84961759	         10.40346000	          5.15768665	         13.82634051	         36.14358669	       1049.19701215	        388.24957620	          8.65323106	         12.69928057	         13.19146963	         12.74231132	          8.25621912	        262.42505628	          6.02007512	          4.66346218	          0.16606800	         36.83482653	        179.72647406	         38.05473925	         96.79698388	          0.00039181	        329.71398323	        536.23935828	        114.57598454	         64.88701852	         37.02172128	        999.06303490	         35.00313712	         17.70915342	         95.24053822	         16.09410897	         49.46745040	         24.20679149	          0.07373412	          0.02826910	          0.06339351	         -0.03250475	         -0.02657755	         -0.02305212	         -0.04975399	          0.06072198	          0.16858435	         -0.04111772	          0.10146971	         -0.59317983	          0.17104761	         -0.12509233	        -19.85566331	        -15.58723295	         -2.99553073	          0.93008129	          1.60432610	          0.73268995	         -0.17526183	         -1.00303820	          0.33968807	          2.24572367	         -0.31636932	         -0.01790642	          0.03612364	
          1.95000000	        109.16529284	        182.48945438	         22.32028592	          5.35766868	         29.89191012	         18.71129336	         80.81707052	         27.99852592	         38.86585297	         18.98116326	         15.05538789	         47.22864779	         10.35730113	        152.87922117	          7.80402396	         11.02549833	         32.83859863	         60.64683842	         30.48153575	         42.21974190	         22.32522483	         22.29789275	         22.96499769	         16.04164808	         78.58886044	         46.70351838	         16.78235549	        208.58348959	        218.64100506	         34.44548081	         14.65355520	         84.33588170	         48.93841781	          0.00342596	          2.23169176	        176.86472907	        141.75324439	          2.04042396	         56.49407645	          3.12672969	         54.41438114	        120.56481105	          7.32949269	          3.57490270	          9.19414830	         19.17578611	          2.69239255	         25.24612799	          4.23759906	          3.36834413	         13.67950495	         38.95058155	         67.56210774	       1098.79219020	          1.28279485	          0.00483846	          4.45697384	          1.44839885	          0.92216779	         17.00117755	          3.73649901	          2.28502463	          0.00056189	         37.59040323	        197.59467624	         18.97352637	         35.95940117	          0.17868476	        271.90967100	        364.22313456	         23.02689288	          0.00539458	         26.54707994	       1336.37188481	         18.98376122	          2.38599627	         51.41271465	          0.01087932	          0.01843183	          0.01320468	          0.05140454	          0.12978136	          0.06072788	         -0.04465098	         -0.10397019	         -0.14697449	         -0.08394612	          0.06492723	          0.28994608	          0.05884720	          0.20242500	         -0.24567726	          0.23711265	         -0.13493082	        -21.39806835	          1.78855707	         -2.30606946	         -7.22183113	          0.76577159	         -0.41684575	          9.32062259	         -3.85218689	         -1.89094929	          0.53819563	          1.87417905	         -0.02931059	         -0.10967996	
