ModelForces
version=1
nRows=20
nColumns=108
inDegrees=yes

This file contains the forces exerted on a model during a simulation.

A force is a generalized force, meaning that it can be either a force (N) or a torque (Nm).

Units are S.I. units (second, meters, Newtons, ...)
Angles are in degrees.

endheader 
time	addbrev_l	addlong_l	addmagDist_l	addmagIsch_l	addmagMid_l	addmagProx_l	bflh_l	bfsh_l	edl_l	ehl_l	fdl_l	fhl_l	gaslat_l	gasmed_l	glmax1_l	glmax2_l	glmax3_l	glmed1_l	glmed2_l	glmed3_l	glmin1_l	glmin2_l	glmin3_l	grac_l	iliacus_l	perbrev_l	perlong_l	piri_l	psoas_l	recfem_l	sart_l	semimem_l	semiten_l	soleus_l	tfl_l	tibant_l	tibpost_l	vasint_l	vaslat_l	vasmed_l	addbrev_r	addlong_r	addmagDist_r	addmagIsch_r	addmagMid_r	addmagProx_r	bflh_r	bfsh_r	edl_r	ehl_r	fdl_r	fhl_r	gaslat_r	gasmed_r	glmax1_r	glmax2_r	glmax3_r	glmed1_r	glmed2_r	glmed3_r	glmin1_r	glmin2_r	glmin3_r	grac_r	iliacus_r	perbrev_r	perlong_r	piri_r	psoas_r	recfem_r	sart_r	semimem_r	semiten_r	soleus_r	tfl_r	tibant_r	tibpost_r	vasint_r	vaslat_r	vasmed_r	hip_flexion_r	hip_flexion_l	hip_adduction_r	hip_adduction_l	hip_rotation_r	hip_rotation_l	knee_angle_r	knee_angle_l	ankle_angle_r	ankle_angle_l	subtalar_angle_r	subtalar_angle_l	mtp_angle_r	mtp_angle_l	lumbar_extension	lumbar_bending	lumbar_rotation	arm_flex_l	arm_add_l	arm_rot_l	arm_flex_r	arm_add_r	arm_rot_r	elbow_flex_l	elbow_flex_r	pro_sup_l	pro_sup_r	
          3.00000000	        113.13023207	        144.82344456	         13.20089040	         16.74051390	         64.21893003	        194.10246668	         61.39766929	         32.85637540	         11.60318970	          7.69980788	         23.74652816	        135.69003565	        179.02947170	        533.62920777	         14.06832161	         21.27595375	        100.97342499	         20.14548925	         16.18104574	         19.27540984	          7.20386985	          7.65371653	          7.26641357	         39.30881778	         96.55386197	         20.40274950	         44.61292463	        127.91965141	        351.25177471	        366.23885477	         51.51733161	        101.27025459	         46.45459864	        774.26158567	          5.81946622	         15.19431483	        214.71971837	         43.41761001	        170.96588943	         67.07348148	         15.44660433	         22.31161116	         17.92506037	         17.89348866	          8.54609061	          9.74824881	         74.66248855	         36.41612340	        217.60974474	         60.44367635	         12.69631124	         25.24779843	        152.11276782	        432.47799586	         41.03487225	         53.90991219	         46.76417867	         48.06975556	         43.28466000	         65.97255936	         20.54929680	         23.06763305	         24.65732900	         17.42371019	        157.20355629	         40.50349889	         76.91138537	         59.42835571	        179.76445890	         40.46542825	         16.53249444	         63.97372508	         35.01070509	        381.99771463	         23.28300845	        405.59443355	         46.68552601	         38.68654000	        186.80508596	         68.50579652	          0.00457093	         -0.06215571	          0.04195180	         -0.01990674	         -0.02311005	          0.06248390	          0.06027497	          0.03195036	         -0.01025094	         -0.13429701	         -0.05421509	          0.00019352	         -0.05298413	         -0.14202489	        -11.93619115	         62.13713243	          1.78538831	          0.28985636	         -0.09024974	         -0.55208175	          8.74659833	         -5.35235953	         -1.65689216	          1.91442917	          0.20175522	         -0.07001576	         -0.06262976	
          3.05000000	        104.18288710	        219.86934671	         12.27727057	         15.96735404	         14.94522255	        173.52627834	         62.65702010	         31.48655217	          3.27597811	          2.92406505	         42.50614805	         32.44724842	        105.57232821	        293.72419961	         13.04417741	         19.78294574	         23.99359010	         20.54892974	         15.99476769	         17.69057060	          7.51576645	          7.81722578	          7.11116363	         28.56820207	        225.61904002	         22.20311285	         47.23886926	         99.49235171	        812.20895144	        333.35082744	         94.11865875	        108.89932001	         48.76578427	        335.94388239	          6.52666779	        328.04923211	        260.80874923	         80.19714712	        566.91041571	        155.36126789	         13.06584047	         17.91501059	          9.32005570	         18.15343841	          5.46154584	          5.85919749	        106.36134815	         36.38311350	         95.37709668	         19.79396884	         23.53111487	         30.28366371	        158.94678509	        452.69940281	         63.65832704	        151.69511978	         34.63943649	        156.29486301	         85.08278743	         90.30617380	         31.90144581	         34.17451891	         36.51105266	         15.92194881	        156.96926406	         38.88500215	         75.59064810	         45.62472825	        179.61644533	         38.77264864	         15.49164669	        315.81528918	         48.63980003	        405.01703025	         27.17663554	        372.17928548	        162.48498928	         30.94068670	        104.34482418	         49.17594103	         -0.01356391	          0.03492582	          0.00259854	         -0.01529449	         -0.01358949	          0.05382795	          0.04486764	          0.14899118	         -0.05969902	         -0.26229239	         -0.00540025	         -0.28214894	          0.03508916	         -0.23703079	        -11.39731209	         60.69163143	         13.47108713	          4.23278658	          3.20097696	          0.96848528	          5.28889879	          1.91171149	         -0.04371880	          2.73206335	          1.42659408	         -0.03844982	         -0.02284498	
          3.10000000	        144.11483173	        183.28259035	         11.24043095	         14.82150815	         19.65620513	        240.03191038	         61.50889437	         33.58856347	        253.23235736	        108.16373119	          6.81812133	         89.20357845	        138.56621107	        389.14348666	         12.87196175	         19.43853197	         16.03474146	         23.99015237	         17.13788138	         17.87012470	          8.86690095	          8.85658233	          6.96959430	         28.75371604	        162.24311798	         34.09136881	         68.57828364	         92.17370912	        935.28661382	        271.91281210	        119.10311957	        112.18998651	         49.79959749	        391.78068207	          7.02331021	        462.30967813	        376.23732274	         73.85936723	        585.36915084	        156.86580813	         13.02039114	         16.97681063	          7.39741562	          9.02075123	          4.62756828	          5.10660436	         92.89168194	         42.73223523	        110.38548681	         59.33887090	         44.12074510	         28.30994939	        177.37231475	        509.07939912	        111.88263718	        298.77705726	         13.18270292	        328.39021233	        150.13639061	        135.82362018	         45.07020650	         48.16082000	         50.30537892	         15.39772007	        155.05350719	         38.80881576	         76.87136897	         64.64673376	        179.29558128	         30.78981993	         16.47074993	        358.41009659	         45.08786106	        476.41097233	         55.78762742	        385.57570389	         35.37537592	         15.27617774	         44.07129242	         23.24653874	          0.01138455	          0.03723612	          0.05525625	         -0.06512855	         -0.06122924	          0.13533089	          0.03922675	          0.14726381	         -0.15688283	         -0.15751276	         -0.02487705	         -0.37941409	         -0.01671500	         -0.16833740	          5.06262259	         78.22932039	          2.68990143	         -1.46162572	          4.37244788	          0.35743407	          8.99350689	         -3.69582623	         -2.09551630	          1.19062876	          1.05950116	         -0.01815629	         -0.10951116	
          3.15000000	        334.89414533	        629.02033804	         27.50723086	         14.86076928	        222.94273555	        312.85442516	         46.61886989	         33.29293293	        257.90112059	        101.46714259	        161.79652245	         33.53410775	        151.15474299	        439.67368708	         13.68955071	         20.88306627	        240.11320671	         29.55117697	         19.59644934	         19.39648977	         10.83283314	         10.46449861	          8.03688923	         52.32698335	        109.50771888	         49.03648041	         89.68878091	         86.98998645	        841.95325739	        171.05515298	         67.17364733	        112.81284909	         49.68645149	        410.59723352	          7.92320602	        559.85935834	        680.01415014	         60.64176198	        203.33514654	         93.96762316	        130.00523635	        284.35225786	         81.29352705	         89.05743375	         50.21209024	         30.96960330	        255.95409720	         35.58794613	        237.38614537	         78.24806516	          3.93643166	         28.46815338	        193.61341809	        559.95052321	         21.90850927	         53.76546365	        107.96109437	         75.09748464	         36.53414458	         31.88758824	         18.39684019	         18.96983211	         16.44484484	         36.69056101	        156.25861990	         35.67593851	         73.17730834	         13.74469889	        189.95195272	         31.72210848	         15.20044358	        696.20276222	        108.72135411	        538.08618594	         20.40415403	        387.37720434	        663.18918910	         35.74681974	        134.48879798	         58.67295652	          0.02709288	         -0.04198724	          0.05516649	         -0.08087901	         -0.07181666	          0.16876213	          0.02998781	          0.00999592	         -0.09443746	          0.02309270	          0.08537555	         -0.33449870	         -0.03121838	         -0.09418838	         -4.95589498	         71.19495952	         16.16938244	         -1.29603038	          6.74985780	          0.73507096	         -7.15224632	          2.99249967	          2.74426656	          0.12737246	         -0.25863200	          0.00038986	          0.13100211	
          3.20000000	        322.34429654	        693.02634382	        144.91042814	         14.91397150	        184.96043994	        172.30777732	        863.45897376	         84.89021119	         59.01565019	         68.33736736	          8.25737908	        283.50204847	        141.55978934	        414.83304013	         13.74598744	         20.90836050	        136.45205448	         32.34881473	         20.68365132	         19.73773347	         11.94118690	         11.37604941	          8.47231213	         72.71916404	        139.86232072	         57.69726050	         99.87484087	         21.92572503	        474.55747088	         45.03961098	         26.73703763	        160.16079733	         76.41255151	        388.50332887	          8.58178022	        528.67768953	        594.13433025	         15.73948819	         47.97277665	         23.77543942	        287.98703785	        786.84805668	        114.80095643	        157.44241459	         76.56615584	         35.08835384	         48.50350728	         34.48660907	        278.63640364	        179.58411063	        302.07130837	         30.81902238	        195.55326075	        562.13794240	         11.84678969	         17.02031182	         19.87114790	         42.41283423	         23.45581942	         21.72891062	         59.00689280	         17.72267518	         16.56116235	         51.89185338	        262.33689287	         27.98339893	         61.47453535	         16.08000565	        291.25796962	         37.12473025	         14.91920657	        407.89444906	        105.24017128	        557.91087982	         20.27866073	        400.94779237	       1287.35521184	         70.71620835	        461.44992585	        138.47494223	          0.01689258	         -0.00352617	         -0.05585287	         -0.04960801	         -0.10125916	          0.04978014	         -0.01181020	         -0.03418727	         -0.07193856	          0.04223953	          0.18852220	         -0.46474992	          0.00738319	         -0.05537443	        -10.35276083	         75.93550906	          7.83042560	         -4.98566012	         11.32205339	          1.27508312	         -7.44020837	         -8.21496511	          0.78977520	         -1.43225079	         -2.76047232	          0.06213424	          0.08388485	
          3.25000000	        204.03364725	        492.56056396	         93.62787411	        109.46546151	         96.90835887	         48.39877840	        154.61482574	         36.92502403	         14.61728809	         12.21723159	        137.68150026	        299.55415599	        135.11913045	        391.77626568	         13.97127834	         20.51812761	         53.44787847	         31.70629915	         20.61251757	         19.53552394	         13.40969140	         12.21331130	          8.76676012	         44.57894804	        182.75853565	         58.62727643	        100.26631180	          8.37577191	        266.61858092	         21.12065073	         13.06525576	        332.08029431	         76.00726355	        362.40617841	          9.84192451	        347.02199643	        785.73081782	         21.79497359	         52.20288300	         29.88683691	        179.37889863	        462.92972451	         65.28790228	         86.90457820	         37.45240904	         15.02262740	         21.60326648	         33.67409388	        192.23749099	        123.97493118	         66.36352846	         33.31687566	        189.91727818	        538.45913259	         12.45155245	         17.61298954	         10.17324951	        126.04585240	         25.87014796	         24.90738330	         71.66707410	         19.56741151	         20.93631838	         32.06229431	        257.78495527	         20.35986556	         47.80343991	         21.52186104	        234.70355689	         42.44884399	         15.07742324	        406.41604861	         64.75892407	        561.98176042	         31.08156468	        477.19134369	        661.32996620	         76.34965112	        541.69972596	        150.34883051	          0.00001963	          0.05273991	         -0.07155642	         -0.03884926	         -0.15515854	         -0.09640637	         -0.04325469	          0.03394739	         -0.03093023	          0.05007966	          0.20241138	         -0.47630811	          0.00704997	          0.00964274	        -10.94118350	         85.43604576	         10.00204284	          9.69122487	         11.28340136	          3.05530308	          8.90851806	        -12.24726164	         -3.27749199	          2.73362085	         -0.06877243	          0.01568485	         -0.14660180	
          3.30000000	        103.16096585	        336.95005955	         40.50259021	         22.96851215	         59.88873412	         80.96941212	         56.90181966	         37.29342107	         13.21987207	         21.11479128	          3.11266065	          0.78656804	        126.66688301	        364.01051762	         13.77464027	         20.22453398	         33.37183747	         29.28992672	         20.66245623	         20.85279960	         10.92816305	         11.55531012	          9.71327797	         27.62285615	        111.57067519	         50.93212809	         89.84418078	         17.75722495	        171.70750478	         28.11986294	         21.78749427	        111.00956818	         45.39776449	        330.36598649	          9.45936954	        123.18543381	        760.24861506	         26.46958591	         73.58752518	         39.73836996	         93.93336118	        157.13763439	         84.26704136	        152.11077746	         26.65203021	          6.99566273	        138.43647607	         32.51098459	        124.83679730	         48.43092698	         21.87525897	         35.72693528	        158.69715681	        446.90959034	         12.96602355	         17.91561479	         11.59434872	        236.51929188	         28.18187604	         28.33435758	         64.07198909	         21.69004066	         26.19819799	         23.81419549	        175.22102485	         38.10683472	         68.81819795	         28.29679204	        187.64287954	         40.37766140	         15.06535401	         19.02774400	        154.58630439	        453.87743751	         24.24452487	        431.06530836	        154.39806893	         65.63282746	        238.77910913	        108.59771278	         -0.00879458	          0.01737440	         -0.03721683	         -0.04868605	         -0.16606120	         -0.14127011	         -0.05417446	         -0.01064712	          0.24979396	          0.06326040	          0.36521439	         -0.10643117	          0.02999100	          0.05088453	         -1.16278046	         61.27094554	         -0.69777283	         29.17629388	         -8.30387272	          1.86402951	         -6.29977110	         -5.57799339	          0.60043126	         11.19399956	         -1.45209103	         -0.21803536	          0.02675552	
          3.35000000	        552.88864304	        800.00090312	        151.78116562	         50.29074954	        260.08452266	        222.21316202	         44.93828083	         31.57297950	          3.38184681	          3.63840373	        224.80947542	        752.68118587	        120.86386544	        336.48627251	         13.18712937	         19.69947012	         15.01632990	         28.29995356	         20.62011009	         21.50146696	         10.75239157	         11.82903641	         10.80370869	        104.90804104	        769.47758429	         41.24186295	         76.23331613	          8.60055900	       1193.38931078	        460.74760633	         15.62954625	         82.99954529	         39.97417795	        327.71534149	          5.92680548	        619.96656766	       1210.62112131	         94.65781802	        527.20007791	        166.13780181	         22.19136537	         35.57718672	         16.89235284	         31.21933055	          5.91399424	          5.37578938	         84.29109432	         38.40136212	         12.80404654	         12.67567120	         24.65724426	         41.63764955	        314.95270800	        269.82791542	         24.33942228	        113.10739137	         42.38933940	        158.23148769	         24.77757075	         26.14415920	         18.28864517	         19.09810867	         24.62346765	         14.89914210	        143.02089755	          5.14244406	          4.60142603	         32.03865150	        183.32485119	          3.64797432	         14.83074089	       1712.86555886	         83.37265477	       1183.03998003	         14.16639215	        117.57313904	        109.62534425	         18.08441074	         53.63773853	         26.57080404	          0.00405985	         -0.01872381	          0.02753905	         -0.08585909	         -0.07496205	         -0.14556142	         -0.05402151	         -0.07673896	          0.40370994	         -0.01261784	          0.84132923	          0.04310031	          0.37343930	          0.03822562	        -28.21769159	        129.13567846	         27.32735865	         10.68844132	        -25.90081801	         -4.43965023	          3.26900584	        -11.91841937	         -4.32912585	         12.70451032	          0.91615839	         -0.39965221	         -0.26307176	
          3.40000000	        137.53685630	        203.06070064	         32.63210317	         14.34733935	         58.97715641	         49.53689784	         46.28469804	         55.52942844	        326.68515831	         83.51366548	         37.20248271	        159.19211083	        123.60063647	        350.13390013	        159.29743286	        238.60465382	         15.60939599	        313.61807410	        243.79828204	        334.72000301	         42.12674886	         65.53239580	         62.23000209	         34.59051051	        206.83002093	         58.72183241	        119.12773804	        321.05951071	        314.18967835	        154.14585564	         42.86935678	         82.07627630	         39.44380008	        357.95810646	        144.43173285	        418.24887393	        255.85999021	         18.95461655	         94.43130930	         32.26178384	         12.92758730	         18.48340609	          6.87419449	          7.78031059	          4.40082938	          5.34794060	         22.36386901	        112.02919138	        176.69457498	          9.03099634	         26.95391060	         36.37541905	         78.54619115	       2535.30125786	         12.37701195	         23.93435752	         10.58687927	        953.06105441	        682.84836914	        834.01128599	        342.07181347	        354.15728260	        429.69435213	         13.98778274	        438.85419645	        209.72010119	        513.94409394	         27.77606166	        185.32050003	       1425.85807699	         45.20392503	        148.58815252	         28.08076864	        165.22556588	        419.40000756	         38.44801769	        107.78672776	         18.40417599	         55.16294993	         27.10698120	          0.00553802	          0.06817498	          0.06885743	          0.13823210	         -0.00626954	         -0.13365457	         -0.08071160	          0.01447173	          0.20341784	         -0.08643285	          4.15432514	          0.01197614	          0.35777034	         -0.08459206	        -15.33575221	         89.53702275	        -11.89036697	         18.55683912	        -17.76311596	          0.53853544	        -19.37207466	        -45.47938442	        -16.22407040	         16.32946412	         -6.51139876	         -0.26047583	         -0.43878880	
          3.45000000	         56.66787129	        136.55950078	         13.48567760	         12.95041676	         19.94333320	         79.22263339	         50.47247916	         33.30845273	        194.80566756	         61.04942141	         49.34521873	         37.46198236	        139.70459546	        398.41520017	         27.54540901	         40.57403784	         55.62051303	         48.40292954	         38.52582737	         51.16124374	          8.94932287	         12.47173196	          8.42529111	         30.19305374	        127.58179779	         37.61589502	         73.54279101	         38.58619172	        283.03452902	        297.22803432	         25.63234833	         75.47069785	         40.41966691	        401.82458765	         20.34302033	        539.86163555	         61.83863320	         36.26071816	        122.30893847	         55.62593744	         14.90894521	         20.78564986	          7.45936633	          8.36760848	          5.49476104	          6.17412170	         21.84365339	         36.36266263	          9.31717166	          6.12665822	         81.92156978	        256.67677569	        693.35701866	       1102.07065055	         11.99836770	         17.02861687	         11.28455804	        927.36303388	        694.44895910	        141.68906211	        323.20259207	        345.44030476	         69.57589280	         14.64197808	        661.95969738	         34.84611575	         32.88330033	         21.32931745	        190.16893201	        264.24465948	         16.97909016	        821.21138853	         22.50905691	       3100.33376429	        317.58996476	         22.30422179	        820.75934925	         25.20669375	         63.37245164	         33.89341215	          0.00657579	          0.13023239	          0.11446306	          0.18760124	         -0.01631936	         -0.09196753	         -0.13069759	          0.06923811	          0.03284260	         -0.07371310	          1.84954573	         -0.02311667	          0.50437602	         -0.05863615	         -1.22364450	         15.60279230	        -17.23213120	         -0.13698858	         35.13497261	         11.67692457	        -42.59508653	        -33.13033702	        -19.55311511	          9.12735201	         13.10029482	          0.09995690	         -0.54643929	
          3.50000000	         36.75204506	         63.96308783	         15.80176672	         23.90437373	         13.36299673	         18.44528222	         75.46386769	         34.61211691	        205.57036728	         82.63234973	         19.63008401	         25.61429443	        153.35688126	        439.67362308	         47.43581900	        101.58515326	         22.82080889	         50.03713111	         30.11147312	         30.58792935	         11.92540101	         10.56351908	          4.82970083	         32.58424454	        131.28388946	         37.55210096	         73.89203834	          5.66181892	        209.58664323	         46.70458090	         13.62716047	        262.20741404	         50.34372730	        424.17439410	         11.65380918	        543.09554923	        150.00949992	         53.25192679	        332.39004312	        100.20705252	         51.74897125	        162.34282742	         13.32755672	         12.16702861	         14.79139395	         16.94190996	         27.18462578	         30.35301035	        269.33248905	         77.24788420	         29.52733477	         60.13757088	        164.90040689	        290.60009535	         15.83431773	         20.45988101	         13.89341090	        194.15189078	        143.04363791	         41.31929864	         67.07714539	         75.59044198	         25.48013044	         20.52664593	        207.57912219	        163.50627702	        500.74204831	         84.06513451	        237.93198696	        329.89083013	         18.67623866	        147.97591112	         24.85817226	        768.66354606	         57.63798284	        890.33512667	        188.90632004	         52.39245542	        193.85380126	         79.20479493	         -0.06203715	          0.10341543	          0.01013509	          0.21168954	         -0.01370859	         -0.04362424	         -0.13475938	          0.06580479	         -0.19090657	         -0.01785347	          0.60390494	         -0.03097740	         -0.63523707	         -0.06722287	         -1.88115161	         31.97076864	        -14.55868731	        -46.82343300	         21.65300192	         11.86367410	         99.40367755	          1.36167103	         47.90556401	         -8.98977407	         19.14327082	          0.51062307	          0.21803284	
          3.55000000	         49.30276809	         89.55884622	         15.16305195	         17.80418716	         14.46091857	         13.03449934	         59.31421137	         35.44387534	        223.20296952	         87.37069407	         37.31504862	         25.60867333	        159.23262477	        457.62616050	         98.29038210	        196.49192526	         19.81861463	        131.92880722	         74.19015663	         78.85774765	         21.17710546	         17.50911462	          0.38383275	         41.24250696	        139.84625509	         39.76088654	         77.11215990	          0.37585532	        221.68941242	         72.41728699	         16.99326557	        103.21409552	         47.84455044	        423.73901253	         18.21044975	        545.87931353	        170.66444527	         43.29445743	        227.09716751	         79.55037544	         73.88105741	        159.87302774	         10.14809713	         10.27324868	         21.34306390	         39.89306453	         25.97833338	         28.81925016	        168.55630882	         44.92809146	         24.19606733	         38.83570061	         73.63762539	        177.08880913	         17.04494094	         21.27969485	         15.02407742	         50.16784627	         38.07419648	         39.15426679	         17.76495071	         21.79261478	         26.00603063	         25.50212492	        146.26869778	         90.18250367	        358.18235656	        164.44286506	        263.66461235	        312.28820485	         21.70676516	         42.51225038	         23.49004949	        289.07414307	         30.49321320	        413.77584331	        107.78257771	         55.44785270	        228.14418502	         86.82533390	         -0.11728798	          0.08036987	         -0.00285498	          0.20042454	          0.08332258	          0.01246286	         -0.09428560	          0.05785560	         -0.11014897	          0.00597464	          0.72364248	         -0.10477601	         -0.38061430	         -0.09026589	        -11.93251403	        -14.06102223	          1.04677617	        -32.51658155	          1.03388621	          6.16011633	         18.13471805	         -2.06885664	          8.03079614	         -7.69503063	         -0.83367338	          0.32843009	          0.24445957	
          3.60000000	         65.46734091	        131.56042970	         17.57935325	         20.90721614	         17.02368865	         14.83783735	         67.31621787	         35.05760013	        227.80172912	         82.61120252	         39.38009128	         26.71290094	        159.84708327	        460.23663162	         74.53030885	        132.71450703	         21.01548949	         93.19601412	         49.02863422	         39.67872778	         19.37292411	         10.76986736	          0.02871067	         52.03361968	        145.85443811	         43.14979318	         81.62070574	          0.08256126	        237.86787153	         24.44939928	         13.28223497	        206.21120495	         53.35952970	        410.26235517	          7.32584648	        566.26061598	        250.20687995	         57.50114508	        367.59551905	        112.98263219	         85.45736555	        200.42324761	          8.94225069	          9.98000562	         16.39638885	         41.13603558	         28.11399452	         30.28140389	        147.14845683	         46.86688951	         23.19404817	         37.14059737	         75.73460559	        186.80279065	         14.76146917	         20.87170460	         13.33913917	         35.24759306	         27.01761600	         31.44077566	         12.91072054	         17.96807838	         21.80625517	         24.90340404	        202.86208265	        101.89519946	        285.51120668	        130.39312652	        359.98513200	        898.41282498	         30.90797708	         47.26912993	         25.17031065	        268.64703763	         22.99878947	        415.36609182	        110.31216862	         43.80789410	        156.02003571	         67.96515262	         -0.08062622	          0.07119318	         -0.04826277	          0.17695714	          0.14946633	          0.01960690	          0.09353370	          0.06702998	          0.02005725	          0.02351945	          0.85755751	         -0.12721838	         -0.24017966	         -0.10985199	        -41.73042607	          7.73398544	         -7.44406082	        -15.51835297	         -0.11178542	          1.14836245	         19.28470998	         -9.33343871	          9.80626282	         -4.00569831	          0.54860933	          0.08034293	          0.25996403	
          3.65000000	         80.48189610	        174.25846680	         18.57560004	         25.54032572	         18.82753399	         15.87975034	         70.89656018	         35.21032102	        264.88208839	         94.02477007	         26.14766943	         27.48327444	        163.62460852	        470.55760985	         64.16712830	        123.18399935	         20.34604501	         74.11165313	         61.43288405	         68.31649619	         21.60395963	         13.80685345	          0.02300754	         62.27148387	        149.59675859	         44.45732213	         83.36612826	          0.07790761	        248.68261038	         17.43907977	         12.93208118	        274.17481034	         55.66657382	        413.14608395	          7.51178288	        561.72217267	        354.97404286	         62.01879291	        418.25640051	        127.32635677	        117.48366235	        273.63297881	          7.24564455	          9.37818108	         12.33335035	         37.48683772	         31.63507325	         30.92462763	         59.00068924	         21.47916306	         18.91195341	         34.98665980	         93.18914686	        232.12503052	         14.53425152	         21.55653793	         12.22490223	         44.83797426	         31.22026931	         31.08566287	         15.89169526	         20.81581613	         25.69859558	         24.56999862	        277.22063837	         24.31518823	         66.12458574	         35.25819299	        559.49789026	        756.90758999	         52.96606904	         58.06304407	         28.30671041	        295.64416321	         55.91255436	        450.13395278	         81.35137380	         49.23283845	        313.60384458	         92.02433222	         -0.07038032	          0.04716135	         -0.14181844	          0.14519160	          0.16984820	         -0.04244891	          0.24716374	          0.08291086	         -0.13241656	         -0.02436829	          0.25531379	         -0.07960165	         -0.10437145	         -0.12105251	        -57.81008212	          1.17063223	        -23.02892401	        -42.41333830	         11.59099008	         12.90604977	         20.53645235	          7.35100148	          6.44402806	         -9.24780769	          0.29076205	          0.60115452	          0.12234006	
          3.70000000	         88.80514904	        200.43594545	         18.61409112	         48.78868125	         19.10979362	         16.00401841	         73.86791136	         35.38872308	        345.33433645	        154.99506850	         89.00560474	         24.57206025	        171.70310415	        494.83058365	        252.48356238	        193.08351988	         19.80731593	        146.84645429	        118.59780774	         11.12966613	         56.75873316	          3.17883621	          0.21241317	         68.13094717	        144.61059228	         44.25244739	         83.53305206	          0.76733701	        254.42948422	          4.22628752	         10.62764078	        379.04592652	         75.48980190	        436.98034049	          1.45370000	        508.65208482	        469.86539462	         58.78299979	        389.50767459	        120.06840985	        128.57150751	        335.59081567	          7.52784537	          9.34508974	         12.16409853	         14.80908354	         32.57132651	         31.59988277	        140.86569555	         53.98009563	         69.74533906	         72.45592703	        122.68740055	        322.94550483	         12.66341957	         21.00620241	         11.05930067	         58.73361496	         32.50200884	         29.24298845	         65.41943985	         25.83161503	         32.67592820	         27.40598511	        747.98762071	         15.52123138	         28.78850892	          5.72993272	        982.11140065	        708.07902335	         34.60248715	         65.73353511	         31.13688696	        383.81565331	        135.73940357	        511.35481991	       1005.38732203	         99.70479144	        667.12003125	        193.25158936	         -0.04106993	          0.04597127	         -0.17728042	          0.07875239	          0.25701786	         -0.07779090	          0.17699783	          0.07458101	         -0.28909191	         -0.04934651	         -0.31244356	         -0.06618429	          0.01585034	         -0.12681552	        -82.21120415	        -11.39912809	        -46.90096517	        -90.64359773	         20.32469176	         23.91902175	         28.74955322	         25.79933166	         11.77128170	        -16.17927065	          1.22678363	          1.19547547	          0.23858158	
          3.75000000	         86.06741680	        196.27962491	         15.79495735	         16.48318756	         16.97358653	         15.03721642	         61.79746755	         34.99893102	        364.49587754	        166.62188460	         69.15820403	         24.25589930	        172.01268745	        498.38817748	         43.95188383	         35.67987452	         17.75776047	        118.63655977	        291.01112381	        496.65352772	         94.04068134	        138.33596441	          1.20303823	         65.40920148	        662.91082554	         43.90672418	         83.32139942	          3.31139109	        460.41334784	        375.06531940	        234.16628463	        111.95937870	         50.76303172	        449.56705073	         43.95096280	        500.86208873	        388.98470897	         63.38089308	        406.22843341	        124.71000332	         25.48606797	         62.82737056	          6.16745348	          8.90518104	          1.60674303	          1.66848017	         31.79808996	         53.34311598	         22.52707929	         10.91563517	         22.09405524	         39.48528085	        471.61584774	       1269.37852215	        464.09968021	        306.02537658	         11.10945784	        825.33526587	        799.20589148	        836.37723296	         32.90343587	        184.33081922	        401.83628880	         11.94237699	        199.72758486	         50.87640458	        259.52163283	        856.15015225	        255.24006959	        200.61075974	         56.34462669	         66.41189696	         31.83754013	        514.33439542	        172.25098828	        117.66804101	        213.68585779	         22.36949715	        134.67671290	         41.41038758	         -0.01816803	          0.04101311	         -0.09456657	         -0.04421003	          0.18058052	         -0.05129528	          0.00129201	          0.01159977	         -0.09426593	         -0.00519063	          0.02650416	         -0.06502497	          0.18113233	         -0.13032817	         69.87593772	       -123.10292563	         86.39665535	         63.03320304	        -52.69623975	        -20.69944560	        -65.15281001	          6.21731357	        -24.76017102	         23.39324374	         15.36570281	         -1.43001147	         -0.98223651	
          3.80000000	         78.55432368	        176.82792050	         14.74440199	         15.19869133	         15.63329813	         14.29006735	         53.40345781	         35.62946231	        235.77571093	         90.83318178	         31.45151610	         25.72602777	        156.54127373	        453.17466846	        221.87577286	         32.77211803	         16.97063899	        285.97195010	        286.84917040	        211.96871011	        118.15953680	         56.71006782	          1.03284886	         58.89221865	        224.84407803	         41.39086895	         79.14795837	          1.98345903	        288.72769843	        249.26370161	         45.23374237	         79.73283037	         45.65180855	        412.34188155	         43.22184359	        540.38074401	        154.41791037	         42.28974926	        203.71386316	         73.37268491	          6.36235745	         12.62711096	          6.19550040	          8.83248178	          1.24461550	          1.14059264	         28.78848511	         48.85942991	         13.07309935	          8.27640218	         25.43803747	         44.36007382	        242.73889488	       1038.24061723	         81.61336700	         58.87052828	         10.88785832	        440.74546039	        415.23830792	        719.19880499	         63.03415724	         90.71649571	        103.78166600	         11.02984220	        120.30312568	         17.28351783	         49.47263118	        271.61940414	        138.19626207	        318.01738163	         38.29684979	         61.17560659	         30.57021576	        978.59024314	        205.52882787	         59.06724168	         79.35790228	         18.41226911	         53.67158803	         26.80075708	          0.00290665	          0.01691310	         -0.04731915	         -0.05114224	          0.06190993	         -0.02692186	         -0.08404162	         -0.01680286	          0.04478970	          0.09394980	          0.22096842	         -0.01027449	          0.14076236	         -0.13159530	         37.84531842	        -86.16206401	         40.65040698	         32.11771836	        -19.96262214	         -9.23259916	        -22.07459843	        -10.41629458	        -10.39569672	          3.24689319	          5.94055019	         -0.64987079	         -0.35059536	
          3.85000000	         72.03413219	        159.65666433	         13.88682484	         14.33230920	         14.51849514	         13.64164782	         47.81526062	         34.56944480	        174.89654758	         44.89645992	         12.40011108	         22.84742141	        133.85809515	        382.40906681	        130.61467249	         76.75647006	         16.17722638	        315.73162984	        236.53940354	        155.79333432	         96.36143760	         47.46799628	          1.12431461	         53.65435627	        168.49204459	         39.68202302	         74.28320796	          2.07978747	        264.36679120	         65.04177561	         26.45450497	         72.02744744	         42.26178423	        340.10138915	         46.19706391	        497.08861052	         51.11073228	         48.45222495	        264.03967332	         86.90497154	          7.32449731	          9.59618281	          6.35582917	          8.85157783	          1.45610913	          1.34729453	         25.75360389	         54.84385991	          9.78648885	          7.29332139	         29.45094250	         73.45443870	        299.52759251	        765.42886919	         18.38502394	         22.60651578	         10.78978903	        511.92580475	        226.44485681	        200.13460267	         83.43057783	         94.25889798	         99.63402811	         10.78964241	        235.70305544	         12.88248558	         28.25490967	        235.40825898	        130.14476469	        720.55533894	         51.10158160	         53.91476608	         28.35222735	        558.84704406	        251.31793053	         39.80434882	        480.60394555	         20.26149890	         58.71742773	         29.25930558	          0.02115901	          0.01219403	          0.02172769	         -0.05485774	          0.01955907	         -0.00354969	         -0.11745514	         -0.00241564	          0.07595154	          0.13982187	          0.21808394	         -0.00926609	          0.08277453	         -0.13125103	         -9.76821833	        -32.07993710	          0.25542688	          7.63865657	         12.22343494	         -0.66778265	         -7.94545652	          0.40773515	         -2.30416480	          6.35677725	          0.89912865	         -0.20359417	         -0.08054793	
          3.90000000	         65.83556249	        142.41958576	         13.58504774	         16.12295891	         13.73207373	         13.19302971	         46.29621748	         35.25259633	        137.71333622	         38.98775174	         12.54037332	         22.86178015	        113.71203962	        318.62782191	         68.11418649	         75.46457819	         16.13585567	        196.85215769	        113.47938753	         68.47710164	         42.50333411	         22.62861115	          1.61874790	         49.51549682	        164.08143568	         43.95176469	         79.05093179	          2.91235383	        263.52476571	         28.04357765	         16.87363986	        114.15055372	         42.54473344	        276.93550313	         27.26647560	        443.60716419	         49.39025915	         53.01157483	        287.65492053	         96.97315869	          8.33708822	         11.21554659	          6.59698816	          8.97017895	          1.86180175	          1.76561870	         24.13892291	         46.86392550	         10.45428144	         13.72919110	         53.39954980	        150.63312371	        333.88722421	        635.69535106	         13.68423574	         21.03070103	         10.86341350	        387.41438324	        148.75025593	         96.57379103	         78.49276275	         81.73205136	         79.89882167	         10.75028055	        298.53188646	         11.16957807	         26.52859114	         75.11528631	        179.92742303	        997.81868652	         49.58677861	         48.28939625	         26.28132318	       1223.22391723	        235.30144726	        279.79895809	        520.03034480	         21.70057863	         63.10187776	         31.33252950	          0.02724585	         -0.01600621	          0.06401071	         -0.05646257	         -0.01648028	         -0.02429312	         -0.11566781	          0.00475708	          0.05301177	          0.14491318	          0.26373236	          0.01293125	          0.11488681	         -0.13018524	        -43.70349664	        -16.23671328	        -24.65790048	         -7.27926937	          3.16180920	          0.59711515	         -0.67658870	         -2.62805769	         -2.09741479	          0.74613129	          1.99486980	          0.03780267	         -0.10239393	
          3.95000000	         52.97256694	        109.52487870	          8.07183048	          7.10199675	          8.91977422	          9.12733650	         24.71364381	         27.56806525	         30.38420440	         12.12358724	         10.44927759	         12.92831554	         58.46215451	        129.45040853	         23.73257715	         37.98647383	         13.10629933	         74.18851794	         13.61750672	         29.29075393	         11.59814680	         11.78766569	          1.18283450	         40.99647517	        163.15265633	         24.93296528	         47.59090588	          5.84456578	        254.88157186	        102.90710995	         12.83491726	         51.28356955	         31.19433169	          4.17659162	         14.70157357	        155.62589002	         34.39262488	         13.50206618	        175.14108657	         23.12412094	          6.75211052	          0.13729163	          2.76626462	          1.57375795	          1.24280061	          1.38238736	          3.89555477	         22.29449382	          0.99030983	          3.70514675	         43.60350514	        132.89112582	        154.49316165	        348.16388084	         30.44221583	        146.18351338	          3.59860972	        267.84856008	         89.23286006	         50.33218490	         41.02220748	         34.04294229	         27.94936840	          8.61362163	        138.88038879	          4.12987315	          0.49682262	         34.40011841	        133.93702265	         91.52111383	         15.03636245	         23.75435536	         18.46233397	       1851.65362796	         55.69590025	        143.70262495	        495.99581862	          5.35355479	          8.08645525	          6.79225962	          0.13318627	         -0.00160301	          0.11320083	         -0.17595489	         -0.04874383	          0.02232144	         -0.05925568	         -0.02474401	         -0.00629460	          0.23465547	          0.10801919	          0.07487322	          0.14128680	         -0.13506605	         -6.35875762	        -32.87381449	          3.03123672	        -11.01095709	          5.11280059	         -0.33619439	          9.41840672	         -0.40058453	          1.08745663	         -0.51695406	          3.49425114	          0.03010416	         -0.04625454	
