ModelForces
version=1
nRows=20
nColumns=108
inDegrees=yes

This file contains the forces exerted on a model during a simulation.

A force is a generalized force, meaning that it can be either a force (N) or a torque (Nm).

Units are S.I. units (second, meters, Newtons, ...)
Angles are in degrees.

endheader 
time	addbrev_l	addlong_l	addmagDist_l	addmagIsch_l	addmagMid_l	addmagProx_l	bflh_l	bfsh_l	edl_l	ehl_l	fdl_l	fhl_l	gaslat_l	gasmed_l	glmax1_l	glmax2_l	glmax3_l	glmed1_l	glmed2_l	glmed3_l	glmin1_l	glmin2_l	glmin3_l	grac_l	iliacus_l	perbrev_l	perlong_l	piri_l	psoas_l	recfem_l	sart_l	semimem_l	semiten_l	soleus_l	tfl_l	tibant_l	tibpost_l	vasint_l	vaslat_l	vasmed_l	addbrev_r	addlong_r	addmagDist_r	addmagIsch_r	addmagMid_r	addmagProx_r	bflh_r	bfsh_r	edl_r	ehl_r	fdl_r	fhl_r	gaslat_r	gasmed_r	glmax1_r	glmax2_r	glmax3_r	glmed1_r	glmed2_r	glmed3_r	glmin1_r	glmin2_r	glmin3_r	grac_r	iliacus_r	perbrev_r	perlong_r	piri_r	psoas_r	recfem_r	sart_r	semimem_r	semiten_r	soleus_r	tfl_r	tibant_r	tibpost_r	vasint_r	vaslat_r	vasmed_r	hip_flexion_r	hip_flexion_l	hip_adduction_r	hip_adduction_l	hip_rotation_r	hip_rotation_l	knee_angle_r	knee_angle_l	ankle_angle_r	ankle_angle_l	subtalar_angle_r	subtalar_angle_l	mtp_angle_r	mtp_angle_l	lumbar_extension	lumbar_bending	lumbar_rotation	arm_flex_l	arm_add_l	arm_rot_l	arm_flex_r	arm_add_r	arm_rot_r	elbow_flex_l	elbow_flex_r	pro_sup_l	pro_sup_r	
          0.00000000	         84.78225054	        204.00640466	         45.52189987	         46.86896956	         47.09720827	         39.47304595	         69.50586635	         44.89678364	        113.47233739	         47.64094701	         61.00037618	         58.10723593	        129.97135234	        362.47498326	         20.04781529	         24.48291769	         43.76319107	         27.06546802	         18.87675175	         18.41700297	         18.40887963	         15.27386177	         10.42032865	         35.62505220	        172.62063401	         45.20029065	         82.16851456	         11.73250093	        249.78355839	        100.36530656	         19.61481306	        103.47887227	         51.37671258	        294.46273053	         24.91638388	        535.36614484	         35.75575341	         61.51177015	        244.67251832	        112.31193551	        142.57325706	        238.56368600	         55.19416987	         17.35436954	         57.56481249	         33.21327720	        379.39221474	         80.59956778	         68.36486134	         31.36753649	         38.57146630	         65.75872220	        182.84114686	        341.29273780	         20.35835380	         28.20023199	         64.67299934	         62.04158835	         37.65608186	         34.19590133	         21.64270508	         23.62364656	         27.14571563	         47.09805809	        135.34932087	         22.34451569	         43.87920462	         47.55400278	        349.95826478	         14.78707011	         31.29551980	        249.66090679	         76.65493365	        270.17123652	         14.21383812	        327.15556730	        244.33942543	         15.50596785	         45.99389537	         23.35430388	         -0.03580518	         -0.01873755	          0.02354383	          0.03168818	          0.19774717	          0.21368703	         -0.02187591	          0.06675033	          0.00168280	         -0.02116237	         -0.06959117	         -0.37941211	         -3.77434944	         -3.89182135	         10.00435299	        -18.57452744	         -9.11612469	          0.51413048	          0.82549764	          0.32661536	         -2.41144908	          0.01628405	         -0.20848316	          0.39891254	          0.04254441	          0.01753060	         -0.01167617	
          0.05000000	         37.32177609	         63.41966707	         24.00345128	         29.14306531	         18.97343474	         18.63439554	        127.06224577	         63.18990083	         70.04258135	         32.70884687	         19.07936348	         71.18582986	        131.14311015	        373.73164081	         40.25265633	         63.67748360	         36.52128158	         71.80178164	         46.20045035	         48.01899511	         24.62379112	         26.62107348	         20.28808427	         31.22862334	        161.93339323	         63.13313042	        104.33285640	         11.53476270	        226.37393892	         28.55732436	         25.79439041	        333.26016833	         59.53459419	        302.84356941	         23.67443225	        408.71444101	        553.42738199	         28.24890893	         63.90546377	         39.55679088	         34.80011769	         47.85276538	         16.68174360	         15.21229556	         21.02896119	         31.00983852	         93.52795361	         46.60334227	         46.16618557	         24.23452125	         31.82993973	         62.46848458	        112.83298900	        294.52646511	         18.11149867	         27.30309232	         23.48207373	         67.63306268	         36.48645891	        156.54151616	         24.04967244	         24.01172615	         26.93537228	         20.69688709	         94.76324619	         23.89055920	         46.26942008	        165.04162909	        338.53955258	         80.39355116	         35.23864621	        129.91419179	         51.55723454	        266.01665772	         13.92443512	        322.57078822	        188.12038440	         57.38923419	        144.34761072	         82.88852356	          0.00364381	          0.00865705	          0.04369640	         -0.01427684	          0.16298093	          0.18821875	         -0.01320690	          0.05929500	          0.00100718	         -0.01170393	         -0.07775070	         -1.06462984	         -0.03717353	          0.10104987	         23.05366162	        -30.02858425	         -6.81505548	         -4.77724693	         -0.62135822	          0.39938094	         -0.61878365	         -2.74572188	         -0.89238955	         -0.36163219	          2.01753730	          0.01407390	         -0.05549285	
          0.10000000	         58.81594202	        115.44656013	         27.87750657	         31.71051022	         27.84589757	         22.16150196	         42.56372163	         48.27676550	         23.25982639	         52.60794341	         78.05339039	        246.36863457	        121.33783550	        349.41120905	         17.57333216	         22.42054872	         17.22915457	         79.10411573	         23.19232527	         17.24246703	         27.44206543	         20.08441975	         10.39525527	         31.68268769	        190.77220607	         71.10060690	        111.65515013	          3.17859952	        253.63102373	        163.44639666	         23.34145349	         88.72465688	         44.09154344	        268.23887691	         32.41854183	        641.34411737	        499.44086270	         53.42872182	        187.64387617	         90.07237530	         11.65266909	         15.52027489	          8.43273282	         12.46009611	          5.20983108	          6.91095156	         49.32663311	         48.24091572	         19.22970014	         16.94265701	         33.46727187	         92.34254358	        130.87292521	        297.99854646	         15.59192727	         24.14987639	         13.93137374	         69.77440378	         94.81888693	        309.81812588	         26.45974264	         26.98130459	         80.59666102	         16.58734600	        105.69215382	         24.68268404	         48.11112241	        160.19220742	        362.79701250	        270.26120541	         79.44449656	        109.99027742	         46.92707148	        271.44812317	         27.98114599	        157.60896483	        289.12860958	         41.91746286	         89.71893555	         59.28651683	          0.11735418	          0.07153599	         -0.03023439	          0.01826570	          0.08039335	          0.07637512	          0.04440362	          0.05157038	          0.03183601	          0.11417370	         -0.04098381	         -2.23000366	          0.04303556	          0.01976902	         -7.09125306	        -19.34821207	          3.81345057	          0.24144571	         -2.14689529	         -0.21317546	          4.50609370	         -2.14972770	         -0.27116398	          1.26885463	          2.81046326	         -0.01686844	         -0.03374630	
          0.15000000	         75.18072859	        229.65055667	         23.39579741	         26.67089735	         26.75040343	         18.43192501	         30.19451193	         46.84687132	         19.44629823	         15.13203501	         62.46010169	        231.88549457	         95.72879257	        276.65356544	         13.51475974	         17.05093997	         13.21073388	        120.36348663	         18.68918395	         14.19384817	         45.47054121	         20.81219110	          8.55531793	         31.65065912	        230.98071652	         62.83967053	         99.82378498	          2.02145348	        287.44471047	        162.57542781	         23.83430368	         45.63349279	         36.33799302	        195.51855145	         45.05758296	        409.28149003	        606.20247179	         51.04011490	        157.04338051	         82.68269474	         11.66711081	         15.75796793	          8.14781527	         11.49051722	          5.03870007	         18.40925977	         42.78905793	         58.72702720	         45.88575328	         19.08440358	         24.31200537	         47.23596760	        170.69884769	        360.92899034	         14.36453914	         22.57854171	         12.76944933	         68.84390315	        123.81279801	        559.49131018	         28.19853499	         24.84063003	        112.78455531	         16.35787833	        112.25431259	         32.68864800	         60.00721528	        107.00947726	        504.39587986	        322.00276947	         91.83174882	         95.76881102	         43.02431060	        250.73927359	         18.93864582	        112.99182431	         44.52249497	         21.91762846	         48.02823604	         29.11828371	          0.09404683	          0.04332726	         -0.01538182	         -0.02350868	          0.07791175	          0.07218554	          0.08013435	          0.05285210	          0.05613881	          0.21817219	         -0.00708508	         -1.48779538	          0.04186287	          0.07943216	        -14.04548337	         -3.57760153	         11.47375263	          0.70388273	         -2.65153527	         -0.45088925	         -1.48017107	         -0.86120930	         -0.14532006	          1.30336657	          1.39468522	         -0.03029023	         -0.02858891	
          0.20000000	         53.09512832	        112.02061927	         36.44726968	         52.33676576	         27.88709294	         14.59923237	        160.17731387	         61.46666091	         22.66679526	         23.72209284	         42.55712981	        139.58842905	        343.26337845	        341.96348269	         27.90288053	         57.21502871	         21.67177528	        240.65189042	         25.86434411	         15.61025503	         49.84534767	         22.44381765	         10.22142458	         33.69380625	        196.52620463	         49.46599492	         81.85194605	          4.31119330	        240.53096395	         40.38356206	         18.90504440	        766.94960145	         93.18140600	        387.10070272	         24.11271049	        396.03604842	        425.84620009	         18.99333462	         48.45321252	         26.94482867	         61.73281229	         84.99929165	          8.69108104	         11.50729577	          9.55532209	         37.71017540	         38.51867439	         51.93237726	         21.49888898	         19.51280020	         19.73277069	         26.34447952	        117.30623009	        291.96468278	         13.66623632	         21.12189248	         12.34046556	         64.45198321	         36.00308288	         97.95560856	         28.40741432	         22.86206387	         24.37934617	         18.24536068	        268.89370565	         24.60384618	         47.51136452	         10.05700192	        837.92062214	        349.48978211	         62.26559416	         86.44681695	         40.79009759	        235.54457057	         15.58676852	        174.78941666	        567.20990337	         40.43244912	         95.30158155	         62.09464207	          0.09007524	          0.07355384	          0.03275073	         -0.06630301	          0.03708893	         -0.04362265	          0.08765257	          0.03365365	         -0.00157745	          0.20157868	         -0.00091069	         -0.47475161	          0.02157144	          0.19795656	         -2.18210590	         -9.26756015	        -11.10341742	         -0.03007493	         -1.88263819	         -0.19290967	         -5.20465407	          0.44877137	          0.03209888	          0.69870209	          0.23218707	         -0.00814794	         -0.01348772	
          0.25000000	         47.41772749	        114.95416977	         35.26967531	         46.43105848	         23.21961893	          9.33170538	        109.20769033	         54.76184391	         20.65888838	         20.17832877	         40.43619537	        109.26833538	        135.33282192	        375.68725057	         16.74549528	         33.92461164	         16.21501903	        163.78211536	         20.89154251	         14.28587714	         57.46896134	         20.91000173	          8.67762812	         28.78707361	        213.13852036	         39.85830763	         68.15053879	          3.94753737	        237.63587881	         26.82655933	         16.77723131	        332.10977136	         81.33694203	        179.21837843	         33.54672695	        243.04381817	        313.53455311	         21.35004049	         55.12788296	         29.61463968	         19.59249277	         28.04900509	          9.27546495	         11.85926710	          7.07745247	         10.47395086	         36.28675798	         47.50289183	         13.48447508	         16.32452284	         91.99122862	        334.09555135	        278.32505065	        322.14169511	         13.24378032	         19.97151034	         12.35891918	        110.45322972	         20.94455617	         21.33652430	         43.89904031	         30.52958483	         13.91262747	         18.51761409	        312.15818109	         26.95919012	         54.23205999	          2.07122113	        269.41992218	        378.60013690	         41.80982867	         79.41854830	         39.22240847	        409.60337550	        179.29396649	        354.77780715	        715.81425042	         29.76226666	         59.60217811	         39.99705947	          0.09712998	          0.03460860	          0.13433474	         -0.11720638	         -0.03482879	         -0.07736666	          0.07412906	         -0.11948614	         -0.08450488	          0.06955962	         -0.19931067	         -0.07759916	          0.06355881	          0.01659883	        -11.92882835	        -13.17669268	        -11.27416629	         -3.31826365	         -2.26052554	         -0.01780290	         -1.00989202	          0.32930017	         -0.02351893	         -0.26342887	          1.54750652	          0.02352658	         -0.03346884	
          0.30000000	         70.21518019	        152.63975625	         12.48598472	         12.05065269	         27.63486958	         56.83398043	         28.83320904	         59.39319666	        114.81607690	         29.68459481	         15.54576936	         26.57762282	         60.71404087	        158.48582071	         14.59945435	         18.15008688	         12.90802472	         48.32836767	         22.74292195	        106.88534828	         18.49218039	         17.40392843	         52.42850000	         33.06929238	        213.73452784	         43.28659253	         74.79296129	         47.60686988	        351.63681544	        439.57556082	         41.58131475	         75.14762299	         30.05938296	        146.30420848	         20.62726077	        291.66181249	         68.93679206	         23.19991639	         63.80377439	         32.44192310	         20.44234329	         32.18965457	         10.24969205	         13.16186703	          8.32819848	          6.92750761	         40.65769300	         97.61421587	         13.01413528	         20.75021704	         56.08630431	        197.31336123	        235.07000975	        356.90528720	         13.68917997	         19.72215367	         13.81358088	         88.62729566	        276.50200166	        234.59776304	         32.05451860	         75.09359855	         53.98930961	         21.18140291	        165.58927749	         37.39828721	         71.44453031	          0.89090969	        179.42051709	        273.61414916	         76.48494869	         85.32837241	         40.90242961	        291.17553240	        123.02888190	        317.20501786	        616.03513949	         14.10472465	         43.17369144	         22.02868230	          0.01272490	         -0.16707483	          0.21534013	         -0.16326098	         -0.01056154	          0.11044613	          0.06919463	         -0.23461831	         -0.13066446	         -0.10396408	         -0.31023853	         -0.07961700	         -0.00678687	         -0.21382625	        -17.01690756	        -11.58474460	         -2.37127832	         -3.89947771	         -2.14896170	         -0.17793942	         -5.45716557	          1.72512628	          0.70262399	         -0.53926315	         -0.17996355	          0.00253172	          0.02137611	
          0.35000000	         30.72215684	         42.87871729	         19.87525087	         13.47773101	         15.43222900	         15.58265040	         37.51063653	         50.90316406	         72.38142785	         29.22873159	         16.04897765	         23.53492291	         52.19983824	        130.44266089	         18.35936883	         23.15086112	         19.78228072	         46.96949447	         29.10758984	         57.23422728	         20.13737520	         21.12663541	         27.29385328	         23.32684559	        174.24942538	         46.99643141	         75.98837639	         43.91349130	        256.47589003	        190.72497490	         29.71920960	         53.42277928	         29.89532448	        139.13181038	         21.60279976	        260.24729525	         44.36508975	         35.66978599	         73.30540905	         44.21032885	         25.13261661	         41.13160567	         11.61015189	         15.12477671	          9.52635860	         14.36585772	         48.58999838	        117.82705015	         48.07280388	         27.42084459	         27.65727636	         73.81021299	        195.58315054	        389.62527164	         12.73485051	         19.08237576	         15.57627176	         35.40465708	         56.39186461	        650.00558710	         14.86739013	         18.98187569	         43.49013492	         25.57664050	        140.57692047	         45.51102144	         82.89588674	          1.54654888	        240.97308701	        188.74062962	        134.97757069	         99.47115008	         45.85065151	        305.99451390	         14.00240514	        302.91808829	        308.87683888	         13.34647547	         41.66965521	         21.13166017	         -0.04057752	         -0.26911414	          0.18455662	         -0.16369930	         -0.02297139	          0.33218653	          0.07144510	         -0.08277295	          0.00056056	          0.03093127	         -0.16502144	         -0.06120679	         -0.03861418	         -0.11399015	         10.35582389	         -7.22641832	          4.50394447	         -3.52652036	         -2.03810147	         -0.36140616	         -5.62602875	          1.41326620	          0.75601051	         -0.15467071	         -0.39641041	         -0.02329054	          0.03194079	
          0.40000000	         11.76523137	         13.78715855	         12.02815006	         16.47667667	          6.75042133	          5.07217920	         59.18465430	         56.31376174	         86.87242532	         28.11530023	         17.17762415	         23.74223080	         49.77386651	        110.28493493	         40.45915600	         47.68234507	         19.55688494	        134.36369284	        108.66365749	        139.24519771	         40.45465423	         49.56465108	         75.61028989	         16.69509917	        129.15836604	         34.00729789	         88.74163551	         40.05757881	        147.86571326	         26.99071784	         25.55563843	        105.14154957	         43.95126356	         84.94595904	         65.94132333	        191.36339124	         46.05199286	         26.74900362	         57.13633209	         34.55514570	         26.66099950	         44.36105963	         11.59176374	         15.70126791	          9.06109876	          8.25115405	         53.47072350	         42.95504147	         20.09724692	         19.52031706	         42.39408548	        124.35777100	        129.72833818	        358.10173929	         12.70227326	         19.28963690	         15.74997373	         31.99853753	         18.59018440	        740.22015181	         13.27726059	         10.25608689	        191.39536324	         28.31582285	        133.83390607	         43.17638414	         78.71485167	          5.20134016	       1045.34304257	        362.84379431	        245.86288407	        110.96984654	         50.06598373	        287.36723752	         67.98261018	        287.20695583	        278.75348582	         51.45826124	        140.88802464	         74.46690342	         -0.04027814	         -0.22791388	          0.03954145	         -0.05764893	         -0.05938052	          0.26643894	          0.07630636	          0.16439077	          0.06011505	          0.26512020	         -0.01834030	          0.22053594	         -0.00744447	         -0.07134366	         10.88230771	         -4.50329292	         -3.19502173	         -2.65056674	         -3.10283045	         -0.47827064	         -2.27332077	         -0.19764102	          0.04684262	         -0.03114470	          0.37952208	         -0.02439480	         -0.00547685	
          0.45000000	         14.29998520	         16.09999053	         11.14662746	         14.85304518	          7.85837863	          8.31831467	         50.08901491	         55.01794950	         61.20462142	         33.61369934	         13.81842058	         21.73967003	         52.41286711	        120.92850177	         18.53692161	         28.02655245	         17.40532376	         80.45096581	         48.99448287	        119.46469411	         31.92833814	         31.89956179	         52.00203938	         17.14329606	        140.21436255	         50.84058031	        107.64387120	         94.61752126	        257.25347325	        121.48659720	         40.30808486	        102.46599424	         43.40521058	        112.38520605	         25.70970414	        260.50507469	         47.84226965	         24.77894780	         51.52969213	         31.75249967	         24.71337517	         40.55742189	         10.44443855	         14.39596402	          7.75636706	          7.16784287	         50.57498332	         56.43357310	         16.31758203	         20.93865346	         30.83671991	         76.32002620	        134.89142430	        370.98783533	         12.74524816	         19.25992591	         14.43620301	         34.06247525	         23.18720733	        604.92180070	         14.14922966	         13.37864129	        170.40478175	         27.41920285	        134.07599786	         45.62415395	         83.05233283	          4.69464377	        378.57601935	        285.68619918	        218.53470029	        106.77932769	         49.31370794	        309.56435955	        110.31308686	        264.43933594	        546.08518989	         29.31064796	         63.84997749	         41.24359744	          0.01492643	         -0.13652819	         -0.07988094	          0.08322282	         -0.00156596	         -0.06795760	          0.06872081	          0.13242074	         -0.09663910	         -0.09759307	         -0.23909613	          0.18179720	          0.01345674	         -0.06327808	         11.76260555	         -8.96132499	         -5.94165325	         -1.03073239	         -3.28757625	         -0.56139250	         -1.61592334	         -0.20564162	         -0.09259019	          0.29001200	          0.90290953	         -0.03419606	         -0.02749464	
          0.50000000	         22.57724097	         22.43790526	         10.66376532	         15.10077085	          8.32716137	         17.04425585	         61.61722242	         55.24630956	        174.39622187	         16.90196448	         15.61454145	         23.50159218	         76.27658861	        187.64585685	         17.66254065	         27.52857168	         17.80906983	         72.48623502	         38.66828586	         44.75886495	         26.30110292	         26.70232873	         30.35617679	         17.98509501	        192.80885079	         28.54845293	         55.02135739	        163.94403132	        497.99870034	        141.38275622	         49.57503906	        130.61393110	         50.98259059	        179.79051873	         21.06854275	        287.48118126	         54.59267549	         46.28242662	        111.83777413	         66.53640170	         23.87698736	         39.29145535	          9.90372671	         13.24379370	          7.61538866	          7.14906395	         44.45615760	         73.90319994	          9.79230581	         13.57065187	         87.02919113	        309.90812759	        151.89850868	        430.52590420	         12.30736266	         18.35210045	         13.25254269	         34.82363293	        131.81723145	        423.43351357	         15.09264710	         49.58184553	        139.37266308	         25.70320398	        151.46104030	         55.03676943	         96.48813893	          2.73656904	        366.96375876	        325.98443943	        149.69253267	         94.57297996	         45.62260247	        370.59327508	        146.65637313	        288.84332417	        663.76485391	         14.07101657	         42.95028576	         21.95393136	          0.06257417	         -0.06755403	         -0.04717780	          0.04875813	          0.02364738	         -0.13064277	          0.07282718	          0.13261113	         -0.14919476	         -0.39516713	         -0.43140394	         -0.23978201	          0.01727389	         -0.08279528	         -4.94182231	        -19.89210334	         -4.61503048	         -1.92669400	         -4.17537924	         -0.59432977	         -2.92563534	          0.19367336	          0.07150118	          0.33761201	          1.14783977	         -0.03117067	         -0.03219310	
          0.55000000	         13.01448836	         14.30695612	         10.56728841	         15.87592620	          6.72655171	         13.10803915	         74.42803208	         42.17441708	        124.55517363	         79.33999286	         17.11916836	         21.55820593	        108.08066795	        290.58821759	         18.53799063	         29.07114265	         18.85792264	         69.65362337	         40.32076239	         77.55144536	         23.70295528	         25.92855238	         39.62698405	         18.12574017	        263.35654045	         38.42580465	         71.86449388	        226.94385168	        519.13123277	         91.80332433	         70.09140179	        158.97648642	         57.97942597	        248.38043154	         38.75592886	        406.43868601	         44.50207726	         58.75180597	        241.63366232	        114.62085103	         24.29077838	         40.66167356	          9.61996025	         12.30282012	          7.72513524	          7.79647766	         39.33625580	         55.79871420	         71.22313429	         42.54963007	         51.20972492	        141.90393019	        165.28824860	        478.05759543	         11.54510318	         17.07990718	         12.46077113	         32.63854625	         74.53196719	        517.10499066	         14.60379830	         21.84501534	        135.81182689	         24.89299039	        155.21819149	         57.36394478	        100.14796792	          2.53562444	        582.97864993	        461.85296592	        178.57100396	         82.97346285	         41.90780306	        415.31489806	        112.44327737	        347.91653034	        539.92796370	         38.10574317	         80.65966836	         53.22832044	          0.07282594	         -0.08067555	         -0.01954910	          0.00743648	         -0.02354870	         -0.05669116	          0.07574519	          0.10466887	         -0.04449198	         -0.22602077	         -0.32140594	         -0.31991795	         -0.01978213	         -0.10290108	        -13.44337137	         -8.91911658	         -0.33363057	         -0.44593299	         -3.04888491	         -0.37901851	         -0.45717248	          0.36312691	          0.25754822	          0.78306228	          1.05559867	         -0.02817016	         -0.01488734	
          0.60000000	         11.51957579	         12.82780237	         11.14368720	         17.28463345	          6.81293771	         11.20004842	         88.81872815	         46.68075625	        142.23042752	         28.11200944	         28.68565567	         31.80033983	        124.03985845	        348.17147492	         19.71685884	         31.19951668	         20.56777320	         70.89364973	         43.35096505	        109.59362814	         22.89709087	         26.12418575	         43.87827990	         18.56068824	        159.30845843	         50.46627062	         88.27490329	        261.68967266	        388.90724951	         39.26624576	         54.38589315	        189.61195153	         64.74141128	        281.93734607	         27.42322826	        544.30656205	        103.43227366	         81.31089331	        233.53542204	        131.08222874	         25.06753963	         42.63651062	          9.35646582	         11.48541163	          7.76613961	         15.61401534	         35.10579979	         68.68294281	         25.54108359	         22.64197535	         48.38135323	        130.18578831	        159.06952710	        475.52500835	         11.06378384	         16.16200541	         11.79315648	         30.34308995	         41.49094641	        365.54344646	         13.96370831	         20.05077820	         88.18253157	         24.51698363	        195.55220890	         50.89897264	         92.09682103	          2.13740589	        543.24113732	        522.07134919	        137.03445559	         72.88797656	         38.61783106	        415.22592649	         82.50587972	        289.41426514	        436.09474229	         20.42375376	         48.89087333	         28.50887450	          0.07100035	         -0.09911239	         -0.01873052	          0.00992254	         -0.04340136	         -0.01752016	          0.06180014	          0.05956447	          0.02668861	         -0.04299856	         -0.08743173	         -0.36406764	          0.00555608	         -0.11649059	         -3.66356016	         -9.83157689	         -6.49447004	         -0.29001120	         -1.73383423	         -0.10716357	         -0.44076819	         -0.10853567	         -0.09461459	          0.84610233	          1.49889463	         -0.00747301	         -0.03743573	
          0.65000000	         10.16659177	         11.97681198	         10.61953569	         17.49226089	          6.12490552	          6.60218379	         95.91063943	         48.95132020	        138.27963670	         61.13300517	         27.02436726	         41.84599533	        126.46094672	        360.81307061	         19.53561455	         31.39322682	         20.27533554	         73.01208210	         44.38463845	         94.04081295	         22.87238988	         26.14094773	         45.64218690	         18.44637141	        295.35971818	         61.96840603	        102.32073750	        391.51600993	        811.46480472	         45.46752326	         92.18366263	        208.27989035	         68.53340164	        291.44303576	         41.01908282	        684.83856542	        220.88609793	         92.37914982	        539.51417883	        175.76061430	         25.63939583	         43.86282421	          9.11323951	         10.76748683	          7.73904828	         17.50435144	         31.78255144	         85.16855033	         14.62382367	         14.61948956	         37.86952078	        104.22499018	        530.86748438	        610.05711166	         10.85370024	         15.41609683	         11.24051205	         28.21115461	        108.53381140	        362.46418739	         13.26183619	         42.50203765	         94.58250181	         24.15282199	        172.77335951	         45.74073159	         84.67604744	          2.06105509	        331.76953192	        510.61461874	        106.10476202	         64.19109318	         35.69937475	        390.14656536	         59.12822740	        158.23346781	        415.30253749	         14.47294743	         44.13691047	         22.48220924	          0.07362678	         -0.02678458	         -0.01472039	          0.00424259	         -0.04464437	          0.02945331	          0.04640692	          0.05163440	          0.04589459	         -0.01255730	         -0.03880277	         -0.97917455	          0.10182346	         -0.12486107	        -12.08928177	        -12.73495861	         -1.82150026	         -1.82659107	         -1.90894894	         -0.18529491	         -5.07248831	          1.05490567	          0.42088743	          0.71602561	          0.52218571	         -0.01071395	         -0.00432450	
          0.70000000	         55.84289344	         44.08542209	         31.41705740	         18.58025035	         38.05610794	         31.23083022	        129.75974446	         51.61049700	        237.28708207	        108.53449864	         69.12919747	        158.27043011	        128.31355182	        370.01313570	         20.08233902	         29.94626249	         45.67485962	         72.28959306	         42.23183447	        109.03336084	         23.18848662	         24.86478487	         30.20426960	         23.59520487	        102.17098691	         72.66822499	        114.36274196	        119.84329068	        272.68177857	         17.51277584	         29.41401479	        199.00017057	         68.84936924	        297.83025360	         12.21375411	        694.96749055	        464.53261461	         50.53609641	        149.04683013	         77.90186802	         50.64586313	        176.82315685	          9.86422236	         11.10560050	          9.81121933	         25.04949688	         30.21617906	         64.44859982	         10.65753324	         10.32998110	         63.86315612	        222.41726557	        227.33418922	        532.76466908	         10.78500046	         15.18514159	         11.32910517	         28.02202688	         23.25088177	         62.33779083	         20.02694838	         16.78029717	         15.16609707	         26.84839528	        322.90359163	         42.16727711	         79.67039416	          1.31856275	        464.92048236	        447.87692089	         49.99612854	         60.01732758	         34.11364133	        566.57274941	         91.23078644	        154.06932667	        534.96550878	         16.52876192	         45.27403980	         24.05002080	          0.06053603	          0.07518151	          0.01757852	         -0.00368944	         -0.05208282	          0.01534069	          0.03984687	          0.06331047	          0.03396193	         -0.01141431	         -0.02963947	         -2.37167546	          0.07738508	         -0.12927031	        -18.34712595	          7.17443510	          0.65449892	         -1.75002173	         -2.69404094	         -0.29892642	         -6.30463125	          1.50459369	          0.36137129	          0.73538767	          0.04936469	         -0.00808556	         -0.00368360	
          0.75000000	         13.84217227	         13.07951768	         12.61095950	         17.38153028	          8.92881111	          7.94932876	         86.05206359	         56.21746038	        177.20871902	         90.20158787	         58.16675162	        145.45896613	        131.15885235	        378.49498244	         32.14278302	         35.43853659	         23.17320904	         72.28041805	         65.11529041	        141.27334515	         25.16866089	         29.78675902	         48.64302579	         19.50688428	         83.32406080	         73.26401008	        114.85739976	        145.63953650	        155.28676734	         32.85781587	         33.36689111	        177.43967625	         64.02924470	        302.66388635	         24.88015333	        709.22286244	        488.47809425	         52.29252432	        163.47360346	         85.80759712	         60.63559506	        146.34717954	         13.25830458	         12.97705500	         18.64241120	         19.25095022	         31.33156845	         50.37152664	         29.59235230	         22.31950354	         32.58698878	         80.45345150	        145.61597101	        404.67153009	         12.68946220	         16.56724934	         12.66218493	         56.77071293	         15.96814659	         14.83224351	         28.16537977	         20.88897422	          9.37992250	         29.51846164	        237.23039055	         39.87897833	         75.82183266	          1.62361294	        310.14651239	        276.24446577	         32.57503794	         51.36005010	         34.18466186	        347.58928010	         39.75017806	        262.48790075	        347.83777628	         42.76924913	         95.78314114	         60.62592986	          0.02064012	          0.05833067	          0.04577997	         -0.02109679	         -0.07497638	         -0.04817524	          0.02313598	          0.08105657	          0.05761727	         -0.01157232	         -0.00814980	         -2.43013435	         -0.03803111	         -0.13006394	         -3.77098722	         16.54715381	         -1.24143903	          2.34856461	         -1.40866360	         -0.04937391	          0.26833386	         -1.36356224	         -0.12739690	          2.03551344	          1.70691038	         -0.02282241	         -0.02691920	
          0.80000000	         89.84600974	        172.37478273	         43.19717845	         26.32784251	         40.24715478	         26.80967972	         98.93736999	         47.31761818	         67.82953854	         57.22972212	         63.64929385	        180.27647464	        132.81652288	        381.44169693	         20.87232030	         28.03491131	         58.37012511	         65.00909479	         39.37748868	         46.68742679	         22.31065609	         24.22317041	         28.12003700	         29.00275761	        139.73171561	         66.08988702	        106.92712137	         65.17432431	        350.49086591	         40.58188317	         26.50276863	        155.06773232	         62.36889858	        305.95088138	         13.39412096	        679.17562100	        546.28112018	         49.61340740	        145.17715370	         82.98793116	        105.92558359	        300.34692654	         58.96871209	         81.46282039	         56.97244690	         19.13415204	         52.09073994	         54.02876718	         24.22173135	         26.08562560	         47.12294992	        130.11519322	        128.14405393	        356.09168591	         21.16335419	         36.62054199	         17.49372588	        174.92950813	         16.21708662	         12.40820971	         42.21947387	         15.63604646	          5.85136229	         40.28770106	        218.77662445	         35.57276910	         69.26839036	          1.78518266	        258.57149809	         55.40229449	         16.74809454	        413.07350798	         79.00669006	        310.78095392	         18.90438447	        386.26189776	        407.40214510	         33.41950211	         70.45652345	         45.37864174	          0.02293608	          0.06331617	          0.03637147	         -0.01997396	         -0.11993344	         -0.07943990	         -0.03588307	          0.06975775	          0.07746961	         -0.00919820	          0.04342441	         -1.19827784	         -0.02769315	         -0.11076152	          5.19625597	         17.74459429	         11.08242149	          4.63169839	         -1.17098541	          0.05090700	          1.98982333	         -0.67151026	          0.17902570	          2.99687085	          2.34565571	         -0.01896683	         -0.03158587	
          0.85000000	         37.85383861	         45.14107101	         30.66295263	         28.78439004	         23.22047328	         18.53756648	        180.78101691	         55.10535524	         35.14341200	         33.80928975	         53.58865695	        160.66426464	        135.04296849	        385.86546603	         32.59843696	         33.85528192	         55.44020626	         58.72432428	         38.26526249	         52.65962541	         21.39164279	         23.56334736	         27.85533444	         27.38170956	        108.95340938	         60.81704885	        101.40001196	         48.15150409	        200.14499145	         27.54189085	         23.63092227	        324.94875871	         68.48844386	        316.67367557	         12.64288419	        489.24551521	        526.18846767	         29.14811885	         60.59728040	         39.35907220	         98.14925074	        282.72659870	         37.78995613	         40.85717913	         44.61897017	         22.89436792	         30.02161230	         47.44388171	         45.29527305	         29.41702722	         33.79633017	         58.80337731	        114.28968575	        314.68019099	         12.87088319	         17.02257717	         13.52777696	         91.97775793	         15.30621663	         12.82107312	         33.87098441	         14.90136882	          6.42486402	         35.16813232	        233.68628895	         29.54931842	         58.60544466	          3.53657608	        296.43776908	         80.47466763	         20.52498577	         81.14669150	         40.95124194	        300.75689743	         34.50211140	        434.35160330	        218.60649647	         51.38369101	        123.16560777	         71.64772106	          0.03707776	          0.08954103	         -0.01399139	         -0.00992786	         -0.17519643	         -0.09983858	         -0.11462877	          0.04942352	          0.00543164	         -0.02990543	          0.14831067	         -0.67413643	         -0.08151622	         -0.04834972	          1.92926557	         31.47168251	         -3.21925254	         -3.68038828	         -3.95362979	         -0.82698114	         -1.63717735	         -1.41543253	          0.05395052	          0.41444084	          0.97667718	         -0.06281519	         -0.00781445	
          0.90000000	         13.69188556	         17.56694861	          9.34504913	         11.79953339	          6.54697893	          6.58571338	        105.71860400	         88.77170881	         16.47263491	         20.69691724	         54.01445623	        178.53341946	        142.82025725	        405.50861902	         60.72947936	         88.37940300	         15.38712068	        135.35965217	        109.80004326	        163.23660481	         31.83500726	         45.26436032	         58.15177242	         18.25183981	        110.33209905	         60.14078600	        101.74200754	        187.04291002	        140.57473253	         21.81697342	         39.92856076	        240.97394728	         59.90541287	        348.84442046	         56.71815223	        298.85651443	        516.80832419	         14.75078597	         44.70349684	         22.74075229	         63.94601988	        138.25004432	         18.09032721	         14.01937015	         23.33199583	         40.90654507	         29.84939369	         51.14127585	        129.48870332	         36.57814077	         19.18988239	         31.79581898	        103.19324661	        281.17752419	         15.57904139	         17.45743906	         16.86999400	         26.59982586	         21.08171050	         28.42085138	         14.03496129	         21.56140932	         23.32202287	         30.64288911	        226.20649007	         40.39718367	         82.77249458	          8.37774728	        320.38204617	        322.56503884	         32.20196259	         40.40847966	         30.02789896	        327.21486487	         29.40594213	        415.72352076	         78.65745980	         40.71802507	         77.06118296	         49.69852252	          0.01272259	          0.14535342	         -0.09525547	          0.03428767	         -0.17611661	         -0.15805611	         -0.21928180	          0.03608881	         -0.03005833	         -0.06008883	          0.27924046	         -0.59587778	         -0.09502950	          0.04684203	         -3.17785201	         35.56655542	         -8.37372025	         -5.96730793	         -2.31364981	          0.22120396	         -5.36844007	          0.10126887	          0.01358795	         -0.55126592	         -0.47413827	          0.00600573	          0.01524642	
          0.95000000	         12.53031909	          3.92508398	          4.39449825	          2.50039743	          3.91563291	          4.18944265	         29.76187873	         34.73455318	          6.95710051	          7.00309724	         33.42873525	        110.49027351	        141.56015376	        398.62947995	         78.70296349	        118.00874499	          6.77522543	        180.73175646	        172.98231540	        233.59349612	         22.26764962	         29.18745474	         27.90937254	         15.83510754	        109.30457904	         56.25801193	         82.61278272	        222.19555556	        145.52547874	         75.86177856	         22.16517655	         60.13545515	         33.93745843	        105.16014490	         82.30299092	         79.32171044	        329.72987229	          1.64141721	          1.98783177	          1.82451755	         27.67191999	         45.94027973	         10.97191922	          4.55757982	         11.15989375	         12.63895228	         15.33429176	         22.97321762	         32.07261967	         16.64811474	         15.07970981	         22.42232803	         56.85257408	        132.26278542	         17.92151023	         18.16857045	         18.64206161	         15.69070384	         14.38596638	         35.27781575	         11.70893747	         13.86537952	         12.57791753	         18.05661179	        177.19083950	         14.76229080	        111.68708240	         48.37226672	        230.84685107	        301.71915244	         14.82401611	         13.33188749	         17.02737675	          2.47958785	         12.86963649	        162.55853825	         48.51349806	         10.50667581	         34.83963821	         12.79335187	         -0.08817799	          0.17681410	         -0.17757876	          0.12396172	         -0.09074784	         -0.13764859	         -0.34040635	          0.03222217	         -0.00430815	         -0.05513303	          0.36162422	         -0.71707278	         -0.07129105	          0.03178051	          1.28470682	         16.27627713	         -5.31869596	         -2.78924841	         -0.35787501	          0.49668542	         -4.25190707	          0.66978443	         -0.06436043	          0.02139131	         -0.29391197	          0.01497572	          0.00648406	
