ModelForces
version=1
nRows=20
nColumns=108
inDegrees=yes

This file contains the forces exerted on a model during a simulation.

A force is a generalized force, meaning that it can be either a force (N) or a torque (Nm).

Units are S.I. units (second, meters, Newtons, ...)
Angles are in degrees.

endheader 
time	addbrev_l	addlong_l	addmagDist_l	addmagIsch_l	addmagMid_l	addmagProx_l	bflh_l	bfsh_l	edl_l	ehl_l	fdl_l	fhl_l	gaslat_l	gasmed_l	glmax1_l	glmax2_l	glmax3_l	glmed1_l	glmed2_l	glmed3_l	glmin1_l	glmin2_l	glmin3_l	grac_l	iliacus_l	perbrev_l	perlong_l	piri_l	psoas_l	recfem_l	sart_l	semimem_l	semiten_l	soleus_l	tfl_l	tibant_l	tibpost_l	vasint_l	vaslat_l	vasmed_l	addbrev_r	addlong_r	addmagDist_r	addmagIsch_r	addmagMid_r	addmagProx_r	bflh_r	bfsh_r	edl_r	ehl_r	fdl_r	fhl_r	gaslat_r	gasmed_r	glmax1_r	glmax2_r	glmax3_r	glmed1_r	glmed2_r	glmed3_r	glmin1_r	glmin2_r	glmin3_r	grac_r	iliacus_r	perbrev_r	perlong_r	piri_r	psoas_r	recfem_r	sart_r	semimem_r	semiten_r	soleus_r	tfl_r	tibant_r	tibpost_r	vasint_r	vaslat_r	vasmed_r	hip_flexion_r	hip_flexion_l	hip_adduction_r	hip_adduction_l	hip_rotation_r	hip_rotation_l	knee_angle_r	knee_angle_l	ankle_angle_r	ankle_angle_l	subtalar_angle_r	subtalar_angle_l	mtp_angle_r	mtp_angle_l	lumbar_extension	lumbar_bending	lumbar_rotation	arm_flex_l	arm_add_l	arm_rot_l	arm_flex_r	arm_add_r	arm_rot_r	elbow_flex_l	elbow_flex_r	pro_sup_l	pro_sup_r	
          4.00000000	         72.94546218	        158.65485416	         16.07727137	         16.34817574	         16.13593213	         14.87700437	         51.68315854	         33.68020785	        104.09976010	         30.17260176	         14.81316874	         26.05854123	         87.79713732	        237.71902090	         75.40162278	         38.83079052	         17.96893284	        142.47274361	        117.43725624	         55.37950387	         36.33531517	         13.80707563	          0.80291947	         53.72548979	        159.15852065	         38.67225442	         89.25164065	          1.60881512	        263.62513424	         29.42162347	         14.39333453	        327.97589950	         43.30276398	        187.39928239	         14.66614625	        348.33012607	         42.93890176	         57.91290950	        281.62336103	         99.29415154	         10.81621599	         14.37096551	          8.28462304	         10.35236353	          2.78169464	          2.56907254	         29.05169129	         32.35366308	          9.15725820	         10.06066526	         37.22363256	         90.28518895	        246.47787336	        492.64998143	         16.87779198	         24.28645133	         12.73765066	        103.34124695	         55.78670567	         53.99829132	         33.11326964	         38.22342430	         49.36260803	         12.30692137	        151.32297873	         14.46654049	         32.28390749	         76.56567558	        191.12928641	        618.61974408	         21.82337333	         54.99418973	         29.07476603	       1398.90843027	         85.15892975	        129.09196289	        723.95367989	         38.98374563	        101.97945751	         53.89652847	          0.05697296	         -0.01436739	          0.06554373	         -0.02245922	         -0.08342072	          0.02438266	         -0.00143866	         -0.04955284	         -0.03449717	          0.19387944	          0.05688129	          0.07977229	         -1.93783514	         -0.93206578	        -21.09755393	        -43.57078260	         -6.58465657	          5.04400168	         -5.78948079	         -0.00139099	          4.08129709	         -0.97285215	          0.70469488	         -0.30289395	          3.16629299	         -0.03016728	         -0.05607751	
          4.05000000	         60.92952435	        128.81322626	         12.41872645	         28.18868149	         11.97086274	         11.77789927	         38.85077107	         33.23228997	         27.95366619	         11.64834521	         22.58360794	         48.77112664	         84.87838646	        195.87789136	         40.57673916	         43.59957618	         14.94452382	        290.72624901	         83.61536533	         31.79831648	         65.78247367	         19.97802585	          2.48937561	         44.61077627	        164.31508865	         21.66622709	         42.91941725	          3.93726203	        260.46355765	         14.50146012	         13.44890074	        395.95701419	         49.58442841	        348.98389866	         21.98180388	         83.06060439	        174.85478777	         35.22660512	        104.09556703	         50.88864073	         13.45300124	         18.68510531	          7.80102994	          8.74383200	          4.02890958	          5.16318062	         20.91337011	         31.18233099	          7.02622835	          4.85387953	         63.79669492	        209.01198021	        212.67756494	        420.31698642	         13.80861080	         18.50179057	         10.52189761	         99.63440089	         54.93678425	         55.39164055	         30.58276393	         35.00067929	         34.80826630	         13.18244012	        188.08719774	         16.97688676	         37.85196292	         49.36329073	        220.85444395	        649.97642377	         26.60798184	         34.96826800	         26.45111878	        736.04815199	         60.46469722	        100.06967072	        651.01516965	         42.27916936	        137.88600559	         63.83720934	          0.16018985	          0.02117581	          0.13766079	         -0.18905800	         -0.05635450	          0.05502878	          0.06968461	         -0.12795280	         -0.08393416	          0.30111280	         -0.17352248	          0.19089432	          0.11377729	         -0.33549430	        -18.34667232	        -37.33819161	         -2.10095145	          2.37774641	         -2.45068693	         -0.05544678	         -1.89352342	          1.50413760	          0.19995102	         -0.33973217	          2.48340663	         -0.01067730	         -0.04794780	
          4.10000000	        161.77655196	        393.32735949	         88.66398071	         26.20217865	        121.94678190	        120.78880798	         24.97104623	         31.12317020	         19.89904911	         16.83725010	         27.47570900	         63.10406869	         53.07408585	        106.15875297	         10.87409373	         14.95935797	         18.22843718	         73.82762729	         20.41798872	         13.90353996	         15.24969734	          8.53072970	          6.65241965	         47.86754523	        302.31088389	         15.98433537	         30.13357480	          9.01762447	        462.77286633	        712.27534978	         16.33968956	         66.91979958	         28.11998166	        113.98237695	         10.69059996	        183.18704978	        228.55948987	         26.10100289	         69.71243837	         36.78351970	         19.12939632	         26.57819076	         30.01262212	         44.75104487	         10.88600440	          8.11491792	        180.86832027	         34.64111687	         42.55034805	         16.68823928	         15.47582662	         58.96441857	        155.13832829	        428.52032511	         68.66174318	        176.06641627	         56.20886725	         50.59853250	         23.26259070	         19.88910515	         18.78548775	         18.43322043	         14.98297416	         17.73897482	        150.83808317	         22.35013642	         48.94898086	          7.88141551	        178.54079164	         33.76554703	         14.53085844	        584.00891074	         82.94395588	        520.61660174	         18.27038813	        190.93165810	        293.29713273	         30.91571239	         91.03171935	         47.46248347	          0.15878946	         -0.04670570	          0.21478165	         -0.25363885	         -0.06450871	          0.06958652	          0.08365376	         -0.24587368	         -0.08716001	          0.18515689	         -0.26611993	          0.19689836	         -0.03472845	         -0.31096053	         -4.41152647	         -5.33168632	         17.72569182	        -12.78927441	         -4.79705067	         -0.05120223	         -4.25447301	          2.06035737	          0.08044821	         -4.75191837	          0.38464122	          0.14962233	          0.01116455	
          4.15000000	         43.06705407	         89.05586940	         18.12824463	         13.20271033	         20.00395205	         19.69730174	         26.90096148	         28.05871914	         85.09972224	         22.96532752	         15.57729321	         24.99069506	         34.31587894	         75.30712280	         18.67655547	         22.77192330	         24.45392432	         25.13425638	         18.80828959	         23.87811294	         11.97240787	         14.47440143	         13.96696992	         22.87018055	        177.90822465	         23.13214827	         56.77723498	         24.61218207	        261.08253281	        171.90231501	         14.21985725	         33.62832610	         24.59695241	        105.78007869	         15.40809260	        237.78623193	         70.88712014	         64.41277935	        198.03719663	         89.69856139	         20.89141539	         32.24101581	          9.12096691	         11.31607921	          8.01917998	          8.59647825	         43.17345127	         35.34814491	         85.04344494	         46.08941045	         65.57884969	         27.52697185	        163.55238246	        465.18924718	         18.43108558	         33.96890620	         13.55466708	        217.63588113	        122.26494440	        124.23211954	         37.68960750	         38.56627954	         21.39025539	         18.40143289	        192.06836199	         27.11628931	         58.49888820	         53.73785990	        203.72616980	        837.01628190	         31.03263115	        122.80420864	         31.71897183	        517.08106463	        159.58919775	        327.31815975	        209.73393044	         16.69370863	         46.75369154	         24.66164919	          0.10160285	         -0.13890082	          0.23845513	         -0.26824775	         -0.06771087	          0.04511377	          0.09148005	         -0.25455337	         -0.00875084	         -0.03934913	         -0.16946398	          0.13338118	         -0.03545487	         -0.24061372	        -28.43733092	         19.69463709	        -10.32698012	         11.02441865	         -6.76843574	          0.17977830	         -3.15878656	          0.98158992	         -0.48843232	          1.74092713	          0.31630764	         -0.10334217	         -0.03011342	
          4.20000000	         27.50543883	         32.12408670	         23.85640403	         28.24215622	         10.43963268	          9.79844937	         63.30926257	         25.56124261	         61.57001496	         27.32485833	         16.11665997	         26.32337822	         41.24866191	         92.03275996	         27.36283014	         45.77903145	         33.37971234	         56.87744664	         33.59683391	         30.77561844	         14.42545494	         15.11104995	         14.54029495	         17.96911189	        158.00074859	         39.71953407	        124.07553832	         18.36545827	        203.50361095	         62.41771066	         15.92642102	        116.60348968	         48.27856245	        136.84850120	         21.65580605	        290.15219426	         67.52176121	         56.77806266	        194.76582635	         86.97757745	         26.57866885	         43.59199956	          9.37051215	         10.01599121	          8.69938988	         10.38434157	         28.75094634	         36.74857385	         17.03316832	         14.97377227	         44.58473333	        269.89841159	        170.94011991	        487.23089884	         10.48146596	         14.39258130	         11.73516899	         48.33504057	         32.90452700	         84.54636150	         17.80039046	         47.81165668	         32.38553341	         22.19308498	        341.94194115	         32.40836410	         67.05781258	         38.29000424	        549.28450073	       1000.45816100	         81.15618480	         51.70894981	         28.88651699	        501.41397457	         66.34463944	        228.61898942	        587.87103991	         28.33457546	         82.44524858	         43.19643008	          0.03539851	         -0.12149953	          0.14590271	         -0.16780696	         -0.01818786	          0.08445459	          0.07900029	         -0.01639753	         -0.00725932	         -0.17551149	         -0.13300466	          0.06494561	          0.03890837	         -0.12594122	        -36.79669268	         -5.36802916	        -12.27545072	          6.01297258	          0.56136995	         -0.03071873	          6.41856907	          4.94366009	          3.56565616	          1.89574917	          2.86594880	         -0.09252028	         -0.00857238	
          4.25000000	         18.96099226	         31.86222826	          8.88107142	         10.27677874	          6.79386350	          8.30395583	         26.49227262	         43.45668237	        141.34162021	         14.73107202	         16.29900416	         28.23793252	         56.93465133	        132.75796451	         14.27900423	         19.80503155	         12.90408399	         58.65720990	         31.82098517	         30.79339480	         26.81577740	         30.60119981	         30.90733385	         16.97449466	        163.40645367	         46.43407201	         93.29464229	         48.92310969	        243.33674526	        162.87160870	         24.60457730	         44.85643964	         24.94958965	        190.10299298	         47.89544200	        274.70435913	         71.32223695	         19.74471049	         56.83488025	         29.44854389	         27.22077797	         44.79536741	         10.12092338	         11.26767857	          8.73750577	          9.12037182	         32.65121553	         37.58880388	         29.79306716	         12.58488782	         15.46683934	         25.97785820	        171.93698413	        494.52917249	         62.84767452	         44.58382718	         13.49602653	        188.96891115	        189.53553137	        258.41495891	         24.60410715	         50.71833258	         58.96201136	         23.88084582	        190.38573418	         38.19177906	         75.82283027	         23.94073949	        261.83093890	         62.35301617	         22.94007406	         57.28646172	         31.88888851	        489.34706154	         33.51439897	        209.49675695	        457.52536440	         24.01913076	         64.59328956	         35.77452595	         -0.04522696	         -0.09148648	          0.01542161	         -0.05150523	          0.01351513	          0.06954566	          0.01422586	          0.18618310	         -0.00811868	         -0.27615730	         -0.14780835	         -0.05852737	          0.00453051	         -0.06623325	         -0.76523101	        -13.41095718	          8.76695131	        -34.69675943	         21.89469401	         -0.77866732	         19.40369469	         19.91697182	         12.95384021	         -6.23491881	          1.66143410	          0.28510251	          0.23054984	
          4.30000000	         20.89840436	         29.08422736	         19.25507861	         22.06686553	         12.91753271	         10.71886112	         72.79624595	         30.07514110	         71.19363595	         65.64744942	         16.03216363	         29.26422243	         79.19914946	        199.76308043	         29.86286180	         45.47010249	         32.75339739	         40.85129574	         32.75509222	         36.50613850	         14.67516076	         17.20713153	         18.90736475	         18.33833903	        123.40873662	         72.13929484	        155.58060929	         26.14675136	        172.48375312	         39.61832189	         13.78149652	        125.42259500	         40.98581341	        270.91523384	         16.71621582	        383.34081387	         71.28946390	         38.59077702	        110.56814582	         55.48008480	         28.44646786	         47.05776081	         10.07375719	         11.07448536	          9.07312686	          9.68559216	         31.62639510	         34.35825640	         40.26521324	         57.37578171	         87.58231152	        292.68822913	        169.28960916	        492.95765577	         14.36916574	         16.76043276	         12.95292087	         79.67299360	         35.35891679	         46.84842902	         28.46870125	         36.98280992	         24.90298463	         24.22649052	        235.50270661	         40.42605016	         79.41305553	         17.20796699	        320.83471613	        745.49801250	         41.06022882	         55.91296462	         31.63036653	        503.87307810	         94.59005072	        309.28569314	        574.61653496	         32.76314557	         87.02019125	         45.64625262	         -0.02509224	         -0.09860069	          0.03690642	         -0.05395255	         -0.05346829	          0.02063109	         -0.05102302	          0.13066343	         -0.07032865	         -0.28323396	         -0.03749582	         -0.10568960	          0.00701639	         -0.07513318	        -18.21892519	         -9.12881630	         -7.83827533	         27.24099716	        -51.64102797	         -5.22387479	        -16.54357820	        -38.20280333	        -13.25783088	          7.86874090	         -6.24178276	         -0.67416444	         -0.09598862	
          4.35000000	         15.30096240	         18.11940973	         11.74405865	         13.74575361	          7.97731184	          8.00749359	         40.96405351	         32.56529460	        211.00112068	          7.74764292	         15.50127768	         29.38391087	        110.46510128	        298.06799486	         27.39026587	         38.48350547	         19.37694003	         54.16170917	         41.22095750	         47.63461372	         18.53080759	         22.82731587	         27.64634266	         16.52358939	        119.83395578	         98.79042750	         77.01030919	         57.06179873	        169.81665225	         97.20561938	         16.48022736	         68.31862180	         33.27728850	        374.28627780	         23.36205103	        445.93236560	         68.49182195	         31.73864297	        109.97489102	         50.11497135	         29.06595082	         47.80244424	         10.02161754	         10.99106547	          8.95824500	          9.75349193	         31.91914631	         34.50079056	         68.77134896	          2.96523054	         75.81158394	         75.36372549	        179.25728231	        526.40488507	         13.09355657	         17.23635244	         13.15946069	        198.50850423	        145.47453624	        189.13295658	         36.74874981	         62.58781420	         62.69546246	         24.73890994	        206.61749450	         40.23256547	         80.32987438	         43.78638857	        264.96748847	        709.37399145	         44.63495305	         55.18726125	         31.51160522	        577.05224185	         94.46644750	        276.69156403	        700.32268077	         32.18604077	         98.82654429	         48.04395495	          0.00159407	         -0.07714025	          0.03583162	         -0.09220010	         -0.07615607	          0.04756116	         -0.03476623	          0.15024060	         -0.26823880	         -0.22816961	         -0.01189453	         -0.17185720	         -0.01811462	         -0.09858090	        -14.34861654	        -11.98228456	         -0.52682707	          7.53126299	         -9.40354077	         -0.61492768	         -3.96619809	         -4.79504128	         -2.00013868	          2.35300466	          0.25263425	          0.00739324	         -0.18892004	
          4.40000000	         10.70754653	         12.19169650	         12.12516804	         13.78046994	          5.56137165	          5.02254816	         48.49419004	         32.54243585	        227.37780467	         82.15370442	          9.14489665	         26.93760578	        143.11628625	        403.90225884	         38.12672557	         47.73056635	         29.22434071	         52.22867137	         44.54621597	         60.89955954	         18.64792801	         23.82366024	         32.23957041	         15.21653291	        111.12700275	         45.24744245	         64.41977545	         22.72300938	        146.38502649	         16.04903297	         14.14343634	         77.11966889	         35.28766544	        447.13729980	         19.18372827	        487.16908754	         48.46916711	         47.49963834	        223.09147258	         79.93431462	         32.38309101	         54.65018324	         10.26160307	         10.93055748	          9.65757212	         10.71066540	         31.14621890	         32.31497240	        251.43839206	        151.41144653	         93.00070554	         26.84706484	        191.49290187	        567.54568472	         11.39807136	         15.38805766	         12.87649177	         37.52663109	         95.07910846	        169.32984663	         10.14216852	         48.25543412	         40.52610673	         26.17610795	        219.79947952	         39.78272995	         80.57648241	         39.72239797	        348.80939614	        783.10872852	         54.21027585	         53.37771780	         31.15202493	        641.68372630	        103.13070401	        275.46918915	        743.87248760	         43.12728337	        159.20215931	         67.90342414	          0.05498742	         -0.01570253	          0.06124986	         -0.12026352	         -0.01347910	          0.14743533	          0.00133843	          0.18210220	         -0.74375644	         -0.09270411	         -0.01820216	         -0.23891535	         -0.04752092	         -0.11395470	        -17.72186241	         -4.10867349	         -3.02921805	          0.27606223	         -0.47040558	          0.09543870	          6.99503939	         -0.49601082	         -0.98231371	          1.63684771	          1.21791593	         -0.03321388	         -0.07206484	
          4.45000000	         85.82330420	        169.54255902	         15.09206991	          9.24610811	         16.82875902	         23.04091323	         32.43218257	         34.59256230	        379.25306320	        188.31242613	        100.99385939	         25.36501670	        162.47483686	        466.75138579	         15.11622998	         21.63675679	         11.80372496	         56.09815149	         34.50102689	         43.64466256	         21.04299301	         24.65412750	         29.87596864	         24.50267729	        140.09975716	         36.89702407	         73.50067287	        192.21566485	        378.91022669	        365.63698264	         24.30804379	         70.93056109	         33.93195151	        449.10660802	         20.50587297	        526.04002927	        360.22314967	         60.06033501	        404.71727916	        123.39350734	         34.93453336	         60.70089686	         10.70540413	         11.03212476	         10.03792242	         36.56856385	         31.03814053	         37.60664218	         78.28844576	         34.93460201	         61.93186794	        118.07267807	        185.21706031	        551.06463934	        100.03609255	         70.29215490	         15.66616180	         16.10317940	         45.41215621	        303.74753590	          7.79435040	         23.00487099	         48.90198800	         27.31476143	        176.31995436	         36.91896529	         75.98191088	         22.71016775	        296.01045881	        601.92020863	         44.83440379	         49.28488956	         30.60799275	        630.44295996	         22.06774805	        195.70554032	         36.88965354	         24.83332061	         60.09560002	         34.35589910	          0.06135543	          0.04179175	          0.02963637	         -0.08091794	          0.01390222	          0.10978782	         -0.04241983	          0.13268705	         -0.54359915	          0.02827115	          0.05829276	         -0.16474782	          0.01015618	         -0.12238623	        -31.35578769	         11.31096287	          6.73840187	        -17.69561930	          2.67920890	         -1.20641105	          8.29776668	          2.99059416	         -0.56178200	         -3.77405360	          2.53158021	          0.01611006	         -0.06989561	
          4.50000000	        187.15217501	        353.94790716	         86.87574479	         54.56869992	         32.63411174	         33.47311598	        143.92249854	         33.87829031	        272.74161881	        108.00131676	         41.81599619	         22.70947542	        162.87261518	        468.21189681	         50.98275076	         22.08844187	        193.65763604	         55.01178209	         32.31371808	         48.93171338	         21.64354077	         24.35029127	         26.78603775	         41.47641449	        126.43724218	         40.76199617	         78.36891502	         39.55495903	        205.60094744	         78.41734799	         15.03593995	         39.69469182	         43.75264092	        415.32149610	         21.20200000	        569.14758028	        412.00342513	         37.51161195	        173.34028246	         64.02922673	        146.12866758	        274.43659808	         16.94561371	         10.58145972	         99.89812836	        230.72452501	         31.57453057	         36.22419917	         15.48311682	          7.25028597	          9.73507401	         29.57782429	        215.27382469	        507.06961573	         20.58896488	         16.83571596	         97.66449638	         16.57663537	         13.83186093	         62.09972816	          7.48611796	          9.15732956	         30.89717679	         57.11114052	        178.46832102	         33.39522993	         69.85750645	         23.07502273	        327.12303539	        725.00142646	         28.10680389	         43.55525266	         28.79963322	        658.88308376	          6.58407644	         39.37158780	       1051.03708703	         20.32658401	         54.43196273	         28.88455881	          0.03217963	          0.08750527	         -0.03895891	          0.03096026	         -0.00287593	          0.01618133	         -0.06596502	          0.06923636	         -0.10027071	          0.05795365	          0.07035893	         -0.08573990	          0.10552406	         -0.12736408	        -32.59253660	          3.63722108	         10.28108422	        -13.78961954	          3.65968246	         -0.47173891	          2.28116413	          2.19273890	          0.27174235	         -2.81882834	          1.40924759	          0.03498168	         -0.00674169	
          4.55000000	        162.93017578	        306.89991508	         82.22485519	         59.76695327	         41.54056674	         44.60752128	        548.04148631	         70.91238615	         48.12267909	         18.70691489	         26.37592956	         94.61305391	        150.49973694	        428.18516901	         42.24062432	         27.16792465	        147.79114056	         50.19906405	         30.30693141	         37.99298656	         20.13132650	         22.54765371	         23.34427861	         57.49937979	        133.89514951	         39.71025190	         75.96655293	         63.41654396	        198.38832576	         31.47026884	         16.56552589	       1406.84722316	        168.24413278	        378.41266118	         20.40928340	        416.28507623	        274.43111987	         15.51079092	         44.96555047	         23.35064211	        345.64591016	        875.33349697	         10.12694022	          9.93981097	         99.23884742	        102.44722918	         23.72321422	         30.92876684	          9.18880957	          8.84146997	        147.19333577	        481.25999786	        150.72217807	        438.42127384	         10.12058949	         14.25161813	         19.33834677	         19.29942063	         13.26037536	         15.87355571	         13.03429091	          9.81850988	          8.14355875	         43.95792296	        548.66755156	         28.06647754	         60.75639884	          9.05620010	        790.35174657	       1261.18406167	         53.82341861	         40.83481876	         26.04204772	        518.69374876	        124.14950425	        299.74700646	        998.43485209	         67.42122078	        308.40960029	        108.28796910	          0.00396261	          0.04261819	         -0.07719299	          0.04251925	         -0.03962173	         -0.04293855	         -0.01129255	         -0.02263314	          0.06131399	          0.06495182	          0.08961928	          0.00993980	          0.04833875	         -0.12637419	        -21.65615293	         13.18511290	        -20.12064148	          8.62227969	         -4.69665220	         -0.10583138	         -2.70198657	         -3.29876193	         -0.10079321	          5.09331040	         -0.70520144	         -0.09610806	         -0.00844088	
          4.60000000	         64.33825016	        148.25236347	         16.92483516	         14.18374101	         10.26275129	         10.01035896	        109.14404979	         34.86259257	         55.51262683	         34.45505317	         34.27322327	         38.21025998	        136.07769223	        383.50620818	         14.41215735	         20.41784445	         30.25555885	         52.37683127	         29.43440722	         26.36753908	         24.28502551	         22.42166702	         22.29424947	         19.65168835	        163.59186583	         34.62834795	         68.08890634	         19.02109634	        200.34842048	         12.17395791	         15.96738821	        271.61333168	         48.18338240	        353.85970192	         29.38758387	        414.00719829	        372.76743650	         56.72271491	        257.21539452	         93.00696980	         77.12206404	        169.60978741	         10.46888015	          9.57538981	         28.94052192	         51.41813980	         20.70816838	         32.82543592	         10.48592568	          7.14508392	         31.06003186	         87.59099808	        239.23401210	        379.86935398	         12.08338587	         15.47405352	         11.85515211	         19.11152726	         15.86740937	         16.67459191	          9.39665876	         11.18188790	         13.92515536	         31.37425045	        230.37575568	         22.93210419	         51.05122078	         37.27228243	        315.26815502	        457.38594027	         19.90496843	         21.64424767	         25.48863077	        703.55635788	         26.43562334	         82.32872215	        353.07817887	         34.33110172	        102.82923036	         50.53064232	         -0.02429008	         -0.02827301	         -0.05810000	          0.03975816	         -0.04171001	         -0.08870425	         -0.01885123	         -0.04079832	          0.12571689	          0.03853463	          0.18408633	          0.08709711	          0.07740509	         -0.03617281	        -27.52599166	         15.08350603	          0.31982263	         -5.48449936	          1.45446491	         -0.20666401	         -7.67899608	         -1.71379380	          0.99024202	         -0.10322744	         -1.42369956	          0.00761219	          0.06322687	
          4.65000000	        121.08497671	        365.05132629	          8.51545136	          9.62905419	          6.26846673	         33.02555395	         31.99178300	         33.89463020	         14.12537918	         17.05698444	         51.06234948	        185.18148426	        130.04163845	        359.38178332	         14.26533590	         19.78670434	         12.02496262	         44.92938118	         29.74407887	         28.67737745	         17.51842982	         20.91309072	         23.37633064	         16.54836015	        317.85354291	         29.92798940	         60.62871527	         34.07967294	        592.13647404	        851.80707509	         42.50968615	         72.81111616	         30.19282763	        347.40449271	         75.03279294	        381.88993342	        513.22074866	         44.25004795	        217.85249099	         75.02461290	         30.74325889	         58.79133629	         40.12091849	         74.85209149	         11.17586554	         11.80245163	        205.71396391	         31.82977758	         11.32180449	          7.94864618	         35.85344020	         98.13578392	        119.47345189	        590.43041789	         19.98141672	         95.51655621	         48.50102517	        256.31729862	         26.66176306	         17.87158995	         39.67335919	         13.14732172	          9.35132316	         22.05253756	        180.88761882	         16.49031762	         37.68634265	         12.59647975	        240.16997898	         96.22284601	         14.50743483	        959.00485749	         98.16000625	        776.52929300	         14.79146525	         75.73049888	        277.58991366	         32.44182040	         75.06181600	         44.37452098	         -0.01483501	         -0.01487444	         -0.04463696	          0.01663839	         -0.05237378	         -0.07540109	         -0.04977049	         -0.03505896	          0.17186591	          0.00953399	          0.24472600	          0.08648394	          0.11751445	          0.05857435	        -22.38213644	         13.34210867	         20.58234395	        -13.13947104	          3.38738359	         -0.71359492	         -2.33519861	          0.81770697	          0.71405149	         -2.81970541	          0.61100058	          0.05346931	          0.02128167	
          4.70000000	        131.62058255	        378.10139663	          8.72481821	          9.27800865	          7.12640807	         38.85432831	         28.03848745	         32.83271492	         13.10269466	         21.02736739	         48.78541309	        131.05059686	        132.67058070	        364.34235010	         13.00267777	         17.81729931	         11.77092772	         38.49787659	         26.75268327	         26.38876547	         15.56093482	         18.80178666	         20.29217204	         18.14910359	        314.83931117	         28.87978533	         58.99001276	         34.82900582	        535.84644208	        738.00307787	         40.83672998	         45.33050597	         29.62718346	        357.99274919	         68.68087252	        376.87564741	        538.19839421	         57.29519751	        254.94822541	         98.00368632	         26.10970346	         37.30035046	         74.84383139	        127.07069072	         37.25256307	          8.36607803	        297.62603748	         35.87488635	         13.96761586	         11.40378688	         32.75920436	         83.09008520	        242.36432510	        352.71695624	         13.29981587	         48.36686685	         48.44037828	        317.64540669	         18.91233758	         18.18452402	         42.90111215	         12.84233337	         10.83715107	         22.32675968	        175.97051597	         12.17295180	         26.04246517	         13.97650345	        230.14732154	         28.56955953	         14.44400746	        923.16720624	        179.01296147	        974.93479346	         12.94211281	        112.46400034	        323.28470936	         23.47469637	         62.49969032	         33.19757306	          0.00790448	          0.04562826	         -0.10289874	          0.06238528	         -0.02441712	         -0.06888857	         -0.04495152	          0.03280643	          0.27858117	         -0.03099340	          0.30680188	         -0.00316616	          0.13043908	          0.03554178	         -1.53233132	          5.84942796	         18.79482821	          4.97380581	         -0.84818736	          1.02154541	         18.85843337	          3.05390124	         -2.45192829	          2.97867413	          6.82850817	         -0.03518993	         -0.24050529	
          4.75000000	         33.46793566	         85.73358008	         10.31039997	         16.77946136	          8.06428109	         10.56763163	        117.62276611	         41.74097367	         12.08128097	          8.24966365	         32.39456925	        107.21272168	        144.74162511	        403.79251017	         54.83975887	        150.13866013	         14.62057826	        151.21006754	         55.89311375	         45.86253297	         27.66901457	         23.69434307	         18.26764742	         18.17994538	        160.85785639	         31.66274456	         63.95511366	         12.04184160	        228.89137786	        120.80581859	         16.85161104	        503.28258295	         59.42532793	        384.25914856	         13.79191192	        128.72748264	        393.40377997	         16.96054523	         51.25340149	         25.38306454	         84.57656662	        341.93636925	         13.20221176	         20.51066758	          8.17704041	          9.70605678	         44.59979247	         39.15019517	          8.03928105	         10.50188607	         40.01620646	         83.97350897	        126.11827439	        272.23464595	         11.01520506	         14.67089728	          9.07989284	         83.03130180	         20.01038311	         18.61730681	         64.54539578	         15.86786714	         13.51302596	         20.29406033	        294.30967768	          9.44632608	         15.15426659	         14.46124771	        331.07057521	        647.40062978	         23.65190827	        143.05223098	         39.79971118	        329.62140674	         92.81008217	         86.55464941	        341.99410772	         22.29964130	         60.54808146	         31.73125331	          0.05125961	          0.10869235	         -0.17575223	          0.15423328	          0.05617572	         -0.07107354	          0.00491677	          0.07277309	          0.22016235	         -0.05519792	          0.30500870	         -0.08657250	         -0.11468066	          0.04715427	        -16.92826734	         13.17462228	        -11.50115395	          3.74524166	         -6.30621201	         -0.71792278	          4.53951991	          3.50981533	         -0.54673605	          3.06844968	          3.50342290	         -0.07279555	         -0.09975372	
          4.80000000	         22.91795212	         35.80145414	          9.61461323	         10.13578554	          8.76111892	          9.58349388	         34.51070032	         48.94794294	         11.94012999	          7.20651798	         26.06162016	         79.91226679	        245.51481593	        428.84074827	         63.23367852	         51.49125854	         12.63396004	        199.47363562	        115.71871231	        137.39703414	         31.80105157	         38.62345587	         24.51933594	         21.30159444	        161.04769141	         35.80580981	         71.08666259	        102.87687238	        207.13183380	        177.32363546	         32.56514033	        105.63530907	         31.48954320	        414.67044970	         97.66242579	         55.78309222	        243.13926508	         15.46565737	         44.89229135	         23.59987705	         29.25852416	         65.31060019	          6.52532422	          7.01953542	          4.98724305	         11.56626177	         13.86127411	         39.17147779	        171.12552499	         33.29326388	         22.42816149	         35.96309292	         69.52582414	        165.76126959	         11.48806995	         15.04954791	          7.58597844	         42.73688228	         23.19582218	         21.39068738	         31.37052611	         26.84427880	         18.31562804	         17.89136403	        233.45344557	         74.85378482	        188.04368506	         17.93027090	        295.85073891	        449.29713161	         25.48023665	         28.30409091	         19.17794209	        203.46844396	         59.10131226	        310.72039705	        116.21256759	         22.21212244	         61.48943340	         31.64505999	          0.02599838	          0.12310081	         -0.18314037	          0.20581734	          0.00549940	         -0.06543822	         -0.05911550	          0.06879856	         -0.10688188	         -0.04318799	          0.42926711	         -0.10527694	         -0.27172594	          0.05064442	        -27.29475511	         10.58460036	         -9.57512615	         -2.62661710	          1.53444153	         -0.20414822	          5.89132953	         -6.39999095	         -1.27790187	          0.82680144	          1.20789532	         -0.06668579	         -0.03427081	
          4.85000000	         30.35659286	         50.82002415	         10.20615089	         10.50538238	          9.82788855	         11.11445535	         31.88721193	         58.63777114	         12.55297393	          8.71157794	         19.60553106	         51.46919562	        303.92262557	       1270.83911591	         96.66941312	         35.45542169	         12.94620846	         92.36593530	        137.37025291	        247.48442956	         21.50521417	         49.80518842	         37.06499861	         25.92100596	        203.47984908	         40.64715919	         78.40362323	        120.84423381	        300.79005745	        609.30301084	         56.05525014	         54.04180491	         31.24412780	        424.09492218	         63.88088953	         81.99126469	        158.86807317	         15.92175738	         46.06127093	         23.94597993	         19.88612473	         38.43266406	         15.89377685	         19.94350910	          6.64442391	          7.63777854	         37.06878006	         27.80183279	         81.26880778	         27.07189264	         24.12722947	         38.82500530	         76.39958476	        186.11643984	         13.92903916	         21.65144824	         18.56732926	         47.32805773	         27.44600157	         25.27236278	         22.76872623	         23.15533865	         24.69963662	         14.41953945	        193.74441910	         25.49147632	        401.16147949	         22.54359656	        221.54020228	        122.54069186	         15.30459618	         77.33537039	         30.53092446	        273.05902163	         34.64843531	        466.86074536	        113.68990582	         44.91875587	        120.63225094	         62.79104870	         -0.06014262	          0.09424965	         -0.14691641	          0.18697016	         -0.03068166	         -0.02632961	         -0.19708604	          0.02079429	         -0.18931824	         -0.02579206	          1.26167193	         -0.12212817	         -0.12959202	          0.11838149	        -22.60369293	         15.22900738	         -7.78944810	         -8.73418459	         -0.08010848	         -0.58055739	         -5.33094383	         -0.29320278	          0.38236440	          0.04607919	          0.18460686	         -0.02462213	          0.00886460	
          4.90000000	         40.01812465	         74.14506356	         11.40472791	         11.57135898	         11.39034236	         12.62025776	         34.48565622	         59.37695096	         12.42112123	          6.93643180	         27.92789608	         70.70022929	        384.44159378	        698.61082521	         79.58747381	         61.61179513	         14.08076178	         75.98808861	         99.09060658	        159.81627360	         17.14376911	         38.36308566	         18.94694145	         31.57497181	        192.75563388	         44.03701851	         83.24226791	         20.72217380	        287.62971975	        481.51979148	         49.18094079	         56.78206367	         32.66570530	        484.92901882	         71.52299012	         57.39881861	        108.60400317	         16.60281605	         47.51293861	         24.62142638	         22.91994348	         39.60408673	         19.24527845	         32.11674014	          4.75777704	          7.14942952	         34.67244163	         28.61596920	        192.11068265	         58.56278542	         26.07581371	         42.33211116	         84.32969190	        209.26600510	         13.28582712	         19.05207829	         21.51120242	         54.77755653	         30.94394307	         27.52120909	         25.10073240	         27.66303296	         32.65213634	         14.66171124	        182.06107434	        223.81668877	        391.90135156	         23.53027958	        199.45756728	         92.96056381	         15.15435539	        145.69058385	         42.18285658	        343.16316229	         39.64740192	        413.61426159	        132.51345284	         59.58135393	        208.15633988	         91.14385102	         -0.09694708	          0.07788608	         -0.12304437	          0.18265631	          0.08048169	         -0.00021041	         -0.07013212	         -0.00619385	         -0.06050611	          0.04247844	          4.24343458	         -0.12498481	         -0.07215987	          0.06806406	         -5.23205925	          1.35461477	          1.99644415	         12.25528094	         -0.40208455	         -0.09892803	         19.60518314	         -0.48085073	          0.85287302	          4.85055282	          7.65935444	         -0.14694404	         -0.17495009	
          4.95000000	         71.17184388	        115.75482167	          8.92515978	          4.88428913	         13.11729648	         10.08118730	          2.96415466	         28.25572545	          0.92900758	          3.00256526	         33.80819064	        128.67006919	        157.06479627	        419.04071872	          4.81191056	          2.10620398	          5.87909646	         40.76147374	          7.42489954	         10.20483231	          9.71909560	          4.45501600	          0.16736977	         36.70819055	        214.05726498	         38.32989178	         58.18906665	          0.33909610	        267.05476399	        288.14498125	         14.96546635	          0.95169103	         27.56787298	        730.47693651	          7.44487213	         51.30256934	        414.99881987	          4.65645961	         15.42038858	          6.99731714	         22.90025233	         63.02465431	         12.71639719	          5.77034053	          0.68238359	          2.61808570	        127.39422414	         21.82136956	         38.58492208	          9.10858075	         18.70951752	         17.28517708	          1.73422863	          1.31907938	         16.81901720	         17.94998839	         32.06233104	         54.31818638	         26.52085550	         25.94499216	         24.98823034	         30.18632381	         37.36241298	         11.28816107	        158.93794371	         47.32517911	        230.12111901	          9.25288436	        174.14271394	         58.15139128	         13.94259267	        108.96184625	         15.80953332	          1.25142535	         37.16821132	         33.15142906	         51.25684837	         11.27081170	        145.65753567	         19.36820459	         -0.11873839	          0.02974643	         -0.10501185	          0.16259349	          0.11881577	         -0.03185959	          0.20018497	          0.00561519	         -0.05097565	          0.04625182	          4.53808310	         -0.10205806	         -0.06578183	          0.05436475	        -19.81283733	         19.04855545	          2.13409424	          1.33476745	          0.17243980	         -0.01848530	          4.36618255	         -3.65665413	         -0.71812291	          2.29202954	          3.05395958	         -0.07343007	         -0.08665633	
