ModelForces
version=1
nRows=25
nColumns=108
inDegrees=yes

This file contains the forces exerted on a model during a simulation.

A force is a generalized force, meaning that it can be either a force (N) or a torque (Nm).

Units are S.I. units (second, meters, Newtons, ...)
Angles are in degrees.

endheader 
time	addbrev_l	addlong_l	addmagDist_l	addmagIsch_l	addmagMid_l	addmagProx_l	bflh_l	bfsh_l	edl_l	ehl_l	fdl_l	fhl_l	gaslat_l	gasmed_l	glmax1_l	glmax2_l	glmax3_l	glmed1_l	glmed2_l	glmed3_l	glmin1_l	glmin2_l	glmin3_l	grac_l	iliacus_l	perbrev_l	perlong_l	piri_l	psoas_l	recfem_l	sart_l	semimem_l	semiten_l	soleus_l	tfl_l	tibant_l	tibpost_l	vasint_l	vaslat_l	vasmed_l	addbrev_r	addlong_r	addmagDist_r	addmagIsch_r	addmagMid_r	addmagProx_r	bflh_r	bfsh_r	edl_r	ehl_r	fdl_r	fhl_r	gaslat_r	gasmed_r	glmax1_r	glmax2_r	glmax3_r	glmed1_r	glmed2_r	glmed3_r	glmin1_r	glmin2_r	glmin3_r	grac_r	iliacus_r	perbrev_r	perlong_r	piri_r	psoas_r	recfem_r	sart_r	semimem_r	semiten_r	soleus_r	tfl_r	tibant_r	tibpost_r	vasint_r	vaslat_r	vasmed_r	hip_flexion_r	hip_flexion_l	hip_adduction_r	hip_adduction_l	hip_rotation_r	hip_rotation_l	knee_angle_r	knee_angle_l	ankle_angle_r	ankle_angle_l	subtalar_angle_r	subtalar_angle_l	mtp_angle_r	mtp_angle_l	lumbar_extension	lumbar_bending	lumbar_rotation	arm_flex_l	arm_add_l	arm_rot_l	arm_flex_r	arm_add_r	arm_rot_r	elbow_flex_l	elbow_flex_r	pro_sup_l	pro_sup_r	
          6.00000000	         19.61576300	         49.85303581	          7.96599675	          9.37577478	          5.94745755	         10.49989014	         29.16426326	         46.98070136	          9.87199501	         12.95671819	         43.73747132	        120.47270452	        301.01060852	        486.54245347	         12.06545617	         17.52163120	         11.97571099	         69.79880336	         27.50210360	         27.43428207	         28.80396753	         32.24077927	         30.47854266	         18.14692255	        199.13998597	         31.04850326	         60.20453409	         39.74726037	        281.83573960	        593.60268240	         30.07064871	         52.65280804	         28.24758629	        589.27688598	        109.95770829	        123.69606899	        498.09898826	         31.01765542	         51.68189842	         33.07668357	         22.03021937	         35.66153809	         19.67955901	         32.09367795	          8.81892560	          7.14835243	         83.82585436	         40.12906105	        265.08701147	        178.59789926	         13.74919350	         29.52022051	        168.15508784	        488.14764463	         50.99393608	         98.12046468	         31.15536257	        190.01053884	         60.03127829	         50.63868319	         35.53529957	         28.39675354	         21.30548183	         20.21815363	        168.28806880	         26.27342937	         59.95877155	         27.55627155	        219.16838908	         54.88071323	         17.28521319	        263.88009903	         49.33970459	        577.55110681	         56.38660348	        391.82331469	         66.78014640	         65.61889517	        221.34827491	         94.04329354	         -0.02305916	         -0.04977487	         -0.01730482	          0.01432988	         -0.01829105	         -0.05173574	          0.02139913	         -0.00018847	         -0.08989515	         -0.00082918	          0.05562033	          0.00702765	         -1.01337452	         -1.26327915	        -11.78485687	         27.14850402	          6.01170765	         -2.19455477	         -0.08427697	         -0.31639291	         -0.22354628	         -1.28052349	          0.07796966	          1.23283244	          0.07755884	         -0.03797172	          0.00353219	
          6.05133333	         16.04985614	         22.94827414	          8.04142826	          9.45424164	          5.96237690	          6.09403728	         31.31985151	         41.18620372	         11.48928126	          8.08431442	         51.26482764	        167.64800554	        231.44210035	        458.66955947	         13.50735989	         18.37585695	         12.53722653	        237.87837295	         80.78587002	         61.30477057	         45.20212874	         49.29495782	         48.22464921	         17.69448145	        201.25402144	         28.74944481	         59.51443947	         66.14485255	        255.71972828	        463.27153960	         31.06897169	         55.97059225	         29.43326944	        767.54363747	         74.46369227	        145.64395505	        495.53805210	         27.89657022	         50.64541662	         25.93534966	         21.82195704	         34.24681907	         16.83772905	         29.79568746	          7.79545965	          7.16671822	         77.31247567	         37.92311337	        258.26860403	        139.73113209	         14.07280523	         29.90461434	        165.97726478	        478.08768013	         46.60375666	        113.06336422	         26.77850400	        192.37168412	         62.84322323	         48.60410236	         34.45572249	         28.31264609	         20.85764050	         19.86772850	        164.18133225	         68.85731531	         55.99203145	         18.06624417	        214.99095222	         59.31814114	         16.65375835	        232.50923490	         45.44506764	        555.08438162	         25.65121993	        437.97095636	         68.15233429	         66.11166765	        208.97653781	         97.50264114	         -0.02290621	         -0.04911040	         -0.00373675	          0.00295323	         -0.01650918	         -0.05898786	          0.01558023	         -0.00238865	         -0.02431768	         -0.00510672	          0.04379045	          0.00137936	         -0.14329802	          0.15136731	         -0.53260352	         26.17045755	          6.18323357	         -5.84330140	          2.23385732	         -0.22262434	          1.16007343	         -1.16698443	         -0.24711730	          0.51791077	          1.08462256	         -0.02294400	         -0.04172369	
          6.10266666	         16.37301573	         22.94287011	          8.02176077	          9.43343043	          6.04034282	          6.65668009	         32.19293189	         38.97624163	         11.26225024	          9.42429000	         35.06456004	        110.17920169	        174.64754862	        370.31525512	         13.39440278	         18.30381508	         12.38422797	        214.42450162	         82.22984987	         70.84095416	         42.64398043	         45.45933555	         43.76229226	         18.00367104	        177.52200235	         29.58306803	         60.66339500	         66.55598942	        223.78966651	        353.07567876	         27.63710656	         57.85711653	         30.31709100	        550.93291575	         58.03341908	        126.10553185	        474.30268955	         37.99574958	         58.91543668	         45.56066437	         22.35429905	         34.96943118	         19.93844346	         26.97896588	         13.04706770	         10.34427705	         52.62535108	         37.12050356	        202.43770998	         97.21822182	         14.38306142	         29.57045303	        155.73847821	        443.76984634	         36.35781591	         64.19824557	         20.98845381	        105.48959528	         36.63575476	         37.66435057	         23.61701440	         20.98139533	         16.68710985	         21.30702784	        168.21596949	        110.82781667	         81.84104067	         21.91793640	        214.57999044	         85.73263826	         17.43605747	        117.25184275	         38.22078482	        494.69027376	         29.35415888	        480.54487633	         68.83489183	         62.07805103	        193.45777926	         88.13748437	          0.00994945	         -0.01284648	          0.00714805	         -0.00384623	         -0.01392238	         -0.01500958	          0.02483336	          0.03009030	          0.10468791	          0.02214157	          0.05917553	         -0.04583522	         -0.10310256	          0.03335331	        -10.76628430	         18.84435250	          2.90488775	         -2.69139859	          1.47042139	          0.08413216	          1.69304366	         -0.85253219	         -0.35328086	          0.38398148	          1.03613026	         -0.00234828	         -0.04669512	
          6.15400000	         17.34523295	         25.48279517	          7.98580109	          9.17553622	          6.29205739	          6.75264810	         31.93974933	         39.66780269	         10.78593420	          8.78248198	         54.29052989	        183.28682190	        228.14499447	        371.43019208	         12.59563153	         16.98871161	         11.87147748	        148.19685493	         56.72109181	         52.13790353	         39.90181921	         46.14955332	         41.41434757	         18.51499082	        254.26589379	         31.43375529	         63.25661756	         84.50252672	        341.75314019	        568.93123291	         38.47480192	         57.90516868	         30.63620535	        748.70960654	         93.04258505	        208.94066461	        518.95693264	         36.05816139	         52.85168152	         44.89300586	         22.91839024	         33.12608878	         19.72175267	         25.85921577	         13.05638804	         10.59976707	         52.91595204	         38.80213602	        159.67537981	         44.58884403	         15.47586328	         29.34638485	        137.98491358	        385.51167895	         32.39571408	         65.24485044	         21.31797663	        120.26844265	         38.05221972	         33.86107386	         27.96073049	         23.02733390	         18.23652915	         21.13449674	        171.88244675	         24.06707337	        207.81203957	         17.75334882	        216.70274235	         90.23644867	         17.69167527	        129.60714733	         38.70355517	        409.45434172	         25.57778181	        474.64887458	         70.37586675	         64.29816393	        159.40974240	         89.99866709	          0.01387031	          0.04429462	         -0.04027724	          0.03088189	         -0.00844337	          0.00487262	          0.00606654	          0.07016215	          0.13738668	          0.02808859	          0.09285783	         -0.06871520	         -0.06617462	          0.03826520	        -27.59355833	         28.09806894	          3.32816652	         -5.70252149	          1.16974626	         -0.24856440	          4.05004261	         -0.68067244	         -0.46243865	         -0.15233074	          1.79385922	          0.00478872	         -0.05470772	
          6.20533333	         21.03735999	         30.20664244	          8.68662568	          9.56761274	          7.62749418	          8.95874778	         31.87286185	         46.93896394	         11.07023386	          9.46140077	         40.97049986	        138.14346410	        213.86158549	        408.21022632	         23.44627515	         16.00192972	         11.71575205	        209.81849068	         91.48815594	         94.68041041	         39.94291349	         44.36177564	         35.89437527	         20.54064286	        182.28976545	         35.10214361	         68.73728298	         85.10806050	        221.81124658	        331.79395813	         30.71379679	         57.78977439	         31.53536576	        435.94153225	         72.17901025	        166.19153517	        526.73646015	         16.97025303	         45.54021231	         21.37735754	         24.96638979	         47.87872193	         20.17493112	         25.79980597	         13.58718755	         11.06570596	         40.65269223	         36.26864994	        146.72785104	         44.80911889	         16.19600420	         29.90210485	        126.57033841	        346.82052322	         23.18311840	         44.87393360	         18.41177548	        104.50375120	         33.03110542	         26.59377884	         28.54079096	         21.50953971	         17.00933494	         20.37115389	        174.42193802	        107.40179444	        123.97636089	         16.52155440	        218.08518338	         97.20572797	         17.24115200	         99.07816927	         36.04223671	        372.79780918	         30.37733759	        479.55781246	         73.25828448	         65.67945295	        205.05337552	         95.30628591	         -0.01679361	          0.06063809	         -0.06765604	          0.05774200	          0.00069676	          0.01123078	         -0.03295003	          0.08392491	          0.02969976	         -0.01039661	          0.07494682	         -0.11876591	         -0.08076227	         -0.01535309	        -12.34954055	         17.56790954	          1.15854247	         -4.59149071	          1.12583341	         -0.16466347	          0.70342214	         -1.94666286	         -0.24816751	          0.43169454	          0.64132624	         -0.01700917	         -0.01905748	
          6.25666666	         20.79603918	         31.95284739	          8.75131479	         11.42457209	          7.16460131	          7.21272672	         34.45456598	         45.31154751	         11.75527672	          8.68577034	         52.61419776	        198.41891183	        166.58100025	        382.13419347	         32.79714671	         49.29985309	         12.27629704	        197.59003237	         51.74139824	         43.41215026	         35.86119603	         29.00710478	         18.39428939	         20.87184486	        163.91225149	         40.68798167	         76.62877242	         13.23812369	        200.47310286	         46.29666923	         20.60161532	         67.48011099	         35.36920925	        409.03245802	         26.48175845	        221.20286344	        628.42239541	         28.24528147	         50.66028697	         30.05601588	         28.97768066	         53.00735730	         21.23342888	         24.68739407	         15.66997803	         13.81937372	         41.93008898	         35.76885080	        150.66592897	         46.14767765	         16.23826632	         30.39392078	        127.22343814	        346.99255809	         22.00745098	         32.73244674	         21.84891458	         71.81417006	         31.84458834	         28.39443409	         23.28434951	         19.76785185	         18.04282938	         20.65501016	        169.33762385	         58.38597794	        213.01365835	         20.76677194	        215.41884514	         95.17176253	         17.05057548	         86.68978981	         35.78850824	        385.52560207	         27.21870905	        507.58797571	         74.71508790	         60.38810618	        191.65696524	         86.57849119	         -0.03972228	          0.02272827	         -0.05177542	          0.04474990	         -0.02622498	          0.02470913	         -0.00955695	          0.07553280	         -0.04299268	          0.00819070	          0.00871849	         -0.17411591	         -0.10041481	         -0.02354249	         -0.23908974	         20.97516949	         -0.72895516	         -2.68272335	          0.47756686	         -0.28726799	          2.42118370	         -0.12942166	         -0.18624355	          1.12589833	          1.52961784	         -0.04358216	         -0.04091549	
          6.30799999	         21.31841087	         33.03342200	          8.59921389	          9.86908986	          7.03170666	          7.18731215	         33.34257767	         48.39825224	         12.32165957	          6.78654076	         67.85445020	        251.41305975	        294.39109140	        383.54124336	         34.18119252	         24.06487291	         12.10108634	        260.99507454	         92.38867512	         86.53852468	         43.95360829	         43.29158542	         34.14751555	         21.75578321	        171.57196752	         46.28368417	         83.79484103	         55.89369726	        208.91033928	        106.62729988	         25.99016705	         60.78701520	         32.86407072	        565.19240858	         58.44497890	        260.40663242	        695.71908046	         14.68604691	         43.32624741	         22.30918464	         29.31062593	         60.54096561	         18.24243170	         20.23357396	         14.27695180	         14.04278769	         31.09128102	         37.62717010	        153.72343681	         49.71004446	         16.19585066	         30.30822374	        128.10855158	        350.54469348	         18.77758859	         23.87320466	         16.72642211	         65.18178852	         31.18757377	         30.11530823	         23.09952601	         21.63196469	         20.67687494	         20.09050293	        169.47209650	         82.84692512	        188.85816085	         24.71196226	        221.63218814	        156.09487246	         18.87047858	         52.70521658	         31.12729966	        388.74811576	         31.86638957	        505.19363475	         74.83477870	         55.12646629	        159.71414991	         76.27525042	         -0.06957723	         -0.00245350	         -0.03420488	          0.01606249	         -0.02660562	          0.01566679	          0.00358860	          0.06224180	          0.01685030	          0.02393733	          0.01333232	         -0.22087304	         -0.11388230	          0.03883292	         -9.55580043	         20.85835810	         -3.01345746	         -3.51496623	          1.18092180	         -0.15756571	          3.18447844	         -0.01402127	         -0.20000395	          0.76931934	          1.75506457	         -0.02345893	         -0.04118248	
          6.35933332	         21.88788239	         34.01995665	          8.44625036	          9.46368505	          7.01659010	          7.87410769	         32.66859603	         55.33431656	         12.30558176	          7.72680867	         57.85416786	        218.40899185	        260.78217741	        466.59190235	         11.51162722	         16.18493305	         11.90502746	        212.35888223	         91.88653097	         98.96644672	         43.46599612	         54.49532642	         50.34924012	         22.30178420	        221.81516058	         50.36871978	         88.83635150	         96.21387413	        290.93961231	        405.96534926	         40.81158816	         59.19075204	         32.00818751	        315.86620035	         87.77522609	        198.75919466	        638.55122196	         14.49885341	         42.96291448	         21.77604932	         21.12584497	         38.21391572	         19.50747579	         24.89647997	         12.29764975	         10.37045999	         37.28301818	         36.52481452	        139.35475077	         43.00167997	         16.93235496	         30.59769876	        119.64295892	        324.86781883	         22.40970405	         30.43368847	         18.92787909	         98.53021747	         38.10177358	         33.23271407	         25.85194401	         24.76626224	         24.51498077	         18.24993266	        150.77275670	         65.92440169	        187.91205223	         26.09922062	        196.62938512	         97.02312360	         17.62465266	         72.44913669	         35.69359244	        356.97343212	         29.02675664	        484.80592666	         77.46201118	         60.82347002	        190.69874711	         86.20633199	         -0.10192107	          0.01262528	         -0.04290081	          0.01228056	         -0.04517632	         -0.01365690	         -0.02424311	          0.05526305	          0.08360291	         -0.00788309	          0.09723477	         -0.28207837	         -0.11829455	          0.01416933	        -19.56191004	         14.01188799	          1.66357965	         -2.36322351	          0.98353480	          0.07794310	         -1.90943694	         -2.37873670	         -0.06816013	          0.63556005	         -0.19116043	         -0.01956824	          0.00202345	
          6.41066666	         23.36384639	         36.99586753	          8.44645461	          9.25745486	          7.22792034	          7.96546733	         31.44979733	         56.19457858	         12.01756382	         10.27785041	         42.44611017	        184.19813196	        179.61820187	        393.92358052	         10.87157997	         15.31185780	         11.62898173	        166.97659173	         61.48903243	         62.61155165	         41.18805760	         51.03133622	         43.50226435	         22.81496449	        266.68106830	         54.13853828	         93.81497428	         92.01413476	        356.25805826	        475.20893495	         46.33604412	         56.54975738	         31.36377033	        324.72952625	         97.69465232	        220.64766407	        646.02936922	         13.51595034	         42.53695656	         21.37192518	         23.78611986	         39.31422744	         21.96520250	         28.29962077	         13.24657249	         10.96295853	         44.83811465	         34.44276705	        131.28133410	         38.97220945	         16.92569142	         30.51502797	        112.81923205	        302.89048929	         21.28233811	         31.63502960	         21.85931203	         86.92586979	         33.99530972	         31.21979896	         24.92785450	         23.27124642	         23.65534155	         18.32478920	        138.68172218	         57.77876480	        153.08491871	         28.20547180	        182.22214505	         96.41438958	         16.24218094	        106.77328835	         38.04887013	        341.96533825	         25.31542885	        471.15066368	         78.21197186	         70.55991165	        246.73949921	        108.09045705	         -0.05244834	          0.04226754	         -0.03909896	          0.02396230	         -0.02431365	         -0.03176319	         -0.03099736	          0.05695751	          0.00554412	         -0.03831192	          0.01242413	         -0.39271274	         -0.11041497	         -0.02242889	        -23.11470285	          7.20406586	          7.39901862	         -3.39703348	          1.75296914	          0.24246240	         -0.97470733	         -3.05822485	         -0.21365740	          0.37635755	         -0.12880562	         -0.01602839	         -0.01391225	
          6.46199999	         26.49333560	         69.47858293	          8.43819978	          9.25991267	          7.38822872	         10.49548517	         30.83608812	         44.96302357	         11.97018045	          4.94892417	         87.45889912	        313.52091983	        144.18381368	        399.75069319	         11.54156667	         15.56778215	         11.66120094	        111.77755923	         30.43570796	         21.17323050	         32.73160167	         30.50027569	         21.18603242	         23.20562054	        207.86051205	         58.07807141	         98.94806444	         21.88086986	        271.47488212	        291.11413419	         28.49523000	         55.16216342	         30.79095304	        339.49532871	         43.97205133	        188.02828681	        787.48243506	         23.95176054	         45.25396463	         21.41535603	         48.73602858	        101.91787685	         27.39022945	         29.34253907	         20.38088847	         18.31758794	         39.44203376	         35.45025501	        104.68847001	         32.33470913	         16.21608026	         30.53987425	        111.50676087	        300.22604851	         13.22656531	         18.98311500	         21.19798079	         44.52999276	         26.96305707	         27.44061043	         20.21513889	         19.19618866	         20.39915865	         22.02196246	        152.46125871	         42.46342792	         75.81493810	         24.90647630	        203.12846488	        104.03011392	         17.35150778	         69.53446457	         35.80429298	        343.83334057	         24.05251798	        397.97893881	         75.04892530	         68.82161746	        232.31155598	        102.37409121	          0.01188700	          0.00958407	          0.00935099	          0.00010449	         -0.00357081	         -0.01241669	         -0.00476654	          0.02958256	         -0.01683257	         -0.02319899	         -0.06105595	         -0.54558692	         -0.05533560	          0.00161694	        -24.57105886	         13.59824416	          1.14167179	         -4.90316967	          1.47149774	         -0.15890021	          0.81642022	         -1.19469748	         -0.16116874	          0.35068873	          0.80965252	         -0.01713292	         -0.02682410	
          6.51333332	         32.50531932	        150.11896349	          8.13302294	          9.03685698	          6.65319747	         13.66873291	         30.02004475	         40.58946141	         11.32641037	         26.38896226	         53.80923006	        196.59762558	        140.13762603	        405.71346099	         10.97557556	         15.73083358	         11.44310356	         38.30388735	         16.18173351	         16.44942258	         36.32740155	         45.19356365	         38.95209568	         22.87459034	        300.11695887	         60.24307476	        101.79245252	         57.16561778	        425.77545127	        693.19974130	         45.71188996	         53.93566033	         30.17146676	        349.77612886	        107.36806708	        393.41758623	        600.28497251	         44.68713593	         78.39068174	         61.49366950	         14.47524575	         24.03673593	         19.17215769	         33.60955694	          8.19478884	          6.13190738	        103.27882954	         38.90347887	         44.99692706	         16.83391154	         21.81191664	         31.81283219	        111.78192325	        301.89111427	         43.82952727	         93.32298707	         26.00633991	        153.43101420	         46.83555085	         37.29739689	         28.69816442	         23.72950780	         21.70217598	         16.25455070	        123.57480908	         22.33129391	         41.10883588	         17.73993228	        170.35298589	         12.90966292	         13.52328994	        300.08456531	         56.82436172	        336.36304619	         13.27445542	        191.05528324	         76.73925316	         44.60934611	        100.49318609	         54.91536982	          0.02552514	         -0.00647651	          0.03741192	         -0.03018551	          0.03406291	          0.00060162	          0.03502017	          0.02106755	          0.01276686	         -0.02428094	         -0.07709820	         -0.61734523	          0.03485440	         -0.03978253	        -21.07521787	          3.29125984	          9.10974395	         -7.03086780	          2.48847593	         -0.05262378	          2.38419108	         -1.61187239	         -0.39753060	         -0.76635358	          1.03731690	          0.01505749	         -0.04587602	
          6.56466665	         21.53085342	         42.39622162	          8.14894355	          9.07847735	          6.67878561	          7.91480986	         30.37601664	         46.07102758	         51.44919852	         25.78314703	         34.65655878	         86.99462638	        139.15161906	        403.67426360	         13.94427320	         16.68386047	         11.72251485	        226.48067254	        108.54573857	        118.13066489	         44.12122236	         57.37594511	         59.70230186	         21.99025908	        201.23188781	         59.47733426	        100.91298943	        124.71404817	        260.58929033	        502.08081798	         35.07367545	         54.25601629	         29.98416756	        350.99225194	         87.75054210	        339.51008821	        333.11443964	         26.86413189	         54.79130986	         27.96138326	         14.80395419	         20.91952848	          7.68117443	          8.92506131	          5.64012098	          5.88422085	         29.55096296	         43.94019541	         65.92229973	         19.69562446	         17.22863663	         28.48187316	        116.58557328	        317.79069504	         14.48696635	         19.36290427	         11.84106918	        421.33242352	        148.24672205	        123.80362708	         67.80648699	         67.61404597	         59.52791071	         16.06443151	        212.98073863	         25.25902229	         48.48562662	        122.16265059	        223.83133045	        679.66014150	         34.42976378	         68.23549635	         28.24250211	        341.22218969	        145.54386573	        195.91960774	         60.43622340	         22.16567452	         51.49447367	         28.70296272	          0.02661056	         -0.01923691	          0.03920701	         -0.01877266	          0.01838670	         -0.02731788	          0.05715157	          0.01537871	         -0.03864511	          0.00785892	         -0.13147666	         -0.54578696	          0.03408058	         -0.04157930	        -42.55234172	         15.10140647	         -3.91289445	         -3.11832475	         -1.23204449	         -0.50277240	         -1.20337417	          0.19207207	          0.16143545	          1.09346357	          0.33920660	         -0.03152862	         -0.00180649	
          6.61599998	         20.62588312	         31.56889952	          8.88612006	         10.30129345	          6.96281134	          7.66645236	         32.57741706	         43.60509776	         45.12435751	         23.67622404	         28.73254147	         71.42021169	        135.18568954	        391.29111001	         48.35756914	         44.87632714	         12.79316354	        272.26404124	        126.62552772	        140.62295034	         42.21719362	         49.87464049	         51.26760071	         21.51892854	        164.17755016	         56.00131450	         96.29200888	        110.18978485	        206.48845650	        199.54967911	         26.03393642	         56.93330125	         31.92118086	        346.61150097	         58.33658447	        318.22754624	        226.03915698	         36.58894887	         67.44955748	         41.18313491	         15.28130665	         21.66893609	          7.80628247	          9.09223441	          5.77779205	          5.95441824	         30.72838747	         39.15722595	         56.08427210	         21.85020114	         26.33521095	         47.75284882	        125.85315835	        348.84665165	         12.36029542	         17.88660004	         12.07450013	        399.25154282	        134.33863282	        110.85942763	         71.43929160	         74.30589765	         66.58845291	         16.72883835	        259.77141739	         25.96781857	         54.15118585	        102.37138581	        304.86032498	        686.46151341	         41.41463884	         54.83710665	         29.08185373	        362.50303211	        114.96859609	        286.11208341	        201.04889021	         39.95345529	         85.57533877	         49.89839745	          0.00194916	         -0.03923679	          0.02723266	         -0.01086891	          0.00552880	         -0.04371805	          0.04116332	         -0.00806881	         -0.05823767	          0.00804867	         -0.12584506	         -0.33935545	          0.01206302	         -0.02834796	        -28.79055326	          5.69556423	         -6.39853005	         -1.88493411	         -0.70475475	         -0.22456777	         -0.57509084	          0.38939202	          0.13089457	          1.22274064	          0.34914242	         -0.03572589	          0.00018072	
          6.66733332	         20.52839048	         30.04400868	          8.63622320	          9.79280380	          6.75281640	          7.41322410	         32.52593732	         41.33012741	         64.00565615	         28.46279882	         30.99308178	         66.05033986	        129.42687748	        372.96605164	         22.37286900	         25.17103253	         12.77624816	        159.84907819	         73.48960344	         80.47174301	         32.89490307	         38.69168007	         38.98312740	         21.03318517	        177.40372149	         50.47728388	         89.28337400	         84.39854596	        234.67930232	        321.77911821	         26.53737969	         56.83960728	         31.20342923	        338.46723705	         51.74001256	        366.68156789	        237.11593354	         43.16545981	         83.28692772	         52.98950800	         15.72804966	         22.45607223	          7.86711278	          9.19633735	          5.87286086	          5.99334015	         31.29521025	         40.74338718	         77.13732467	         27.94356952	         26.22426329	         46.25073728	        135.61815142	        382.26476193	         32.53008880	         22.81057652	         12.03848808	        367.85943545	        147.94683175	        143.28808378	         59.76799980	         62.03434057	         56.27030385	         17.26134101	        169.14017578	         30.36895784	         62.62540012	        106.82975273	        189.75026738	        381.84453126	         29.13511187	         56.33727918	         29.82895653	        388.13766766	         78.01270635	        323.43596464	        166.70147026	         42.96247032	         90.23522100	         54.69010724	          0.00398039	         -0.03663755	          0.01965258	         -0.00631259	          0.03221406	         -0.03307774	          0.03214144	         -0.02106219	         -0.05348785	          0.01820864	         -0.13471641	         -0.14931752	         -0.01477490	         -0.02706011	        -20.80699236	          5.13697852	         -0.55386347	         -4.23727113	         -0.09609472	         -0.50384907	         -1.81209864	         -0.89811965	          0.09707972	          0.53725379	          0.28113275	         -0.02888471	         -0.00219537	
          6.71866665	         19.81802689	         28.86867355	          8.63615339	          9.89294050	          6.76111613	          8.08755174	         33.27456838	         39.15339543	         60.47639031	         27.82073036	         28.08576155	         57.00094429	        124.74478278	        357.93257227	         16.45729936	         20.51136720	         13.07815267	        134.72143439	         57.02871353	         57.46738847	         31.13218011	         36.09882408	         34.99435716	         20.78182513	        188.20875946	         46.28556080	         84.05608072	         69.99881653	        254.85381341	        408.49399068	         27.67948896	         57.53984223	         31.07042978	        338.23977452	         56.28682083	        373.63956539	        228.54948361	         47.73511825	         94.62413482	         62.35984949	         15.90270136	         22.72447698	          7.89356279	          9.23687677	          5.89377121	          6.02704538	         31.49693989	         40.80031511	         82.42509775	         31.50746356	         30.40832445	         58.34409790	        142.58230850	        407.06512398	         38.32447446	         30.71882957	         12.14044978	        396.05032953	        159.74029637	        155.16957570	         61.96003455	         67.10845148	         64.74857860	         17.52952024	        177.56998162	         34.19936090	         69.04737389	        111.85513914	        194.03223426	        399.58774201	         30.40620598	         56.63266665	         30.14245133	        410.73810363	         89.49571568	        336.59840870	        256.24647335	         43.97918476	         96.02525494	         53.67609943	         -0.00111283	         -0.03306272	          0.00994500	          0.00333654	          0.00015870	         -0.03608978	          0.00477458	         -0.03628394	         -0.03856428	         -0.00802135	         -0.07454626	         -0.08678811	         -0.00599725	         -0.01537896	        -26.20179270	          6.15449049	          0.12174430	         -4.51146495	          0.03430084	         -0.41097028	         -0.90704470	         -0.48755354	          0.01121101	          0.37451619	          0.74807566	         -0.01766379	         -0.01971599	
          6.76999998	         20.04408712	         28.71953583	          8.74162156	          9.81732332	          6.98710388	          7.48394098	         34.08813429	         40.02416842	         99.21861338	         31.33735300	         21.40665841	         33.79624144	        125.45892388	        359.52175294	         24.89357613	         25.37980404	         13.46604431	        187.15700512	         89.16787681	         94.76931711	         33.33673648	         40.70402472	         42.22884993	         20.78073324	        173.44557079	         43.99795611	         80.97258375	        106.66723118	        227.16017345	        384.92072221	         27.34086473	         57.68914710	         31.27376401	        356.43374126	         59.59958884	        366.01317569	         80.07928986	         45.90734232	         91.92375462	         57.30533380	         15.74664965	         22.46844559	          7.81633854	          9.19991570	          5.77968561	          5.89997155	         31.02757885	         40.75857086	         84.54420596	         31.11293874	         30.46684976	         50.79687055	        146.41855625	        420.57294286	         49.41250225	         48.42491667	         12.06610281	        390.30253163	        167.09893031	        166.82487342	         58.96855122	         65.82985702	         67.84103791	         17.52928079	        160.80155852	         34.99220667	         70.51244474	        133.25592230	        180.60613728	        354.00622957	         28.11117175	         55.78329989	         30.03032925	        431.29518658	         81.43154484	        328.98529109	        216.92536799	         44.08498075	         94.92045699	         52.41449688	         -0.00148191	         -0.01940399	         -0.00515040	          0.01567730	          0.00278920	         -0.06091808	         -0.01313842	         -0.02521942	         -0.03398713	         -0.04517476	         -0.00663171	         -0.04473620	         -0.00496307	         -0.02830990	        -16.06535741	         -3.06038624	          2.64327507	         -5.73393765	          1.24233438	         -0.32922146	         -0.14331282	         -0.53218631	         -0.01641316	         -0.26314379	          0.73293269	         -0.00519064	         -0.01431349	
          6.82133331	         21.24169745	         29.68034558	         16.84552008	         21.51635166	         12.45277451	         11.13469462	         41.47360739	         37.52575835	         83.94033049	         34.77807865	         31.05354365	         48.76925526	        128.68925198	        369.72138573	         31.51053343	         43.93900702	         16.85668330	         98.66425958	         41.22749256	         41.90262829	         21.24230882	         20.85657234	         18.19985750	         21.90216483	        140.57470856	         42.27323441	         79.69869195	         26.77683536	        192.49097004	         63.48932964	         17.46719399	         79.35934931	         36.71801641	        372.77705373	         16.92937965	        392.00122352	        279.69221511	         55.93883584	        164.08551088	         82.57250607	         15.78953938	         22.30007740	          7.66174290	          8.97256660	          5.61860246	          6.31368954	         29.72843786	         37.36785863	        100.46575475	         41.98941699	         39.69664103	         65.69016087	        149.68510773	        431.13780397	         19.58310474	         18.79399625	         11.57654279	        169.86403442	         76.25487427	         80.52868190	         38.75859208	         44.20197470	         43.65603819	         17.69121229	        183.09367874	         35.02982603	         70.83804830	         78.40350179	        234.95669475	        438.01315095	         27.50773250	         54.05052517	         29.42321184	        447.50593584	         65.80777912	        370.60606118	        371.80739863	         55.24399924	        158.68722255	         79.83075185	          0.01572118	          0.00372734	         -0.01895627	          0.02071247	          0.03414716	         -0.03858257	          0.00501671	          0.00378034	         -0.02544599	         -0.02098081	         -0.02280916	         -0.05836664	         -0.00441166	         -0.01234601	        -16.23340743	         -0.34878861	         -1.05158340	         -4.14451660	         -0.44562654	         -0.55547824	         -0.17616367	          0.40572250	          0.06685862	          0.53044050	          0.68336800	         -0.02761129	         -0.01215654	
          6.87266664	         24.33204271	         31.27305425	         19.78945569	         24.03160411	         14.93110266	         12.71367373	         52.91053309	         37.78324514	         67.62105131	         29.96103162	         34.22605322	         74.32361184	        132.03829074	        379.99663534	         30.81036456	         42.58716678	         22.11767374	        101.36608575	         41.42351686	         41.05143623	         21.11048495	         20.39581511	         18.06897555	         22.85516814	        140.80610917	         42.16793625	         79.76854509	         29.21773179	        194.00943504	         58.79196844	         17.20375686	        105.54402593	         39.20961770	        383.71274188	         22.48212367	        367.43137875	        285.54507438	         53.41548270	        166.07183334	         79.91976010	         16.34679713	         23.11688458	          7.44243836	          8.66605103	          5.42565598	          7.56853027	         28.23030596	         37.48040143	         96.90775168	         41.67303441	         45.28017863	         91.10055126	        153.08649811	        441.97490955	         13.20598037	         17.18866997	         11.15008814	        122.58827769	         57.80459419	         61.08292564	         34.70572612	         42.06669593	         42.90741858	         17.54424542	        208.24311105	         35.21184768	         71.32330550	         77.55918208	        279.65037933	        544.79786528	         30.78645580	         51.73984933	         28.57995726	        461.00024386	         77.67411359	        364.72046166	        417.05076109	         54.64898984	        159.83090512	         79.54137074	          0.02354092	          0.02077487	         -0.01894689	          0.01992928	          0.02350592	         -0.01151511	          0.00408121	          0.01033359	         -0.02621028	         -0.01818069	         -0.01887123	         -0.06623570	          0.00704838	          0.00560915	        -22.09375899	         -0.99824282	         -2.25087437	         -2.89159376	         -0.93884174	         -0.46294681	         -0.19140262	         -0.38998553	         -0.01306690	          1.01699438	          0.65757656	         -0.03846929	         -0.01481332	
          6.92399998	         23.97777786	         32.76331572	         11.83863614	         13.34445414	         10.68331477	         12.49271905	         36.72196137	         37.58906814	         77.94580397	         31.98742720	         30.96292169	         59.12453300	        134.85529820	        388.88091191	         24.10313706	         24.31838446	         15.26193861	         88.63387357	         41.78653006	         46.18623672	         21.43184707	         22.99564999	         20.97271838	         22.85022863	        158.11852234	         42.54253570	         80.42789253	         44.11641915	        216.96093239	        213.45544801	         20.30194052	         59.80676960	         33.41227586	        390.75067197	         30.73674602	        355.27974904	        252.43442468	         53.16027772	        159.59594049	         79.91386715	         15.67504060	         22.37145426	          7.32154944	          8.48404651	          5.37848964	          6.63443566	         26.93402569	         38.50133372	        103.00541040	         39.97512992	         34.36340861	         50.61581368	        155.72498998	        450.07846540	         19.66365252	         17.30507075	         10.80476337	        188.36334623	         93.09552039	        106.01940879	         39.88803183	         49.85356414	         53.76344006	         17.23315858	        190.49068525	         34.76690441	         70.79233225	        111.50516688	        243.42508644	        528.25335625	         29.98057878	         49.72254330	         27.80826087	        470.87701215	         82.45632704	        333.69168968	        308.62689350	         49.27464200	        127.91959381	         66.16781800	          0.02415177	          0.01933366	         -0.01798250	          0.02044003	          0.02760404	          0.00233728	          0.00543777	          0.01260983	         -0.01883233	         -0.00968754	         -0.00211465	         -0.07636206	          0.00731285	          0.00571363	        -28.46250035	          3.88828190	          0.10006332	         -3.89566860	         -0.40837228	         -0.53041222	         -0.31284323	         -0.41941895	          0.08119149	          0.55866326	          0.71195315	         -0.02997623	         -0.00971937	
          6.97533331	         22.94777046	         34.66891852	          9.53932043	         11.13360816	          7.87174556	          9.14980069	         36.18555677	         38.88093692	         67.55913288	         26.74180049	         27.09224878	         50.17835473	        137.02913950	        395.81208191	         27.56306366	         27.10092418	         14.65944689	        116.63464531	         58.13209885	         65.37145199	         24.70816866	         28.38277259	         26.78395824	         22.81628598	        164.12649487	         43.88554628	         82.05141761	         66.26267419	        222.87623210	        276.39864554	         22.78962594	         59.73614024	         33.28657185	        393.89195083	         40.35022666	        308.95890566	        183.69240843	         48.57990333	        122.90695151	         70.16458712	         15.28336862	         22.53136320	          7.16097315	          8.30280940	          5.21471479	          6.62536738	         25.89074572	         40.66043775	         95.93275208	         36.23067401	         32.22028223	         48.65843773	        158.35715815	        457.21328217	         21.24836248	         16.59467122	         10.40943203	        227.25823875	        112.44088217	        128.20876000	         44.86779238	         57.57705512	         62.35045769	         16.96249409	        201.35328619	         34.05247865	         69.79580683	        128.18561216	        253.24215910	        566.22938985	         33.09912882	         48.36685491	         27.19259974	        476.18781838	         96.91108041	        308.65060389	        240.74641913	         43.53431075	         97.75102963	         53.88088402	          0.02476128	          0.01133767	         -0.01567528	          0.02011917	          0.04408889	         -0.00558742	          0.01812848	          0.01693654	         -0.01452856	         -0.00486726	         -0.00058645	         -0.10136239	          0.01233525	          0.01471083	        -30.15065611	          5.46055655	          0.57238409	         -3.54414435	         -0.34274245	         -0.43524452	          1.30236974	          0.55210272	         -0.08772817	          0.66095705	          1.05427765	         -0.02563389	         -0.02598231	
          7.02666664	         23.97754442	         36.79678655	         11.37217275	         14.76028929	          8.65415598	          9.56169034	         38.34840715	         39.21625665	         37.07905558	         19.05101581	         29.46737341	         74.08601655	        139.42380979	        403.00930465	         39.93511474	         50.72940504	         15.50993345	        112.35658595	         55.02637366	         64.93610937	         22.08962605	         24.02815001	         22.04921113	         23.58419331	        149.38414769	         44.91825887	         83.09248011	         51.80705918	        206.02671206	         96.86805935	         19.71769725	         67.41989474	         34.57134471	        397.18546194	         25.49081211	        242.68973410	        241.45637844	         44.69332506	        119.74574196	         64.35635764	         15.22572844	         22.23304446	          7.01622344	          8.12545342	          5.01813874	          6.31021889	         24.74080489	         39.90260975	         78.85777893	         31.17064634	         34.10284530	         61.91589075	        160.12388737	        461.72049601	         17.53662615	         16.71919216	         10.12416708	        149.77972766	         84.01040607	        102.18128015	         36.24024866	         47.68112640	         52.34730658	         16.75958709	        197.48018277	         32.70679167	         67.76043197	         95.08697882	        255.00704676	        513.37093097	         30.25780017	         46.55667790	         26.54676862	        479.93632999	         77.94894126	        290.71804209	        290.45648751	         42.81761810	         98.42026914	         52.76699577	          0.01984189	          0.01906782	         -0.02368216	          0.02274752	          0.02998827	         -0.00128249	          0.00372442	          0.01795860	         -0.01394261	         -0.00731436	          0.02197403	         -0.08927061	          0.01992704	          0.03135519	        -20.28614145	          4.56900540	         -1.16217065	         -3.30562592	         -0.29351569	         -0.42596173	          0.42415339	         -0.27189794	         -0.09363951	          0.75671388	          0.85057480	         -0.03098328	         -0.02415030	
          7.07799997	         25.43234758	         38.93824199	          9.90237071	         12.26167833	          8.08837794	          8.56666428	         36.60082036	         40.37117936	         44.44587843	         19.78472556	         26.74371903	         56.22137893	        142.03539478	        410.83095224	         42.98123337	         53.89546141	         14.73224878	        118.05553471	         62.74657210	         74.18794723	         23.36944973	         26.59662949	         24.21561526	         24.05416735	        155.38801362	         45.52937184	         84.01820296	         62.13756668	        212.82386357	        143.32309711	         21.35177536	         60.43782994	         33.69871745	        400.83804763	         31.96750738	        227.16723162	        175.92595699	         42.66927995	        102.94395281	         59.26793794	         15.24912576	         22.39424434	          6.94051009	          7.93847320	          5.07757519	          6.35838632	         23.39523610	         40.87691705	         85.11375763	         33.94079352	         32.63674809	         49.98235699	        161.38371694	        464.62990803	         21.41616803	         17.67202541	          9.70514351	        185.89611947	         93.20214694	        106.02089227	         39.32805321	         49.51659691	         54.32938384	         16.60053230	        197.59427432	         31.71659107	         66.24607995	        100.55342349	        243.72447774	        481.65519354	         29.40429228	         44.39277941	         25.79179245	        483.61828379	         81.83852841	        292.57184343	        192.39741930	         43.00365150	         92.17234683	         52.51005242	          0.03115497	          0.03117042	         -0.02154685	          0.02220410	          0.03000404	          0.03017613	          0.00869470	          0.02009567	         -0.01588608	         -0.00707501	          0.00477943	         -0.10305748	          0.01224703	          0.01657617	        -19.18798487	          7.22714674	         -1.45837197	         -4.74223657	          0.54263674	         -0.46712221	          1.53046311	          0.38750573	         -0.21703490	          0.09942411	          1.28758125	         -0.01237291	         -0.03977998	
          7.12933330	         30.22362177	         54.93567509	         10.66820483	         11.11933160	         10.73209446	         16.22132454	         33.54877183	         38.58901581	         11.31905333	         12.59372983	         28.78407236	         75.43081937	        145.75643968	        421.40148773	         21.48979886	         17.97164606	         14.31593854	         48.88626092	         35.24192952	         48.68491465	         17.19919895	         21.43373971	         20.15739759	         25.67786121	        175.13973438	         46.20560773	         85.21103831	         51.29471089	        245.82195297	        278.77207842	         22.24603855	         54.02587644	         32.72121856	        405.25212170	         33.64300713	        164.51339302	        266.55857424	         40.78430520	         98.56188373	         58.62817557	         15.42007047	         22.20240510	          6.91886905	          7.86071039	          5.04814231	          6.08357051	         22.54263780	         40.62709549	         47.34170551	         19.94437624	         31.12139395	         63.12571299	        164.07994892	        472.25858179	         13.69134151	         16.26690510	          9.41526986	        114.39242425	         63.38441371	         73.80585789	         32.51588581	         41.42141083	         45.07547852	         16.17234011	        207.54009020	         31.87182928	         66.55048734	         82.57543076	        265.48022847	        511.09776952	         29.08724050	         42.95601420	         25.23077099	        489.51943290	         78.77659089	        217.69132228	        375.00824058	         37.11050157	         74.92693287	         43.12639817	          0.02888358	          0.03137507	         -0.01672443	          0.01434576	          0.02104943	          0.04301811	          0.01720635	          0.02765639	         -0.02497491	         -0.01248289	         -0.02093872	         -0.11336773	          0.04230177	          0.03759388	        -35.82537000	          7.28455015	          0.64842343	         -2.66794825	          0.18479607	         -0.22655078	          2.91252489	          0.13141868	         -0.39214952	          1.04309639	          1.68982071	         -0.03509856	         -0.05309722	
          7.18066664	         32.52431989	         44.68259895	         21.89869616	         26.76572543	         17.27900537	         15.22934554	         64.37372425	         42.30452819	         10.61858571	          7.21499650	         45.64655945	        163.77389403	        168.61346180	        437.68308178	         26.35130812	         36.40547238	         18.36166443	        103.10818357	         32.91394642	         29.18832407	         22.52201749	         16.99888286	         13.01171156	         27.09443767	        163.77046210	         47.01265295	         87.07271597	         15.01912542	        219.42475696	         37.89204651	         17.83150400	        154.75927084	         44.66347470	        456.28236959	         13.62110087	        102.42450910	        416.62425508	         41.44161952	         93.54800646	         57.36855128	         29.93404155	        105.42592927	          7.05165290	          7.62849736	          7.28892840	         15.89697840	         22.01470213	         43.36079111	         22.97199872	         24.97045572	         59.39464327	        184.82700237	        168.48249039	        486.69462506	         10.99273517	         15.40425813	          9.15147966	         36.61865507	         23.89076496	         21.82496805	         29.26794858	         31.20324664	         28.57507941	         17.50414687	        235.36946151	         33.23502650	         69.38171872	         30.12842818	        315.20748621	        584.50655440	         30.65043812	         42.38051324	         24.60100777	        508.36792874	         65.26732195	        264.91257678	        508.97882340	         43.64754224	         67.28856324	         52.64764040	          0.01730087	          0.02177196	         -0.02698473	          0.02586718	          0.02000620	          0.03233348	          0.01176019	          0.01925016	         -0.04301122	         -0.01479978	         -0.04407766	         -0.12920013	          0.03935506	          0.05981053	        -31.18972667	          4.53316414	         -4.70056146	         -2.70690824	          0.00665886	         -0.20730441	          1.65981123	         -0.15977861	         -0.32984482	          0.94477466	          1.37563172	         -0.02425717	         -0.04787513	
          7.23199997	         25.67254872	         39.01345166	          5.80009775	          4.44621153	          5.68285361	          5.77693583	         22.24018882	         27.05884753	          2.66528215	          2.73896037	         26.21988283	         89.87805652	        150.68721015	        377.33903099	         25.97300128	         38.76948063	         17.15110557	         75.72036990	         26.69087316	         31.89674019	         10.27831893	         10.32805211	          4.66876177	         24.21062401	        150.00587480	         40.21040111	         72.59635091	         20.53628788	        215.77579225	        167.69141951	         12.57823507	         35.19424846	         26.19714675	        333.41865770	         22.63352497	          3.58508724	        285.68416708	          8.47942870	         54.60993017	         14.29919860	         11.16544318	         13.96061908	          4.38949078	          2.73164560	          2.52169168	          3.02218525	         10.75049883	         26.73708278	          6.26935886	          5.59174984	         25.20477510	         66.79008829	        149.34648618	        394.75906509	         24.52789933	         36.76400562	         11.67671285	        124.28480894	         35.64186892	         42.14153389	         21.79521113	         21.95207589	         17.13025044	         13.40016984	        172.89085947	         26.49961562	         46.55836628	         53.68815690	        201.76890527	        204.53566111	         14.10790998	         16.24983555	         18.60787537	        213.10990129	         34.69920432	         95.47973524	        303.85989443	         10.33713484	        129.06160340	         16.95868547	          0.01872549	          0.01527365	         -0.03092432	          0.03531816	          0.01478395	          0.01610499	          0.00033088	          0.00261348	         -0.02867914	          0.00865517	         -0.02619036	         -0.11553211	          0.00238796	          0.02541854	        -17.24629374	          8.44906212	         -0.29234662	         -3.04066655	          0.40341900	         -0.30715735	          0.88447687	         -0.17187528	         -0.10906738	          0.46693628	          0.84998440	         -0.01993485	         -0.02253906	
