ModelForces
version=1
nRows=20
nColumns=108
inDegrees=yes

This file contains the forces exerted on a model during a simulation.

A force is a generalized force, meaning that it can be either a force (N) or a torque (Nm).

Units are S.I. units (second, meters, Newtons, ...)
Angles are in degrees.

endheader 
time	addbrev_l	addlong_l	addmagDist_l	addmagIsch_l	addmagMid_l	addmagProx_l	bflh_l	bfsh_l	edl_l	ehl_l	fdl_l	fhl_l	gaslat_l	gasmed_l	glmax1_l	glmax2_l	glmax3_l	glmed1_l	glmed2_l	glmed3_l	glmin1_l	glmin2_l	glmin3_l	grac_l	iliacus_l	perbrev_l	perlong_l	piri_l	psoas_l	recfem_l	sart_l	semimem_l	semiten_l	soleus_l	tfl_l	tibant_l	tibpost_l	vasint_l	vaslat_l	vasmed_l	addbrev_r	addlong_r	addmagDist_r	addmagIsch_r	addmagMid_r	addmagProx_r	bflh_r	bfsh_r	edl_r	ehl_r	fdl_r	fhl_r	gaslat_r	gasmed_r	glmax1_r	glmax2_r	glmax3_r	glmed1_r	glmed2_r	glmed3_r	glmin1_r	glmin2_r	glmin3_r	grac_r	iliacus_r	perbrev_r	perlong_r	piri_r	psoas_r	recfem_r	sart_r	semimem_r	semiten_r	soleus_r	tfl_r	tibant_r	tibpost_r	vasint_r	vaslat_r	vasmed_r	hip_flexion_r	hip_flexion_l	hip_adduction_r	hip_adduction_l	hip_rotation_r	hip_rotation_l	knee_angle_r	knee_angle_l	ankle_angle_r	ankle_angle_l	subtalar_angle_r	subtalar_angle_l	mtp_angle_r	mtp_angle_l	lumbar_extension	lumbar_bending	lumbar_rotation	arm_flex_l	arm_add_l	arm_rot_l	arm_flex_r	arm_add_r	arm_rot_r	elbow_flex_l	elbow_flex_r	pro_sup_l	pro_sup_r	
          5.00000000	         63.12205856	        137.34915823	         13.04528480	         13.29149008	         13.71109892	         32.72468722	         40.11134402	         34.44545890	         11.06697606	          6.17140133	         41.68834621	        120.30455505	        135.96003508	        402.01966806	          9.91307800	         13.56074323	         14.92319846	          8.33589543	          8.63520629	         94.18238047	          4.15918123	         21.41709495	          0.71599459	         44.94841101	        199.03218511	         42.40601120	         79.85311939	          1.51666910	        347.22807221	        509.33885930	         38.96158863	         64.43654169	         37.01078287	        391.06330330	         41.36952284	        107.74120529	        124.48115490	         24.36132228	         66.33780438	         35.31954900	          9.81525749	         11.93377739	         11.84288987	         20.56606493	          2.88602010	          3.52440164	         40.95868780	         27.71330898	        166.66245959	         48.87408746	         23.71192453	         39.73435892	         94.14312543	        235.94501319	         15.11729829	         41.13159509	         18.36565143	         95.28598690	         36.17076360	         30.99066871	         30.73439806	         30.46526411	         37.91011458	         11.99068405	        146.56122798	        147.48076202	        443.09792853	         25.02362865	        169.39115967	         52.68831931	         13.78504149	        128.78476278	         35.65462720	        340.96797713	         49.79314461	        474.80591673	        125.80116507	         43.56077827	        178.17525308	         69.22977615	         -0.10513479	          0.00027161	         -0.06856693	          0.05175305	          0.08326977	         -0.03258781	          0.15494575	          0.03387712	         -0.01823918	          0.06381155	          3.12619351	         -0.07633283	        -10.88243730	         -8.92116346	        -15.41277723	         16.85175693	          3.50556614	          6.08183209	         -0.13910628	         -0.31786912	         15.16003155	         -1.77105764	          0.30174201	          3.11158771	          5.67781573	         -0.11530349	         -0.12556696	
          5.05000000	         65.90967102	        146.15475667	         13.28209142	         13.54463515	         13.93781490	         13.10444007	         42.03334692	         42.47820805	         10.18911700	          5.12102286	         44.55021798	        155.72209678	        433.46171830	        717.87268834	          8.77671366	         12.98590481	         14.94273148	         93.48902118	         85.55805314	         84.23181612	         31.17089779	         37.03102295	          0.48437296	         47.35068351	        234.99330610	         43.98413666	         82.09337921	          0.98759976	        309.47423680	        410.07897655	         46.47081996	         68.00112548	         38.47011633	        771.50709352	         55.52357273	         82.67224118	        560.73994446	         14.08866848	         43.63738111	         21.84229168	          7.71688474	         10.36561724	         15.75068498	         24.31198503	          2.21957191	          2.20088712	         46.54033034	         29.04367392	        122.12654081	         26.37991918	         21.50074075	         37.11554897	        112.31543619	        286.80641637	         15.11857992	         41.53345054	         23.87323153	         76.39896274	         36.47595096	         31.33182839	         27.80776732	         31.53355141	         42.45526907	         11.90691628	        136.51228331	        119.40571232	        370.29691911	         23.22705752	        152.11054399	         48.15927849	         13.79278659	        127.59831088	         35.51084550	        357.51655036	         31.43998255	        576.33320057	        107.31384652	         30.81041822	        131.77136019	         51.59312315	         -0.10025257	          0.01028410	         -0.02972838	          0.04022828	          0.14965784	         -0.02390159	          0.22498507	          0.04971910	         -0.12055684	         -0.03935284	          0.40427246	         -0.12195651	         -0.08965544	          0.23800975	        -12.82850634	         21.29589317	          2.42566735	         -8.02865757	          0.22840270	         -0.17759390	         -6.66478281	         -1.77687393	         -0.46635214	         -0.93296081	         -0.92895317	          0.01606857	          0.02231268	
          5.10000000	         68.46499499	        154.21233584	         13.24657541	         13.35837892	         14.04819345	         13.18181472	         41.81165238	         47.01175413	          9.52565789	          4.90808913	         44.06486466	        174.13077800	        301.68703944	        629.25468943	         46.41103902	         12.04275254	         14.74708462	        199.59406602	         78.82866003	        157.23172192	         25.82753890	         49.94142754	          0.64894042	         49.11874124	        205.99211433	         45.52380608	         84.62284165	          1.13324589	        272.77347635	        211.92809561	         49.32838050	         32.89968065	         38.52286422	        795.58082950	         61.02274852	         60.86503829	        489.24039632	         14.06048714	         43.84907655	         21.87022598	         52.67457872	         53.92764703	          6.58280087	          8.69189942	          3.44778400	          5.21334583	         28.96868275	         29.83322104	        239.78067524	         46.46920148	         17.13230707	         32.47927694	        136.30615452	        362.32761672	         13.96048345	         21.36839507	         10.91812698	         72.93742623	         38.51107827	         75.86073140	         27.90513309	         32.99110487	         45.10299375	         16.20907129	        122.07697670	        167.55164364	        153.75662267	          6.40242125	        138.90397594	          0.05978881	         13.33405721	         58.29317471	         28.04680896	        397.10945277	         23.85037256	        535.22501719	         83.95688657	         51.50367165	        286.56825833	         92.21240517	         -0.08584312	          0.02773210	         -0.00299013	          0.01875635	          0.14317788	         -0.02556789	          0.12950984	          0.03440439	         -0.14122228	         -0.04665841	         -0.30014280	         -0.10077909	         -0.05853573	          0.08264446	         -4.25733469	          8.20831882	          1.71783550	         -2.92749474	          2.54651712	          0.30556719	         -0.96115271	          2.42713319	          1.05512899	          0.56823721	          0.01010071	         -0.02297513	          0.02633958	
          5.15000000	         69.24837185	        157.29142699	         13.12830326	         14.14863874	         13.91854994	         13.14625909	         41.45617975	         49.94719521	          9.32518967	          5.04788454	         52.59074100	        190.74593612	        362.75641371	        606.37815892	        241.91233377	        210.55807687	         14.79905177	        541.52849857	        420.03981814	         90.29959422	        234.66235243	         61.43984132	          0.61007492	         49.48957495	        178.48616346	         44.10231992	         83.07779612	          1.22522654	        273.77936990	         30.26590867	         16.43919917	       2101.75220403	         70.97656155	        679.87076064	         60.17149629	        109.79284228	        529.19238336	         14.25025459	         43.98307912	         22.04195779	        124.96173642	        373.94440833	          6.36135898	          8.70839497	          1.57082831	          7.96935426	         30.81490395	         31.74686606	        303.45176187	        179.42348422	         15.27375327	         30.34700655	        150.08159426	        411.45759433	         14.04062687	         21.87427479	         11.12013200	         77.36238245	         39.11447019	         32.48074677	         29.24085457	         33.73097978	         50.78193375	         11.54283259	        814.84364333	        145.91357637	         47.85389049	        644.26976557	       1242.71646399	       1138.70434486	        147.12437454	         63.55383591	         30.33893309	        421.53451558	        337.65087381	        696.72732254	         73.80577398	        108.98913071	        770.27794154	        221.79662522	         -0.05284337	          0.01071833	         -0.00255421	          0.00418978	          0.02872680	         -0.05124888	          0.03479900	          0.00421233	         -0.03079930	         -0.02553307	         -0.12822438	         -0.03195056	         -0.06386541	          0.01065908	        -19.74204005	         -6.17424138	        -40.81057149	         -2.67098145	          9.43789370	          2.29042883	          8.02607948	          4.92673123	          1.79197030	          1.05746505	          1.29986568	         -0.00806287	          0.01229671	
          5.20000000	         77.06785294	        186.41317687	         12.95374055	         13.01235471	         13.94360437	         13.10756797	         39.50013677	         31.29293238	          4.92785358	          4.52567771	         44.12749185	        149.61061238	        172.51807308	        457.36783969	         42.81694100	         38.40325568	         14.46756738	        132.47709056	         71.08638769	         16.46956954	         41.45087395	         11.43799437	          0.87620810	         48.66025430	        401.00771370	         40.62259388	         75.70283816	          1.59499382	        348.21778742	        244.28323998	         16.19486260	        374.99677553	         38.39489489	        503.41358086	          4.95819251	         61.56959705	        468.39035072	         40.21885912	        157.46662113	         65.29377250	         25.25127644	         74.84561444	          6.44700369	          8.60720594	          1.81596106	          2.03732337	         30.23219184	         31.01865256	        217.06570791	         71.23271953	         15.14750763	         29.70310153	        147.09123992	        405.52708982	         13.92754088	         20.94363308	         10.84034621	         73.68656986	         45.25606049	         68.30650462	         34.16263881	         41.77918222	         48.67454080	         11.77623294	        219.50898760	         74.80363251	         72.79265336	         52.42073504	        298.85149258	        178.57610617	         33.14205414	         62.96386767	         30.83938907	        403.24871163	         21.35695387	        540.67977062	         71.89721882	         66.30228276	        397.15651111	        126.31250441	          0.01455648	          0.00804414	          0.03109833	         -0.02361508	         -0.00700615	         -0.04745259	          0.00738674	          0.01051238	          0.05378474	          0.02884698	          0.00855980	         -0.00783021	         -0.08722057	         -0.03090559	        -27.37462188	        -13.10586207	         -4.83217505	         -0.31091007	         -7.05889139	         -1.61631945	        -18.64115241	        -25.81693004	         -4.99198493	          1.77162194	         -7.36264250	         -0.04596409	          0.00840048	
          5.25000000	         64.58309093	        146.64703736	         12.11088951	         11.99280271	         12.75842618	         12.64310267	         37.29656169	         44.63499930	        156.39904506	         24.80325235	         13.72988861	         36.43613365	        146.18343946	        418.36028804	         49.09160549	         14.07463157	         14.12092879	        289.59482528	        214.13404478	        255.59022923	         74.38146198	         92.34709124	          2.64354136	         46.55737779	        210.69010712	         66.82486973	        183.33358213	          4.37146126	        283.24334604	        595.09022199	         61.56569404	         87.22499936	         35.56402348	        386.20641874	        121.65263241	        186.23966140	        101.48183369	         14.70170824	         44.76473421	         22.56164958	          8.53031451	         16.35576994	          6.55792155	          8.59164123	          2.13718578	          2.11209842	         29.55631690	         34.65171952	        153.84942663	         38.37751419	         15.02568580	         30.14062379	        138.81792518	        379.20722464	         14.09935583	         70.78699142	         10.89787727	        925.70348017	        403.52029948	        356.34509148	        111.70875336	        116.40254335	        118.79417212	         11.95979505	        144.96763078	         63.87731713	        233.15985707	        332.00622732	        154.41840903	        586.38633039	         29.72760342	         60.77997223	         30.36905597	        377.71570735	        433.67465316	        466.50804687	         74.96223680	         22.78335007	         78.56035346	         32.07293368	          0.02157965	          0.01150474	          0.05156781	         -0.03779535	         -0.04426917	         -0.05669374	         -0.01690724	          0.00701887	          0.04519660	          0.06496965	          0.08498559	          0.06125269	         -0.08607845	         -0.10242790	         -0.67643374	         -4.35138281	         15.52423845	         10.02780900	         -7.74543134	          0.96535885	         14.78394353	         10.51210903	         -0.36069212	          6.94846040	          8.35937730	         -0.15272944	         -0.29034780	
          5.30000000	         63.79371356	        141.43997820	         12.71861819	         12.77569440	         13.32659938	         12.94948065	         39.47463786	         30.84620881	        161.19611783	         47.86978474	         12.66033289	         25.32260223	        133.67076858	        376.97330458	        127.70109144	        138.10306217	         15.07258823	        321.18391621	        188.32943719	        127.82680082	         59.71342581	         33.81133050	          1.98392623	         46.18516952	        179.56893881	         66.45831050	        231.45636935	          1.92641523	        274.56711644	        130.22713688	         19.61899117	         61.10861803	         35.95007145	        343.95610238	         43.81745801	        437.15733563	         54.95836203	         39.58332848	        155.91434664	         64.98525386	          9.13920496	         12.10313688	          6.97887295	          8.99264504	          2.76743277	          2.70378388	         30.76138893	         30.68223815	         55.07211473	         28.44635280	         27.97023209	         33.32538736	        136.75874575	        371.67681327	         13.97285427	         20.71887131	         11.66438306	        643.38837597	        255.50952976	        192.60068158	         96.74906858	        102.73240074	         99.56821493	         12.35076217	        316.23950097	         20.65597529	         58.80126057	        148.14857378	        140.25277181	        750.62949905	         49.47441126	         61.28531139	         30.30315109	        386.78751564	        241.33400470	        443.92881020	         62.03727869	         30.73839133	        112.33605285	         52.55371087	         -0.01280261	         -0.02455437	          0.07078609	          0.03189125	         -0.07430289	         -0.03626593	         -0.03797436	          0.00117211	         -0.04039095	          0.08988283	          0.02180849	          0.09169615	         -0.04487944	         -0.14935467	        -14.31631111	         -6.23802397	         -4.29716715	          3.08677389	         -6.54722961	         -0.64446451	         10.44490870	          4.17983503	          0.18223138	          3.73498564	          3.47603892	         -0.10992373	         -0.13932355	
          5.35000000	         64.50386975	        142.20477487	         12.92117562	         13.05969954	         13.49242346	         13.05037824	         39.80724117	         31.87680757	        143.96121270	         34.11858006	         12.91632175	         24.53921428	        109.23794687	        301.64184792	         73.74092940	         65.98437987	         15.26808946	        212.38312624	        120.87546576	         92.67597507	         48.15035584	         29.84299142	          1.39810820	         46.67903344	        174.16131077	         60.73364719	        181.36528631	          2.01738980	        271.93748696	        182.58385453	         24.05828196	         61.27269123	         36.30525967	        264.95326119	         37.54468491	        382.20084987	         56.62815908	         35.55237522	        134.04175616	         56.76346357	         10.32344309	         13.93660194	          7.18136236	          9.08671612	          3.54854519	          3.53636570	         29.91831900	         29.96719206	         39.03561452	         19.77287961	         35.19462892	         84.01821929	        137.56055410	        375.28897709	         14.09528687	         61.79818289	         11.61517785	        626.34025603	        208.06645715	        127.95374535	         91.42332299	         78.87182925	         61.82678024	         12.91169300	        144.36943713	         17.03427191	         39.00742781	         23.22490313	        143.93219642	        468.95686875	         18.65696247	         58.51047910	         29.93822521	        408.71506155	        110.10820906	        263.61286974	        550.94911232	         31.12970739	        132.07388019	         48.40047590	          0.03013425	         -0.01741910	          0.08206079	          0.01800755	         -0.05879620	         -0.00598600	         -0.04298881	         -0.04126973	         -0.03519662	          0.20172549	          0.01198886	          0.14138234	          0.01484154	         -0.08787111	        -13.67174221	        -24.67830379	          5.35728255	         -8.80008860	          3.09369533	         -0.53405209	         -3.08718136	         -1.97625014	          0.11984848	         -2.04206920	         -2.08299629	          0.04806482	          0.07937360	
          5.40000000	         60.40025546	        132.25911724	         11.58771880	         12.00746550	         11.85586287	         11.93663377	         33.23376639	         30.45728558	        129.21585524	         30.31179335	         13.05351660	         22.75327339	         73.92229963	        195.06642875	         74.26031317	         91.57096174	         13.52833946	        241.94994853	        126.16018545	         91.95292619	         45.44310066	         29.84820570	          4.07887903	         43.19715087	        177.98347941	         40.95055818	        181.30612204	          3.69238431	        271.34492979	         45.02519769	         17.28185374	         48.20156082	         34.17146523	        158.20526594	         37.09778004	        242.39677972	         57.23784305	         36.89710709	        156.59497368	         65.85331509	         13.15756143	         18.70836202	          7.26617276	          8.53644806	          4.78440086	          5.05672703	         26.63008691	         29.86860087	          3.56884926	          6.09493262	         13.75010906	         61.22079009	        143.13653702	        394.23356092	         11.82289028	         16.93832873	         10.47702037	        337.22456867	        143.01345876	        132.96958891	         62.45795603	         62.75649200	         45.44069568	         14.12958752	        244.17822185	         19.12699852	         43.31170487	        124.68106605	        172.68357072	        781.94566642	         40.60469120	         51.68489246	         28.44445768	        433.96429016	        139.50364623	        277.29501837	        488.82997562	         37.29628291	        175.83272885	         62.90220894	          0.13572982	          0.01943388	          0.13434292	         -0.09261794	         -0.02740047	          0.04914486	          0.03377349	         -0.07168869	         -0.06120126	          0.31914212	         -0.10383694	          0.17030535	          0.02125266	         -0.06027429	        -27.02748734	        -33.64619013	          8.63119831	        -13.37003180	         -0.49599269	         -2.27856740	         12.49434608	          1.82400352	          0.08232112	         -1.59988989	          4.07024709	         -0.00347885	         -0.15939372	
          5.45000000	         48.50886458	        102.23182265	          9.92355304	         11.04942957	          9.15523629	          9.90357606	         33.21663871	         28.94378054	        107.12451120	         23.82444206	         13.33213837	         21.88998108	         51.27537238	        126.30181384	         38.95153412	         66.06344466	         12.04076531	        221.44998464	         70.54949555	         36.01437239	         32.67721947	         22.38416029	          8.38488459	         34.91397154	        183.37811007	         41.63154634	         71.31299260	          6.41465863	        268.12159666	         42.20110768	         13.39789227	        212.70283532	         32.58831669	        111.79507805	         20.56460867	        190.40583662	         57.78589763	         39.08391433	        158.93475824	         59.49318827	         17.45498683	         26.27673502	          7.96024570	          8.79873818	          6.57905668	          6.81559920	         26.74365333	         30.74001940	        167.05708383	         52.73353117	        108.12788135	        127.68180617	        161.01962061	        452.41675158	         10.35806944	         14.56012377	         10.40221957	        212.05366400	        106.87328076	        119.22317479	         46.38658279	         52.22722880	         32.22885365	         16.68296699	        276.36734778	         25.30874999	         55.34704331	         64.65554708	        317.02760614	        891.64846581	         51.99036389	         50.72331748	         28.27722118	        474.08353047	        166.25604441	        487.89379765	         50.53561125	         36.40923437	        182.54860726	         61.74933819	          0.14671679	         -0.01628100	          0.19115884	         -0.19234063	         -0.00781250	          0.01820016	          0.10949102	         -0.12797340	         -0.10464879	          0.18268903	         -0.26558808	          0.10500603	         -0.04022120	         -0.06131773	        -37.79162707	         -0.22092192	         -5.08801653	         -4.21562128	         -2.03021753	         -0.99758074	         -5.54008572	         -1.92365423	          0.13044727	          0.48002954	         -1.23953756	         -0.03829560	          0.03210314	
          5.50000000	         34.30538083	         64.38319672	         11.17452167	         23.46477573	          7.79945018	          8.35921355	         65.26401681	         26.77226704	         74.52935229	         21.66895377	         14.27082180	         22.59116086	         39.21182603	         92.24534852	         29.89599488	         65.33440637	         16.93130939	        137.30811204	         40.91730911	         19.65362600	         20.83302401	         13.36543642	          8.20338601	         25.49569264	        180.32938854	         27.23715322	        108.26119135	         13.81505948	        252.68003038	         55.92175832	         13.25687693	        133.57060878	         39.08137487	        108.22185669	         11.97367465	        199.31207930	         61.21318431	         40.92488304	        139.39344417	         59.60392924	         23.38873850	         37.89706966	          8.93727947	          9.55541564	          8.20052681	          8.20104454	         28.90623137	         32.72011135	        255.75823583	        125.09851442	          8.76544263	         32.59660487	        181.46108500	        521.05789510	          9.71516986	         13.56529407	         11.14067360	        281.62085721	        113.89946974	        102.34356335	         50.56909654	         48.60114575	         21.86961322	         20.69701969	        249.97033745	         34.66698023	         71.16793228	         33.40538453	        260.31968955	        764.38885303	         48.13170327	         53.08702003	         29.55737726	        503.54152138	         15.13105110	        423.49523348	        750.43517522	         22.46181431	         78.56585843	         35.94467647	          0.10993438	         -0.09683418	          0.20949380	         -0.21757614	         -0.02025726	         -0.02534064	          0.11220930	         -0.25284679	         -0.05678176	          0.05654011	         -0.24088931	          0.10630892	         -0.03697443	         -0.08318159	        -21.61179126	         -0.67642496	         -7.63450024	         -2.23597239	          1.49926298	          0.10239087	         -9.10295229	          0.65804823	          0.49927634	          0.42796715	         -3.34193222	         -0.00926926	          0.11246603	
          5.55000000	         23.76578874	         39.09725522	         11.77758167	         26.91623266	          6.25953601	          6.91040191	         55.13560836	         24.77085485	         77.63721610	         19.51893928	         14.36127288	         23.32273336	         39.19620825	         90.33139691	         26.10617140	         64.10293535	         17.12707705	        195.50304726	         54.68697855	         21.75683860	         29.19279512	         17.47037705	         11.02399965	         19.20342324	        166.64306880	         36.85000090	        104.26363301	         16.67681066	        228.68402454	         64.07309100	         13.49974388	        216.59566763	         40.00852399	        124.65501180	         15.77933992	        211.97289649	         63.05560523	         44.13393751	        172.23512362	         70.92395295	         29.74728303	         52.26267168	          9.58497886	         10.19055352	          9.00129118	          8.92859756	         30.55924111	         32.69441216	        291.57844654	        134.40312614	        145.08523919	         32.72595570	        189.13225723	        548.27545269	          9.28678953	         13.30936977	         11.63565330	         56.81850989	        102.36348136	        159.78270976	         27.58020712	         58.83992526	         31.19092238	         25.12571125	        325.96754443	         41.63695917	         81.34043853	         10.44905376	        474.81896373	        734.78625091	         77.73252079	         55.20695439	         31.09962682	        501.75272246	        217.86407830	        435.75071200	        665.26347587	         41.39966844	        225.11407626	         77.88437720	          0.05837235	         -0.11232979	          0.14739735	         -0.17373030	          0.00889881	          0.04164026	          0.08912789	         -0.12231145	         -0.00679974	         -0.07482739	         -0.12408817	          0.01003445	         -0.02962549	         -0.10777270	        -23.53977714	          7.20463910	        -11.61693858	         -0.14052869	         -2.23159406	         -0.36699833	          9.41249272	          1.87927268	         -0.92570185	          2.20499757	          2.64945969	         -0.06464275	         -0.09322350	
          5.60000000	         19.64323071	         29.31704161	         10.68549280	         24.22586991	          6.82681869	          6.97349093	         66.92170627	         26.01054452	         81.60634523	         30.51760225	         13.96775361	         24.72330639	         53.81289992	        127.15800858	         25.82282361	         64.58313718	         16.33975264	        168.37932171	         51.05936552	         26.19337347	         26.45413043	         19.77340370	         14.10054058	         17.29626162	        153.71226329	         50.85990502	        115.97826755	         18.28843884	        209.62588272	         53.88457806	         13.26634313	        227.27523254	         43.63257910	        178.64646065	         20.73811829	        279.34000598	         63.44098588	         35.93448652	        142.71997772	         58.52789856	         33.03178184	         61.99950157	          9.49523300	         10.21647512	          8.72236294	         11.07098905	         30.96766179	         32.64092337	        176.73093418	         73.12236128	         49.25271766	        160.79726575	        183.87231775	        533.22013561	          9.62197893	         13.85032895	         11.69952482	         17.32387681	         24.18259359	        118.58408759	          8.62000351	         56.21251946	         51.31900415	         27.50735255	        340.90569373	         42.36849392	         81.91794898	          6.04270157	        560.61563759	        768.57657442	         85.62609586	         55.74503322	         31.81053976	        480.65786642	         71.90105683	        407.88454481	        594.91050487	         33.96838943	        168.43936445	         62.35971576	          0.00216121	         -0.08111534	          0.03512917	         -0.07953656	         -0.00703360	          0.03508163	          0.05557338	          0.11153659	          0.02280954	         -0.28686025	         -0.03630202	         -0.11354634	          0.01785487	         -0.12146086	        -28.08261422	         -9.21077246	         -4.13094066	         -4.69756372	         -1.68104203	         -0.73533437	          4.41159868	          1.44335264	         -0.25105050	          0.37939053	          2.06943514	         -0.02921662	         -0.05004458	
          5.65000000	         17.99485560	         26.33932423	          8.38418701	         15.69059763	          6.80787282	          6.75650549	         41.87750883	         27.65040435	        156.42886597	         14.52979510	         13.68957191	         26.02945797	         76.93694785	        194.95311026	         32.93561800	         71.52605380	         12.90191694	        167.54281526	         61.09001905	         48.39864142	         25.90388896	         23.45999961	         20.52735402	         17.39689824	        143.54194491	         62.65521778	         87.70420437	         17.25751146	        197.66473905	         38.86093624	         13.39055308	        161.18986671	         32.78838143	        255.14114248	         25.67171381	        334.96163065	         62.90969548	         33.37575589	        135.32501654	         53.56163148	         31.80818658	         70.33238901	          9.00375438	          9.81022774	          7.98399323	         40.23721571	         29.40029204	         32.31859619	         27.16063649	         29.53012500	         47.35188593	         99.80495975	        176.37850039	        511.12337490	          9.92635250	         14.25765772	         11.36539514	         18.08192091	         12.99081622	        121.26187120	          8.23602200	         58.77116811	         67.40431516	         26.96171859	        342.98081415	         40.93090105	         79.78319003	         10.44994319	        562.50295082	        816.81273961	         85.99421958	         53.11228185	         31.08985561	        473.87279708	        139.64215282	        359.89770531	        528.58513578	         32.73711211	        146.19714123	         56.94050802	         -0.01495720	         -0.05870557	         -0.03804237	         -0.01976827	         -0.01352390	          0.01576308	         -0.00728278	          0.18136320	         -0.01819172	         -0.28486253	         -0.02398557	         -0.14264921	          0.05357170	         -0.12645865	        -33.18160325	        -18.14742359	         -1.06962161	          2.10088156	         -3.49185802	         -0.13615991	         11.60528891	          2.16741690	         -1.00267872	          2.52686432	          4.45389287	         -0.06637178	         -0.15364818	
          5.70000000	         17.43789481	         24.91249268	          8.63511811	         17.24238275	          6.94412430	          6.81807985	         53.59528590	         28.37502283	        138.79346945	         75.40061460	         12.86611447	         25.67194041	        105.20199401	        285.20367698	         38.85501568	         85.30433893	         15.45020274	        169.80855679	         59.56238074	         52.57493992	         24.46239226	         21.96778961	         19.33954294	         18.08810972	        136.57054186	         65.41222993	         97.87399660	         24.80795512	        188.64675099	         33.23437735	         13.37496837	        188.08199255	         36.28082848	        332.88165052	         16.14794971	        410.36759603	         59.57888643	         36.92472959	        171.14810164	         62.36033100	         29.41566512	         52.62891284	          8.64344033	          9.48689575	          7.49024676	         12.14969685	         27.32120865	         30.98935231	        165.21055233	         59.50782768	         62.16192035	         92.60371564	        176.75760539	        514.89523784	         10.15258230	         14.49575098	         11.10631747	         19.08473884	         19.85463066	        140.53715818	          8.71015372	         60.27331249	         77.29277350	         25.08937829	        304.03358294	         40.38087073	         79.67912877	         18.35917556	        485.09471595	        914.17874377	         70.93447707	         49.42097428	         29.52496994	        513.83483739	        149.81003961	        338.26485311	        547.89345623	         34.59003008	        136.82902690	         55.72989836	         -0.01446042	         -0.06516032	         -0.05249276	          0.00241521	         -0.00885642	          0.04936240	         -0.05794889	          0.15531039	         -0.11801685	         -0.16788875	         -0.02507266	         -0.17902406	          0.00640622	         -0.12836781	        -27.32249517	         -9.80511963	         -3.68023051	          4.64373545	         -1.28833773	          0.71976483	          0.61150249	          0.73992623	          0.11963790	          2.59939745	          0.60607818	         -0.03716879	         -0.00846796	
          5.75000000	         16.54553077	         20.94355155	          9.23099168	         13.49565352	          6.29064253	          6.01383843	         42.03697477	         30.11402481	        214.72004329	          8.74795134	          9.18426768	         24.14531353	        129.86635967	        365.87386070	         59.22553113	        114.24171862	         13.90528597	        162.36020089	         90.97982028	         85.26645728	         29.99183666	         32.61501645	         29.52175453	         18.17757360	        129.24124219	         34.23803330	         66.54404295	          8.30086398	        179.54380878	          8.35077657	         13.67350961	        180.36288777	         35.40242871	        383.47190755	         34.79007683	        490.54804330	         42.87380915	         36.68552651	        179.37893734	         63.33531287	         26.92016089	         47.02983606	          8.33084218	          9.16189165	          7.09906470	          7.54613733	         23.65456841	         32.64009768	        170.52192540	         74.32953947	         46.81550797	         25.16391060	        180.43850575	        531.10181303	         10.03488165	         13.93954095	         10.84994180	        103.23416671	        146.79191680	        212.99247240	         39.19946071	         91.47259897	         97.22887093	         23.14615600	        243.06625009	         39.96809949	         79.93665360	         32.73075188	        320.94412762	        978.56996034	         55.36957373	         39.15101715	         27.73833035	        573.20307641	        156.22523444	        298.49061171	        406.60335162	         19.14995411	         54.51038256	         28.92559196	         -0.01080076	         -0.04225575	         -0.05328086	          0.00414337	         -0.02063711	          0.07369456	         -0.06677844	          0.12323036	         -0.20501371	         -0.07917948	         -0.01411967	         -0.21136897	         -0.00895716	         -0.12919067	        -11.83776322	          0.40662858	         -6.84087228	         -5.99429199	         -1.41904269	         -0.86516092	         -1.98108638	          0.24021501	          0.28613084	          0.20183767	          0.08780244	         -0.01713597	          0.00594204	
          5.80000000	        129.73338031	        370.13375897	          8.53560285	          9.78137711	         38.26485788	         79.57863239	         34.31274705	         31.19337496	        275.91649644	        158.50675745	         61.39493696	         23.41024457	        142.82473570	        410.40271389	         13.73924137	         24.35742107	         12.80407076	         40.18337201	         25.38110415	         41.98042169	         10.53390099	         12.44612495	         13.10388016	         30.20334293	        177.38560341	         40.20146888	         77.55465428	        255.75695610	        395.66090252	        602.09719322	         29.29224778	         62.23468217	         32.11769708	        402.39557398	         12.42493889	        593.33230232	        313.21269888	         57.10583545	        355.36750329	        108.87228803	         25.62104071	         43.71403382	          8.81716856	         10.43472001	          7.30398953	          7.62763967	         97.59615762	         30.54599159	         86.02077347	         38.01660820	         48.80139817	        124.04026941	        179.10687064	        531.41043600	        108.30343264	        224.76794306	         25.14513776	        265.82941649	        117.88449145	        113.12059287	         30.71159559	         27.06933250	         19.62305093	         21.81158126	        182.49602947	         38.88679951	         78.96913061	         16.81346388	        236.48087321	        197.90313988	         18.46324219	        292.84018483	         38.35314818	        617.02979140	         30.38668867	        175.95694678	        504.46905346	         26.70546014	         77.91332946	         38.66666113	          0.00830453	         -0.00300942	         -0.03834602	          0.00124093	         -0.04282966	          0.03936577	         -0.07885849	          0.04232937	         -0.43149361	         -0.01723749	          0.00260634	         -0.15453244	          0.02319063	         -0.12954395	        -11.06230360	          6.49818544	         14.73767510	        -12.83047932	          3.94169309	         -0.73022315	          5.67406052	          3.15500749	          0.05204331	         -2.43450485	          2.77176840	          0.02603914	         -0.05600040	
          5.85000000	         36.88826369	         80.17745394	         11.51426261	         10.49925192	         16.81537900	         20.81069445	         33.07548818	         30.16834246	        155.11269043	         45.93094475	         26.83702166	         21.54070532	        139.61524241	        404.44976252	         12.06473196	         17.00550541	         17.78993899	         24.57233577	         18.51713601	         21.05175065	          9.97562584	         11.95889964	         10.07413497	         20.95387739	        133.91862763	         41.77784582	         79.39655076	         36.73610639	        210.55448525	        146.33775384	         14.52771914	         59.23131045	         31.89452139	        390.66271614	         12.89822197	        506.51601278	        291.29193624	         55.45086575	        308.02288943	         98.99133205	         25.00538889	         42.07972903	          8.59388436	          9.40211388	          7.34426424	          7.57161314	         24.13569246	         27.68148343	         83.79203275	         17.75052017	         66.56588508	         43.53918040	        169.99783582	        505.44559426	         20.82180537	         41.25012589	         10.81420719	         55.53057467	         34.84558637	         47.63427649	         12.27498472	         17.88483159	         19.09628305	         20.88508701	        177.69140265	         35.22643849	         73.61903860	         28.75665846	        229.65817357	        231.20037558	         14.86376643	         59.90160993	         24.83017867	        627.06722287	         25.00399914	        226.90779668	        591.02612075	         51.09097723	        232.73747064	         83.29523964	          0.01233503	          0.03452670	         -0.03297065	          0.04297875	         -0.05052312	         -0.00034792	         -0.08051744	         -0.03028149	         -0.48370565	          0.03012736	          0.07441626	         -0.04070983	          0.04062780	         -0.09194601	        -11.80009138	         11.36777567	          3.51585455	         -0.26624808	          2.35596840	          0.38786116	          5.59657110	          0.70141806	         -0.39380016	          1.61904069	          2.36967788	         -0.05490534	         -0.06905938	
          5.90000000	         19.73159363	         29.53599432	          9.88181888	         11.35326677	          7.27013232	          7.24853692	         42.50386784	         32.24658522	         28.79534207	          9.40160318	         21.05654206	         96.17837988	        144.24085439	        377.98254905	         58.28110439	        118.37183042	         15.12664599	        145.42081487	         81.55580713	         84.70294631	         23.69874781	         27.18887894	         25.98581326	         19.83740391	        135.17279207	         38.43858276	         74.82979827	         52.89815296	        187.13033313	         35.60089089	         14.60588722	         61.37240175	         35.24447131	        469.57687157	         29.79179844	        112.36664121	         99.73276536	         29.93355288	        105.25738294	         45.86378852	         23.97497114	         38.03573220	          7.92802750	          8.51788348	          6.79921174	          7.84449645	         21.09436351	         29.02170860	        230.20635164	        140.22211543	         46.66735947	         30.56730775	        161.30253986	        473.82820131	         11.13275251	         15.20634209	         10.42825638	         22.28410659	         25.88751710	         27.67788747	         14.55089098	         22.97665737	         24.23237838	         19.75101850	        203.72644095	         29.11885017	         64.67498107	         35.35689883	        268.69502083	        557.99023270	         22.09036304	         36.10611695	         23.25291446	        619.84550998	         48.36126194	        374.79927055	        122.90927788	         44.52527156	        151.32611972	         66.71170235	          0.01943349	          0.02338587	         -0.04402817	          0.04322390	         -0.03928640	         -0.03524001	         -0.03403226	         -0.05498056	         -0.24053843	          0.02977015	          0.13884749	          0.04042473	         -0.05374111	          0.07656709	         -9.81954587	         23.17585528	        -10.65352113	         13.46271027	         -3.14505231	          0.68348492	         11.14176452	         -1.43543646	         -1.84695968	          6.24412002	          3.02148020	         -0.13110710	         -0.15340147	
          5.95000000	         17.08801626	         21.00606550	          4.86923719	          6.96777676	          4.54621304	          4.37692023	         75.42953767	         24.66852345	          1.70207054	          2.71327682	         34.52297854	        106.18000267	        106.50836131	        336.67057083	         20.14588013	         39.67663010	         15.08649322	        100.58577896	         21.90715466	         23.79986072	         12.38621281	         10.00151340	          4.86508234	         18.10316479	        129.47922982	         27.01443023	         44.45735761	          2.33933332	        182.51746539	          2.97047069	         12.18842095	        459.11962580	         26.16534365	       1166.05106861	         10.75650342	         32.43186751	        405.52052600	          8.35691543	         62.39732778	         13.49622580	         46.74175046	        192.88655813	          4.61480347	          1.73008250	         12.18924008	         21.03533883	          0.71809113	         23.38927987	         33.59762948	         17.74641995	         14.35767691	         35.07106900	         66.24643793	        197.98683955	          3.82302501	          2.54407229	          5.58656986	         14.87089348	          8.05272357	         14.42597210	          8.86435021	          8.98413554	          3.79322507	         17.82300292	        178.41288678	         18.73220015	         24.25394771	         29.10549332	        239.73355057	        592.21020018	         13.10368664	          0.28799643	         15.97791676	          0.24083880	         13.55073115	        122.84264429	        163.28362317	          6.50051980	         83.72172454	         11.24385511	         -0.01099068	         -0.00709640	         -0.05065873	          0.03813766	         -0.00876567	         -0.06386365	          0.01290082	         -0.06802515	         -0.12954670	          0.00755719	          0.09800842	          0.05092267	         -0.06477251	          0.16385745	        -18.47192700	         41.59187301	        -13.63004498	         -0.39838105	         -0.00160860	          0.07274781	         -8.83123686	         -8.16340904	         -0.01095590	          2.43841340	         -3.66521416	         -0.03640716	          0.07321013	
