ModelForces
version=1
nRows=20
nColumns=108
inDegrees=yes

This file contains the forces exerted on a model during a simulation.

A force is a generalized force, meaning that it can be either a force (N) or a torque (Nm).

Units are S.I. units (second, meters, Newtons, ...)
Angles are in degrees.

endheader 
time	addbrev_l	addlong_l	addmagDist_l	addmagIsch_l	addmagMid_l	addmagProx_l	bflh_l	bfsh_l	edl_l	ehl_l	fdl_l	fhl_l	gaslat_l	gasmed_l	glmax1_l	glmax2_l	glmax3_l	glmed1_l	glmed2_l	glmed3_l	glmin1_l	glmin2_l	glmin3_l	grac_l	iliacus_l	perbrev_l	perlong_l	piri_l	psoas_l	recfem_l	sart_l	semimem_l	semiten_l	soleus_l	tfl_l	tibant_l	tibpost_l	vasint_l	vaslat_l	vasmed_l	addbrev_r	addlong_r	addmagDist_r	addmagIsch_r	addmagMid_r	addmagProx_r	bflh_r	bfsh_r	edl_r	ehl_r	fdl_r	fhl_r	gaslat_r	gasmed_r	glmax1_r	glmax2_r	glmax3_r	glmed1_r	glmed2_r	glmed3_r	glmin1_r	glmin2_r	glmin3_r	grac_r	iliacus_r	perbrev_r	perlong_r	piri_r	psoas_r	recfem_r	sart_r	semimem_r	semiten_r	soleus_r	tfl_r	tibant_r	tibpost_r	vasint_r	vaslat_r	vasmed_r	hip_flexion_r	hip_flexion_l	hip_adduction_r	hip_adduction_l	hip_rotation_r	hip_rotation_l	knee_angle_r	knee_angle_l	ankle_angle_r	ankle_angle_l	subtalar_angle_r	subtalar_angle_l	mtp_angle_r	mtp_angle_l	lumbar_extension	lumbar_bending	lumbar_rotation	arm_flex_l	arm_add_l	arm_rot_l	arm_flex_r	arm_add_r	arm_rot_r	elbow_flex_l	elbow_flex_r	pro_sup_l	pro_sup_r	
          2.00000000	          8.58943740	         10.85438840	          7.52885005	         10.82906748	          2.98737821	          1.78627717	         49.24056578	         34.42116110	         11.62458340	         14.79160924	         52.63313584	        165.64052224	        146.05763587	        421.98405420	         15.55477994	         24.85882494	         13.47191534	         93.04696425	         69.76712663	         97.33427886	         31.77101776	         38.22333424	         51.87415850	         13.23726664	        119.13109967	         52.95941651	         93.46314129	        157.30016116	        178.32171117	        189.43700698	         28.16375213	        108.80615421	         44.32250757	        372.52101439	        106.85947444	        282.77345193	        588.08606103	         20.69571946	         58.74526667	         30.40532508	         37.45972982	         73.50217007	         10.56932947	         11.56162323	          9.84120352	          9.42062615	         57.61320676	         32.12493532	         50.43795862	         11.67536881	         15.81161041	         29.81812858	         95.19848510	        261.81743660	         53.27601709	        101.44942242	         31.23094206	         48.65649511	         64.11487662	        106.17836400	         11.03302805	         19.05612161	          6.18340240	         28.34817498	        189.81730811	         40.05958595	        171.27594568	          0.63858160	        241.23424200	        122.76943829	         19.69988882	         51.79760342	         30.80181050	        233.54767193	         25.73271801	        443.29822896	         55.98473239	         30.30048151	         87.07238410	         43.37385454	          0.02658280	          0.09252389	          0.05435218	          0.07930202	         -0.08205790	         -0.14845679	         -0.08288733	          0.06092896	          0.23884275	          0.02297898	          0.20456170	         -0.18006710	        -77.51934291	         -0.30985689	         -4.64963261	         37.27553673	          3.98516424	         -1.42279293	          7.34195859	          1.21647599	        -14.53385232	         -8.94883300	          1.14794086	          1.05311681	         -5.08838514	          0.00255679	          0.17685329	
          2.05000000	          9.42046371	         12.20461699	          7.66156862	         10.46468558	          3.69529625	          2.78551235	         47.76577360	         32.29646647	         11.55894783	          5.78074960	         37.59726491	        136.27484553	        140.56275617	        401.89942439	         14.87718300	         23.03149234	         13.45412485	         83.76056841	         62.58864737	        116.08981404	         26.05522893	         35.29775824	         48.20181850	         13.89936725	        236.05399550	         41.67180919	         77.86701077	        247.28296793	        411.05777272	        280.35266891	         46.86819979	        101.05828601	         42.48829993	        332.33832545	         15.38441641	        111.79509090	        428.06173401	         21.66116051	         79.47280570	         35.69428482	         39.93570349	         79.13602823	         10.90477889	         11.90578224	         10.16693468	          9.92122484	         90.51653901	         28.18657535	         97.28439983	         26.37578873	         17.03520453	         28.12513901	         63.95868652	        165.68169524	         65.10436321	        131.41533239	         52.55069459	         35.98192957	         65.16262684	        100.58320832	          7.84652943	         17.03922838	          4.79452850	         29.26742873	        186.99048527	         34.46916711	        123.34526556	          1.30743675	        244.38949602	         66.57959702	         13.59861519	         95.25108860	         30.85293959	        140.22475352	         14.20902220	        255.58072555	         58.62143853	         27.40522413	         83.78194892	         40.65054527	         -0.00670123	          0.06651906	          0.03934599	          0.07941866	         -0.12946162	         -0.19121135	         -0.06514791	          0.08317821	          0.30681663	          0.09156335	          0.21191764	          0.11009571	         -0.83690759	          0.09372534	         -4.50528946	         31.79244782	          5.97030324	         19.54447484	          4.95079211	          2.78184750	         -8.46188463	          3.21837123	          0.64235815	          5.64021155	          1.34416779	          0.04808369	         -0.03906695	
          2.10000000	         10.66839942	         13.86916810	          8.19213266	         10.86717276	          4.74543386	          3.94978925	         48.57096606	         32.34501678	         10.69699068	          5.66194337	         26.66547686	         70.71944283	        157.45804908	        386.30712793	         14.69835140	         22.44042360	         14.16165208	         77.04251337	        103.41647752	        199.88667348	         22.21537956	         42.72772763	         58.42057637	         14.88471336	        270.78137902	         33.95598272	         66.88448311	        348.57098676	        399.86581646	        319.72692024	         58.90292269	         98.44298398	         42.00878221	        441.78744358	        176.63073275	         75.26563759	        421.76037940	         26.24057509	         88.55894380	         41.72707462	         39.93833387	         78.14338696	         10.94452911	         11.84473506	          9.96028010	          9.65333382	         94.10765348	         29.14078808	        119.90759271	         24.71445720	         15.59351399	         23.87563784	         46.47546850	        111.11761183	         60.89496270	        123.40471775	         53.31086582	         30.22816494	         55.82210064	        101.86984075	          7.26083236	         15.92600960	          6.67156052	         29.41469557	        181.23239436	         35.79530785	         92.86006726	          1.82313586	        243.18965156	         46.79156628	         15.13118175	         89.92617097	         30.88584145	         90.84855368	         12.52568060	        149.97740426	         60.07693896	         27.94784875	         89.92037569	         39.96952963	         -0.01615856	          0.03038858	         -0.01144139	          0.10610792	         -0.09483463	         -0.14174422	         -0.01390534	          0.04771209	          0.23874972	         -0.00720086	          0.14984012	          0.07469751	         -0.45413696	          0.06908694	        -10.01060876	         17.85869826	          9.98046004	         31.08783365	         -4.23468944	         -0.10841069	        -21.85554380	         -7.55402695	         -1.34211647	          8.50291866	         -3.22733155	         -0.09376904	         -0.05208264	
          2.15000000	         13.12850802	         17.54489511	          8.62401668	         10.91230225	          6.01538289	          5.47743650	         47.78852371	         34.12342130	          9.10058140	          6.13417976	         56.91442786	        196.48068343	        149.80128080	        417.36512730	         29.72630140	         24.31446556	         14.07988613	        172.04487104	         91.30142358	         97.86878121	         29.42291955	         33.70164364	         28.77476450	         16.50253415	        120.41881065	         32.46782580	         65.51971823	         63.00573319	        169.71073442	        138.44259461	         20.30228150	         93.50682573	         41.55772661	        366.21554094	         22.51985086	        170.03136507	        529.32840036	         14.37950650	         47.87507661	         24.60829719	         36.42476344	         69.43184193	          9.48669712	         12.61240172	          8.62398893	          8.70108963	         62.83398458	         28.30609739	         98.54630884	         20.86077303	         14.64876599	         22.17556805	         43.49786390	         99.59911230	         41.49026895	         73.65536844	         31.51603325	         52.49280799	         43.92227469	         53.77426464	         10.89696020	         15.39018725	          9.26227935	         27.75619603	        179.86840475	         30.15121337	         78.94930004	          2.27405570	        241.10704076	         31.99938581	         12.78380953	        114.17603721	         37.46576092	         87.23868856	         13.47464558	        166.36932430	         59.90203142	         32.21879607	        101.33086266	         47.78799731	          0.00859344	          0.08565173	         -0.08620223	          0.13944060	         -0.07716859	         -0.12244007	          0.02910585	          0.07294547	          0.07452245	         -0.10990190	          0.05329525	          0.00212548	         -0.24788700	          0.00456291	         13.81336343	         34.21524863	         -0.67736099	        -24.97500606	        -32.88212980	         -3.65418141	         80.22579777	        -50.38432158	         -7.82190055	         -7.95024687	         35.14274905	         -0.21389994	         -0.87637400	
          2.20000000	         16.13992301	         22.16234077	          9.14338255	         11.06634500	          7.11930058	          6.80201209	         46.82038177	         32.16643263	          9.35721128	         15.45080307	         38.21731901	        122.74765225	        163.84798793	        463.51352920	         26.38634041	         24.03736195	         14.27724487	        119.39715845	         66.26796127	         79.55814710	         22.48522367	         27.03022066	         23.51617827	         18.68236458	        130.20299785	         32.66857283	         66.48104438	         70.81837484	        150.86662866	        202.74229992	         22.80423714	         87.92905395	         40.74480635	        409.00108469	         63.77614394	        258.79207226	        549.02177709	         18.56000261	         55.55148871	         28.69145099	         40.79917250	         78.80698442	          9.00947798	          9.04373147	         14.88442582	         25.90572565	         25.67647317	         31.48794676	         32.14106366	         22.78327213	         14.72428570	         22.91916772	         44.12053647	        100.08248820	         10.77269547	         16.62807094	         13.79572722	         18.81715653	         13.99989112	         27.45473809	          8.15898770	          8.79794354	         14.40995934	         26.73166890	        179.41326045	         31.87772851	        155.85161110	         10.32830423	        255.18145910	        156.95623839	         17.57986571	         41.52244461	         27.10164274	         97.93450575	         10.32665752	        256.00610351	         63.63358009	         18.15209405	         54.10235667	         26.75817491	         -0.01169017	          0.09251466	         -0.13937475	          0.14544744	         -0.13908741	         -0.12582514	         -0.04556806	          0.08162951	         -0.02382108	         -0.05755427	          0.10875450	         -0.01047922	         -0.13344358	         -0.02738545	        -25.13115351	         24.69310217	         -4.27954888	         -4.51865628	          2.44576318	          0.15438162	         -0.97024300	        -10.27516565	         -1.02408950	          1.31772653	          2.55163660	         -0.07747486	         -0.04903944	
          2.25000000	         20.72816006	         29.80743226	         10.01511389	         11.59907762	          8.46394525	          8.19390356	         47.04047014	         41.44095652	          9.48142265	          4.81132361	         53.82312642	        182.42009659	        193.16052164	        477.86451581	         24.16306897	         18.63780197	         14.92638710	         64.93188531	         76.87548670	        100.56358879	         16.56741949	         25.72370837	         18.92704772	         21.90367053	        139.15728045	         34.68407764	         69.69253353	         58.82337546	        173.09339035	        158.78225903	         29.15684917	         84.02095925	         40.44030844	        421.26284865	         40.68527650	        159.70352733	        578.42090627	         13.59601611	         42.74589777	         21.48698429	         28.92910043	         59.42450941	          7.15277271	          8.04275304	          5.05423977	         12.89945574	         18.82119094	         35.82712091	        207.59517058	         23.18117393	         17.54527958	         27.20593419	         44.11210081	         99.58121179	         11.97765905	         16.77786651	         10.89046296	         24.13073753	         17.90302833	         18.91719673	         10.06210974	         16.59578097	         22.39830482	         20.82286364	        188.86350312	         54.78851054	         40.21984375	         55.73237948	        263.04685470	        201.56102966	         23.25323075	         28.06112993	         22.82647468	        122.22192536	         38.06908335	        124.79767457	         80.50184630	         21.97191482	         65.49602393	         32.01803178	         -0.09724757	          0.09077030	         -0.21042737	          0.18621935	         -0.13293441	         -0.12088757	         -0.21924775	          0.05587537	         -0.09095308	         -0.00222192	          0.44047281	         -0.08186366	         -0.07526712	          0.01182992	        -32.42259676	         39.36870802	         -6.95393660	        -25.68600756	         -8.91334512	          1.39872928	        -17.27844678	          4.30357177	         -1.93547125	         -7.86382283	         -3.38980698	          0.34697931	          0.02173795	
          2.30000000	         27.44577149	         42.08618106	         11.17769443	         12.62844368	          9.93648046	          9.59545076	         49.31494803	         32.17343654	         10.24193697	          4.92830076	         34.50016880	        156.27775528	        170.51050507	        468.07994399	         11.00969637	         16.13357185	         15.72085878	         15.06817067	         19.73597727	         98.90418052	          5.54269914	         17.14637758	         14.96860738	         26.75430087	        224.50259235	         39.61022131	         76.69982027	        139.66588736	        422.50203928	        402.12702139	         58.78859260	         84.59284047	         41.50972736	        435.51624183	         10.61948200	         77.25350113	        504.58864408	         18.48695928	         51.25199527	         25.96376804	         13.02899725	         18.23182440	         14.47988578	         26.88966164	          4.95974902	          4.09801771	         78.62519882	         23.62556727	          7.68466284	         26.74852819	         21.55432530	         32.55647206	         49.23184967	        111.24770377	         33.05605411	         79.24273630	         33.35484190	        133.97392160	         47.42964357	         32.97483882	         22.97793759	         19.04531538	         16.76404484	         14.14013789	        145.78558576	         26.77690507	        388.83900494	         20.71928142	        192.62176286	         60.61387469	         13.16807313	        258.74167438	         40.80725913	        160.04054909	         18.35613757	        361.51567689	        106.55575214	         44.07569097	        139.10350467	         63.03428163	         -0.16244684	          0.08086371	         -0.22112495	          0.20340926	          0.06322770	         -0.05485155	         -0.16174655	          0.05521943	         -0.14102198	          0.01850355	          1.77112658	         -0.15905864	         -0.05882226	          0.03771049	         -7.86251290	         31.50303802	          7.29653062	          0.31764160	         -2.86786121	         -0.44267958	        -21.54280081	          4.75894810	         -2.53944453	         -2.31560955	         -4.68634882	          0.08389438	          0.01737458	
          2.35000000	         35.16382398	         58.13425112	         12.18873550	         13.67733496	         11.11560957	         27.21656219	         52.71151623	         32.81979230	         10.77736735	          5.23317881	         43.26485154	        104.51676630	        161.13223703	        464.35905791	         10.30924502	         15.44461981	         16.30301553	         11.12632997	          9.51791160	        170.17132999	          4.75070823	         35.37326358	         34.65599719	         32.53425181	        494.18629620	         47.96860073	         88.00717847	         72.11479599	        989.94117869	        417.51869115	        134.82489712	         88.52246928	         43.80820546	        400.10595282	        145.76097929	        228.22578151	        554.69317521	         65.07493181	        476.40312593	        138.45091118	          9.69893254	         12.17031386	         14.83455762	         28.86009007	          3.67887578	          3.42570258	        101.28811165	         24.88240632	        323.36697853	         22.95088831	         23.76913906	         36.47424758	         65.75528858	        152.63997168	         44.28835298	        108.81045616	         44.21889830	        126.41254917	         57.60569016	         43.61753265	         25.62412674	         25.22854670	         26.92051827	         12.42417429	        128.63169601	        150.34612576	        249.91552362	         20.77760949	        164.79855003	         40.63031974	         13.01988025	        220.28732313	         48.12426298	        220.01984667	         21.17981275	        177.26230833	        123.65681932	         39.24827784	        150.86292304	         61.40702741	         -0.12015517	          0.05363543	         -0.14416409	          0.15321300	          0.12108947	          0.01740003	          0.12942325	          0.07630483	         -0.24255604	          0.00188795	          4.74194455	         -0.27980730	         -0.07458659	          0.02721893	        -23.81615154	         11.37263175	         23.81771361	         14.46918545	         -0.20666875	         -5.14441872	          1.50748585	         -9.89313274	         -2.00648329	          4.14916110	          3.74263902	         -0.29241988	         -0.12182189	
          2.40000000	         42.42525946	         74.62701531	         13.16108423	         14.79818446	         12.21005470	         11.11389250	         56.86956141	         32.40418992	         10.83090678	          4.92836633	         65.39315274	        291.74036756	        169.82308826	        473.43031138	         10.23519200	         15.33398316	         17.02146509	         10.45545734	         91.25729285	        233.22240622	          4.51053335	         63.06420202	         11.84799708	         37.90617626	        331.27314542	         57.93250531	        100.59644987	         12.56507464	        485.49253358	        336.47089415	        117.64030634	         94.38930824	         46.58966258	        491.83077749	         77.48720737	         86.66818526	        661.04875414	         28.20694276	        119.42185892	         48.79550840	         15.17488879	         23.51209131	          7.03465592	          9.39229788	          4.54299990	          5.80897035	         32.25778024	         27.61365372	         42.33500229	         59.64191160	         20.56641418	         34.95547787	         98.04814196	        241.80114879	         14.75091811	         25.62997299	         11.78160225	         56.51411546	         32.28920452	         46.79847913	         19.77257595	         23.07017175	         29.77374271	         13.67526257	        121.64591655	        128.79514927	        350.42255553	         64.96594119	        170.26504414	         88.24909578	         15.24148090	         69.73856944	         28.31076834	        298.99177168	         20.91005211	        536.71078509	        106.16642696	         27.56700619	        116.51556027	         46.20689899	         -0.08204677	          0.02027081	         -0.08828135	          0.11419041	          0.21646641	          0.03010799	          0.33368873	          0.07717412	         -0.31474166	         -0.01442579	          0.52357080	         -0.50813544	         -0.09859105	          0.07301338	        -27.44800323	         15.82322127	          4.85139621	         -0.06600144	          2.03468801	          0.32705054	          0.92603774	         -1.18519225	          0.39969789	          1.39063103	          1.31313705	         -0.01091418	         -0.01340447	
          2.45000000	         50.21015005	         93.17656165	         14.18099711	         15.83807345	         13.55394818	         12.47393175	         60.28248906	         33.46943571	         10.45766736	          4.70085929	         68.88541870	        283.32131437	        222.87825263	        486.72885243	         14.80144392	         15.09841997	         17.61236885	          9.03748626	         16.53491088	        361.41120601	          3.94248859	         44.71213588	          0.96270324	         43.18619092	        208.67883366	         65.72219373	        110.16827865	          3.02719078	        656.87633643	        309.44494023	        157.84410797	         98.94411931	         48.99102763	        892.72533789	         67.11665786	         92.38954079	        738.65347507	         19.51040069	         58.80703367	         29.08208592	         18.20831112	         23.51910351	         10.02328173	         10.26151732	          4.68386670	          4.68225498	         38.39383704	         31.30258160	        275.11190884	         10.36627786	         15.55487196	         30.14258633	        143.32977841	        379.61059666	         15.14575140	         23.92688017	         12.60299664	         70.72535459	         37.00515127	         70.55527292	         26.56054958	         28.90944085	         34.23939314	         15.27811184	        122.84569554	        153.41676253	         98.91462720	         32.69712567	        175.43141631	         64.91889323	         18.44488302	         79.02438293	         34.91538606	        379.82264733	         22.38273167	        487.02248702	         76.76793927	         32.59925107	        186.02966386	         62.54972327	         -0.12429459	          0.03543730	         -0.08373521	          0.11146223	          0.31424732	          0.01083987	          0.24325823	          0.05934306	         -0.21517002	         -0.03325512	         -0.44827282	         -0.89014961	         -0.11547921	          0.08552483	        -21.84254383	         22.44453691	         -0.73284314	          7.10343812	          1.13557538	         -1.34102706	         -2.32139421	         -0.21730370	          0.00812754	          2.67508318	          1.36635456	         -0.07263905	         -0.03397706	
          2.50000000	         60.93485819	        120.49616478	         15.48090196	         17.01221724	         15.43466532	         13.53724395	         63.12420231	         31.97786579	         10.18905500	          4.56427032	         86.52971971	        338.47811887	        160.99122366	        498.56453002	          8.69828707	         13.07913499	         18.27612071	          6.30937732	         23.76327577	         67.06631938	          3.34440819	         24.33778588	          0.01490896	         49.89615925	        209.19774867	         69.54623222	        115.07908398	          0.01948532	        291.67478988	        215.97253810	         69.10216476	         87.56641055	         50.89876274	        486.70671828	         32.75754439	         33.22915122	        824.88593843	         18.12539810	         56.52542770	         28.08647831	         91.07263710	        144.81604186	          7.38382791	         11.30453929	          8.35705195	          3.01153800	         46.32718543	         33.03581600	        267.36427031	        164.08700137	         14.11599962	         28.89924789	        172.70254908	        476.16238594	         16.75105867	         27.95809368	         13.97654054	         94.86944363	         43.43980451	         35.73145458	         35.84862167	         37.03692352	         47.23094989	         20.60072234	         95.34210193	        134.23416248	         54.27912672	        148.70007169	        307.16929821	        185.44782404	         17.16705468	        101.59129145	         41.55314927	        433.66707983	         23.33578621	        543.83437819	         67.94961279	         60.21280703	        405.15484646	        125.36121173	         -0.17574221	          0.06569365	         -0.08214618	          0.13549114	          0.19285403	         -0.01656690	          0.08617141	          0.04633384	         -0.06763094	         -0.03053897	         -0.11880781	         -1.16045767	         -0.12294817	          0.01797797	        -21.71914701	         13.42869628	          2.01276297	         -2.64991645	          3.78877800	          2.76467048	         -6.22466382	          3.98431365	          0.18181935	          0.57679651	         -0.04769794	          0.12264634	         -0.01650157	
          2.55000000	         71.72369695	        150.76271388	         16.22529546	         17.61277219	         16.65108169	         14.28417623	         74.79704822	        108.87648948	         10.35395528	          4.76131491	         68.55890652	        268.36126677	        725.87199253	        519.75067118	        178.68012995	        281.36082446	         18.69415563	        184.14421286	        163.19399232	        172.63895789	         38.42552197	         32.72710006	          0.00577937	         56.66729427	        148.12356886	         66.88287165	        111.65602332	          0.32117111	        243.88267630	         50.49014466	         36.62234310	        748.85755293	         58.85751719	        412.51593487	         12.35130029	        235.85090523	        724.50261079	         13.43996294	         42.94097966	         21.23325518	         87.17868904	        100.25128310	          7.21877898	         11.69710856	          1.56944012	          1.28758331	         51.22882564	         32.18140475	        257.05269928	         94.00058388	         14.82055317	         29.31189379	        162.32789565	        449.31251565	         17.52997112	         30.04292281	         14.49959595	        116.13375288	         50.11575507	         37.34593643	         42.95165959	         44.91549960	         65.42969176	         12.16355497	        755.29251974	        113.04407714	         87.76253478	        342.52918155	       1264.96196578	        324.73984771	        117.72854455	        116.65219452	         45.48750523	        406.02841579	         33.97508176	        684.17442538	         70.39417727	        110.09158316	        844.41807858	        242.74466743	         -0.09959409	          0.06046764	         -0.05430679	          0.09497570	          0.05112522	         -0.05719396	         -0.01224128	          0.03926058	          0.11320187	          0.03443753	          0.13133625	         -0.87633408	         -0.12619390	          0.05094294	        -24.46052086	         -4.87549708	        -26.53419433	          1.26116997	          4.47304632	          2.32485733	        -24.38773358	          7.68606050	         -2.39119397	          2.39716505	         -5.64810689	          0.06215602	          0.03745942	
          2.60000000	         79.47822418	        183.09908611	         16.60056406	         17.48508307	         17.48019429	         15.16169807	         65.33121791	         40.26063009	         10.60084948	          5.13831441	         66.65369981	        249.68362117	        195.64664048	        514.87142740	         31.77767321	         50.82975030	         18.81539374	         32.68688917	         27.89642846	         31.31232770	         17.79169487	          6.24039019	          0.20489312	         60.88060551	        253.59615054	         56.87246266	         98.43530454	          0.74080820	        292.15494457	         68.18383457	         23.37139142	        172.76801678	         51.98022044	       1102.91354517	         10.08895600	         84.34035873	        664.88667625	         13.91123754	         43.48046691	         21.74994327	         18.12592420	         19.41704702	          7.56358679	         11.98420523	          1.80653774	          1.03246594	         50.52215599	         29.83782331	        187.13322047	         55.22088227	         14.80316483	         29.85516641	        132.33847202	        360.95865290	         17.71562398	         30.16225220	         14.97473630	        120.97834823	         53.75924327	         41.26211105	         42.96357403	         46.87793709	         75.47424649	         11.86208071	        176.07516234	         44.77257033	        243.47432110	        156.64297047	        596.34453720	        272.08743063	         39.90514282	        114.12729359	         44.87329816	        352.02829780	         24.21721270	        631.16497510	         76.38595450	         68.32445577	        406.19358785	        122.90406225	         -0.04032734	          0.03739540	          0.01803395	          0.05744675	         -0.06487363	         -0.07262152	         -0.14948273	          0.03509589	          0.10495805	          0.09758209	          0.16241090	         -0.27751568	         -0.13115309	          0.11678926	        -21.03639646	         17.59278796	         -7.69444004	          4.03294497	         -4.04956730	         -1.92223352	         12.68672585	         -2.95381415	          2.39882280	          1.37137573	          5.59114520	         -0.17333313	         -0.05217196	
          2.65000000	         78.72587930	        172.57596082	         16.20432054	         38.35199089	         16.74270494	         14.52016870	         63.24254681	         32.19002792	         11.81393858	          5.70472191	         30.98094200	        117.00944751	        196.28434645	        374.98718692	         44.53578547	         14.83947451	         18.44867124	         90.57047400	         74.27544283	         23.56923526	         28.64853354	          9.39071815	          0.45074881	         60.68165312	        158.24694129	         45.92864050	         83.34612051	          0.99080355	        252.50826326	         17.31815404	         11.68333096	         75.47186060	         57.28681853	        675.20993684	          4.69012917	         62.55635343	        455.36658421	         18.63318654	         54.07408199	         27.59811974	          6.40803361	          6.48274790	          7.79960263	         12.26627082	          2.19523983	          0.98062058	         49.04814040	         28.12906470	         27.56155586	         21.69204306	         37.68587330	         41.09552707	        116.51638902	        312.03697150	         17.77412717	         29.93025003	         15.38493148	        113.87188149	         54.25072868	         42.66948682	         38.70271865	         43.82703541	         75.49845372	         11.70133199	        239.87340875	         15.44878073	         55.08182863	         94.15213764	        407.73947206	        340.81981794	         39.03704890	        106.53596315	         42.72735858	        348.47280780	         96.03703580	        446.28414741	         73.41651614	         64.68401852	        400.03529807	        116.33556169	         -0.01670955	          0.00887240	          0.04457672	          0.00387326	         -0.07012324	         -0.02338512	         -0.12063754	          0.00933196	         -0.01862903	          0.14139867	          0.10207041	         -0.02408594	         -0.08255519	          0.03085262	        -32.14985760	         -6.74745297	         -9.86774910	         -9.02019364	         -3.64323579	          1.32194215	         -2.73319488	         -3.26017388	         -1.16684658	         -0.61709623	          2.24366991	          0.04772257	         -0.07135528	
          2.70000000	         71.45524760	        154.72364377	         14.02848990	         49.83560191	         14.36302794	         13.15856001	         52.09458140	         38.05355634	         14.93676749	          7.49407674	         51.21189664	        163.60549424	        135.20356478	        542.94105061	         10.09814962	         14.06180050	         16.50105284	        382.51425896	        170.72107966	          9.66835806	        118.30985868	         16.18795791	          1.03465755	         54.55748081	        197.89181150	         33.55830587	         63.75101553	          2.02162789	        252.10528318	         24.11227185	         11.95201125	       1156.58634453	         56.02980889	        867.84347580	         15.22106675	        220.87398201	        464.14780369	         16.06704421	         48.94820908	         24.19408876	         10.95532763	         42.15276880	          7.59809292	         11.24356337	          2.77193485	          1.71538083	         43.65922861	         27.43311006	         38.39206351	         17.35252324	         25.24484160	         59.81586913	        118.90296613	        319.50919305	         16.09745182	         26.07193489	         14.18650247	         97.95650751	         48.87861599	         38.67502289	         33.15728410	         37.60938485	         59.51037795	         11.94158105	        378.68720065	         15.64488364	         35.78628297	         22.65244107	        563.32702877	        460.06554936	         39.53568411	         90.25113917	         39.61374514	        385.63650877	         79.13416204	        284.68107826	        546.74072115	         65.51090680	        408.54523322	        118.01809755	          0.08980586	          0.02389436	          0.08183787	         -0.09816873	         -0.08373427	         -0.01829905	         -0.02898309	         -0.07180134	         -0.09814976	          0.33250587	         -0.05388821	          0.13546258	          0.02736304	          0.12995283	        -11.77423384	        -13.08319001	        -23.28661185	          8.85177138	         -5.34601611	         -2.21992131	         -7.62928175	         -0.76511954	         -1.61319201	         -0.83285874	          0.81080754	         -0.12352792	         -0.03898001	
          2.75000000	         74.39393248	        159.45888275	         30.37649638	         42.35888669	         27.00932938	         11.04328910	         32.81249644	         37.27873586	         17.02461825	         10.69957288	         27.13355094	         68.40042089	        134.56689313	        233.83436814	          9.85457074	         14.08048081	         13.20212374	        181.79380563	         38.24747432	         11.95856585	         37.80947768	          6.39825312	          2.84360497	         42.05760749	        243.31868068	         21.38144873	         39.71087297	          5.23952121	        264.43664700	         37.39916166	         12.49215791	        142.78799988	         41.80641572	        395.96428143	          7.52291740	         58.63680396	        254.16466901	         19.55141271	         58.01935947	         28.48222443	         11.51932799	         15.81056821	          7.92193725	         30.42878035	          4.57779617	          3.40900153	         45.41837365	         27.77549844	         13.21371298	         12.57919633	         36.81587539	        104.88913353	        128.82064264	        352.98334006	         34.25605027	        161.22246228	         15.45301984	        157.34295320	         36.87136364	         28.22527292	         40.40653081	         31.54970750	         31.98599095	         13.23930918	        135.57972723	         19.01226729	         42.87929473	         10.16614837	        182.75056492	        117.47057870	         14.62799447	        205.26986818	         49.79676058	        424.81443631	         19.57877453	        186.82029883	        379.92345097	         35.75030164	        155.03055816	         56.61231120	          0.23727740	          0.04642370	          0.18677558	         -0.23833578	         -0.12334410	         -0.05666684	          0.04482743	         -0.19425736	         -0.07844038	          0.38336819	         -0.17319664	          0.22251579	          0.04073749	         -0.10717359	          8.04786487	        -15.65557518	          6.19338059	        -11.45354304	         21.49501338	          1.06130653	         31.19365115	          9.88536814	         12.86536475	          8.34968023	          6.03463056	         -0.09736050	          0.28503257	
          2.80000000	         33.90433390	         66.69305728	          8.06878570	          8.93022800	          5.72988369	          7.13075010	         31.49415312	         25.25175661	        105.45396030	         23.90395859	         12.76616165	         21.56733670	         42.72387970	         87.42267191	         21.54129350	         37.81761428	         18.84190797	         50.04084359	         21.02621990	         20.75244308	         11.04745436	         11.66241716	          9.32613400	         26.21812788	        174.23541245	         25.19156076	        112.67303152	         16.92293201	        244.87289050	         56.59360209	         12.95692097	         31.86874955	         26.25750861	        133.00349997	         11.85707836	        209.82569968	         69.82349651	         36.77884791	        108.45517952	         52.42111253	         17.18165462	         25.14480214	          8.80625662	         10.17390813	          7.32472905	          6.80509515	         31.41018672	         28.67934205	          9.22360669	          8.80829306	         24.95323574	         67.43077430	        135.71153651	        392.30207466	         74.89823293	         90.18792182	         11.53810262	         91.06581342	        101.43572919	         99.54424382	         23.67527076	         30.20116760	         15.96929304	         16.35919967	        123.65876817	         25.40104769	         54.90531136	         42.79264222	        156.41365044	        104.23439899	         18.30602247	         70.30717192	         32.64716162	        433.06875456	         95.47409599	        160.77289620	        225.31750726	         27.40729190	         97.05227735	         42.20527422	          0.26387353	         -0.04568596	          0.32529903	         -0.38033934	         -0.10098071	         -0.00876517	          0.13129116	         -0.29225083	         -0.02061499	          0.08689980	         -0.26887188	          0.22106721	          0.03139618	         -0.31497133	         -4.19847798	        -12.78401342	          0.08999523	        -25.39102260	         -0.56837665	          3.11242636	         -1.95471129	         -4.68075938	         -0.99942193	         -4.00507596	          1.06454917	          0.25191512	          0.05348624	
          2.85000000	         17.85954507	         28.86447320	         16.61223027	         31.85783262	          5.81309894	          4.72529548	         69.92014452	         23.02879649	         82.95244854	         20.38765647	         13.86593688	         22.90234263	         34.50190044	         78.33431405	         17.83595913	         52.33069022	         33.18166828	        139.09973875	         27.53439448	         21.72737061	         21.46771968	         12.77488891	         13.23955556	         16.07467398	        158.34492161	         37.98724801	         86.95756651	         19.98798728	        217.07222010	         73.30367219	         13.26619392	        258.36838510	         41.96751628	        118.67133481	         17.49334342	        187.06619899	         58.31549693	         45.67682706	        177.24095778	         71.16769874	         25.45001377	         41.02509208	         10.15791450	         11.30854994	          9.36915052	         33.80953072	         33.67919182	         43.42684363	          9.97620979	          4.86575133	         35.64711764	        141.44324764	        380.18024430	        519.40640717	         15.39641303	         19.72320290	         12.47347213	         25.08577169	         31.69819689	        152.54165651	          8.88339389	          8.85209978	          9.55208941	         22.18707877	        151.15852485	         33.07400312	         67.36186001	          7.22514908	        324.53585950	        588.79691952	         64.20764224	         62.66741371	         33.57013683	        473.77236780	         12.44994557	         73.76209213	        383.63560711	         13.78900614	         42.77352960	         21.42668693	          0.16247056	         -0.13826387	          0.28227493	         -0.30605102	         -0.03426968	          0.12187940	          0.10134329	         -0.22375517	          0.03217694	         -0.13192132	         -0.19674199	          0.12081150	          0.11512553	         -0.17009021	         -8.82603095	        -19.11228479	         -9.30067374	         35.15886519	        -44.35537474	         -9.92891783	        -24.46370548	        -51.47351549	        -11.72165276	         11.92040165	        -10.78617394	         -0.45105905	         -0.38044761	
          2.90000000	         12.60487805	         17.13645967	         14.19238553	         30.32685703	          4.56787341	          4.35703859	         57.64461084	         24.34745280	         74.39615191	         22.27961662	         15.17602073	         25.90951973	         45.88890277	        107.28308846	         16.74942196	         54.13413142	         23.01461418	        118.13744236	         35.49338462	         25.72397736	         25.61165885	         19.93756515	         17.23207713	         12.90618292	        141.84205104	         40.53351022	        129.68297381	         19.87927282	        187.95082040	         65.57463247	         12.86302936	        189.82950892	         46.83159478	        163.98156950	         21.14195594	        262.87951984	         66.79168675	         41.79368853	        134.48863933	         65.35198300	         33.32050198	         59.93093252	         10.62337168	         11.88485170	          9.84444186	        136.95134768	         35.13978487	         52.23950151	         10.76401301	          5.47169305	         23.71359756	         67.74342271	        258.03529014	        727.03638981	          9.35653638	         13.64061097	         12.53275627	         16.23237560	         11.16135208	        297.48241981	          7.46196384	          7.66969109	         28.55125234	         27.76854455	        175.71152254	         37.51999370	         73.67656585	          0.02756469	        490.65155723	        605.01043036	        104.21595655	         65.39073460	         35.07540857	        586.98371489	         59.37946054	         86.34713653	        244.62389982	         14.01398905	         43.82577097	         21.77336122	          0.07753455	         -0.13695511	          0.13237340	         -0.14142176	          0.01726700	          0.15335078	          0.04938298	          0.04696449	          0.06014410	         -0.21863752	         -0.08375284	          0.04929504	          0.11669507	         -0.09253405	        -11.60457144	        -12.74421121	         -4.99954482	         10.86080750	         -2.56970673	          2.14362049	         25.35177113	          5.24990987	         -3.94634682	          4.51469374	          5.97429620	         -0.02319408	         -0.39385725	
          2.95000000	         21.00628481	         47.64365166	         12.22475275	          2.72852570	          8.41812938	          7.53213448	        126.39878969	         19.75135586	         20.41898397	          5.99950520	         11.22028153	         14.60497691	         12.83182611	          0.28596970	         12.00459370	         12.30176516	         27.82994601	         31.94439492	         19.57568143	         20.77711888	         13.58102541	         15.91017341	         16.73788972	         11.88092708	        123.15157894	         12.39725770	         29.64854632	         33.12265885	        162.70622998	         55.58298116	         11.92125135	         56.77744190	         15.92986725	          0.27835092	         16.03353586	         48.92584291	         43.84999853	          8.33296614	        143.60922745	         15.65997777	         36.50017655	         64.75299500	          5.93558785	          1.50863273	          7.08831541	         94.25106683	         14.36589750	         27.99128317	          1.33457553	          2.23475076	         30.19324233	        107.31878143	        253.20264258	        592.62284836	          3.24180647	          2.33274255	         23.21392371	          4.20351199	          4.70139849	         55.96432707	          5.49776321	          3.62253972	          1.91645285	         29.60415789	        171.25748883	         29.76072546	         56.63363766	          0.04739148	        255.36297170	        213.69027988	         21.74530268	          0.17446118	         27.55936240	        523.18625035	          1.09812513	          4.17133279	        277.55680677	          0.13662014	          0.17823739	          0.14867480	          0.04163022	         -0.13143583	          0.07212006	         -0.08701146	          0.01457537	          0.10652319	         -0.01293268	          0.17617059	         -0.00576131	         -0.24637988	          0.00283253	         -0.01284705	          0.08364744	         -0.07467748	        -16.29710424	        -20.84775086	         -1.83087444	         11.24369791	          1.70106004	          1.98848275	          2.28830673	         -5.04912204	         -0.39433305	          4.47028630	         -1.11313760	         -0.05907615	          0.04789449	
