D:\Personal\AI_projectstuff\for_comparison\opencap-processing-grf\OpenCapData_ab7eb7cf-817d-4035-a30b-ee68773906cb\OpenSimData\Dynamics\Suhasno_1\GRF_Suhasno_1_Suhasno_1_window_1.mot
version=1
nRows=20
nColumns=109
inDegrees=yes
endheader 
time	ground_force_SmoothSphereHalfSpaceForce_s1_r_vx	ground_force_SmoothSphereHalfSpaceForce_s1_r_vy	ground_force_SmoothSphereHalfSpaceForce_s1_r_vz	ground_force_SmoothSphereHalfSpaceForce_s1_r_px	ground_force_SmoothSphereHalfSpaceForce_s1_r_py	ground_force_SmoothSphereHalfSpaceForce_s1_r_pz	ground_torque_SmoothSphereHalfSpaceForce_s1_r_x	ground_torque_SmoothSphereHalfSpaceForce_s1_r_y	ground_torque_SmoothSphereHalfSpaceForce_s1_r_z	ground_force_SmoothSphereHalfSpaceForce_s2_r_vx	ground_force_SmoothSphereHalfSpaceForce_s2_r_vy	ground_force_SmoothSphereHalfSpaceForce_s2_r_vz	ground_force_SmoothSphereHalfSpaceForce_s2_r_px	ground_force_SmoothSphereHalfSpaceForce_s2_r_py	ground_force_SmoothSphereHalfSpaceForce_s2_r_pz	ground_torque_SmoothSphereHalfSpaceForce_s2_r_x	ground_torque_SmoothSphereHalfSpaceForce_s2_r_y	ground_torque_SmoothSphereHalfSpaceForce_s2_r_z	ground_force_SmoothSphereHalfSpaceForce_s3_r_vx	ground_force_SmoothSphereHalfSpaceForce_s3_r_vy	ground_force_SmoothSphereHalfSpaceForce_s3_r_vz	ground_force_SmoothSphereHalfSpaceForce_s3_r_px	ground_force_SmoothSphereHalfSpaceForce_s3_r_py	ground_force_SmoothSphereHalfSpaceForce_s3_r_pz	ground_torque_SmoothSphereHalfSpaceForce_s3_r_x	ground_torque_SmoothSphereHalfSpaceForce_s3_r_y	ground_torque_SmoothSphereHalfSpaceForce_s3_r_z	ground_force_SmoothSphereHalfSpaceForce_s4_r_vx	ground_force_SmoothSphereHalfSpaceForce_s4_r_vy	ground_force_SmoothSphereHalfSpaceForce_s4_r_vz	ground_force_SmoothSphereHalfSpaceForce_s4_r_px	ground_force_SmoothSphereHalfSpaceForce_s4_r_py	ground_force_SmoothSphereHalfSpaceForce_s4_r_pz	ground_torque_SmoothSphereHalfSpaceForce_s4_r_x	ground_torque_SmoothSphereHalfSpaceForce_s4_r_y	ground_torque_SmoothSphereHalfSpaceForce_s4_r_z	ground_force_SmoothSphereHalfSpaceForce_s5_r_vx	ground_force_SmoothSphereHalfSpaceForce_s5_r_vy	ground_force_SmoothSphereHalfSpaceForce_s5_r_vz	ground_force_SmoothSphereHalfSpaceForce_s5_r_px	ground_force_SmoothSphereHalfSpaceForce_s5_r_py	ground_force_SmoothSphereHalfSpaceForce_s5_r_pz	ground_torque_SmoothSphereHalfSpaceForce_s5_r_x	ground_torque_SmoothSphereHalfSpaceForce_s5_r_y	ground_torque_SmoothSphereHalfSpaceForce_s5_r_z	ground_force_SmoothSphereHalfSpaceForce_s6_r_vx	ground_force_SmoothSphereHalfSpaceForce_s6_r_vy	ground_force_SmoothSphereHalfSpaceForce_s6_r_vz	ground_force_SmoothSphereHalfSpaceForce_s6_r_px	ground_force_SmoothSphereHalfSpaceForce_s6_r_py	ground_force_SmoothSphereHalfSpaceForce_s6_r_pz	ground_torque_SmoothSphereHalfSpaceForce_s6_r_x	ground_torque_SmoothSphereHalfSpaceForce_s6_r_y	ground_torque_SmoothSphereHalfSpaceForce_s6_r_z	ground_force_SmoothSphereHalfSpaceForce_s1_l_vx	ground_force_SmoothSphereHalfSpaceForce_s1_l_vy	ground_force_SmoothSphereHalfSpaceForce_s1_l_vz	ground_force_SmoothSphereHalfSpaceForce_s1_l_px	ground_force_SmoothSphereHalfSpaceForce_s1_l_py	ground_force_SmoothSphereHalfSpaceForce_s1_l_pz	ground_torque_SmoothSphereHalfSpaceForce_s1_l_x	ground_torque_SmoothSphereHalfSpaceForce_s1_l_y	ground_torque_SmoothSphereHalfSpaceForce_s1_l_z	ground_force_SmoothSphereHalfSpaceForce_s2_l_vx	ground_force_SmoothSphereHalfSpaceForce_s2_l_vy	ground_force_SmoothSphereHalfSpaceForce_s2_l_vz	ground_force_SmoothSphereHalfSpaceForce_s2_l_px	ground_force_SmoothSphereHalfSpaceForce_s2_l_py	ground_force_SmoothSphereHalfSpaceForce_s2_l_pz	ground_torque_SmoothSphereHalfSpaceForce_s2_l_x	ground_torque_SmoothSphereHalfSpaceForce_s2_l_y	ground_torque_SmoothSphereHalfSpaceForce_s2_l_z	ground_force_SmoothSphereHalfSpaceForce_s3_l_vx	ground_force_SmoothSphereHalfSpaceForce_s3_l_vy	ground_force_SmoothSphereHalfSpaceForce_s3_l_vz	ground_force_SmoothSphereHalfSpaceForce_s3_l_px	ground_force_SmoothSphereHalfSpaceForce_s3_l_py	ground_force_SmoothSphereHalfSpaceForce_s3_l_pz	ground_torque_SmoothSphereHalfSpaceForce_s3_l_x	ground_torque_SmoothSphereHalfSpaceForce_s3_l_y	ground_torque_SmoothSphereHalfSpaceForce_s3_l_z	ground_force_SmoothSphereHalfSpaceForce_s4_l_vx	ground_force_SmoothSphereHalfSpaceForce_s4_l_vy	ground_force_SmoothSphereHalfSpaceForce_s4_l_vz	ground_force_SmoothSphereHalfSpaceForce_s4_l_px	ground_force_SmoothSphereHalfSpaceForce_s4_l_py	ground_force_SmoothSphereHalfSpaceForce_s4_l_pz	ground_torque_SmoothSphereHalfSpaceForce_s4_l_x	ground_torque_SmoothSphereHalfSpaceForce_s4_l_y	ground_torque_SmoothSphereHalfSpaceForce_s4_l_z	ground_force_SmoothSphereHalfSpaceForce_s5_l_vx	ground_force_SmoothSphereHalfSpaceForce_s5_l_vy	ground_force_SmoothSphereHalfSpaceForce_s5_l_vz	ground_force_SmoothSphereHalfSpaceForce_s5_l_px	ground_force_SmoothSphereHalfSpaceForce_s5_l_py	ground_force_SmoothSphereHalfSpaceForce_s5_l_pz	ground_torque_SmoothSphereHalfSpaceForce_s5_l_x	ground_torque_SmoothSphereHalfSpaceForce_s5_l_y	ground_torque_SmoothSphereHalfSpaceForce_s5_l_z	ground_force_SmoothSphereHalfSpaceForce_s6_l_vx	ground_force_SmoothSphereHalfSpaceForce_s6_l_vy	ground_force_SmoothSphereHalfSpaceForce_s6_l_vz	ground_force_SmoothSphereHalfSpaceForce_s6_l_px	ground_force_SmoothSphereHalfSpaceForce_s6_l_py	ground_force_SmoothSphereHalfSpaceForce_s6_l_pz	ground_torque_SmoothSphereHalfSpaceForce_s6_l_x	ground_torque_SmoothSphereHalfSpaceForce_s6_l_y	ground_torque_SmoothSphereHalfSpaceForce_s6_l_z	
          1.00000000	          0.00000000	         -0.00000000	          0.00000000	          0.97865034	          0.01909868	         -0.00681646	          0.00000000	          0.00000000	          0.00000000	         -8.10626969	          6.73073970	          0.46026004	          1.08545163	         -0.00245490	          0.01097700	          0.00000000	          0.00000000	          0.00000000	          0.00001474	         -0.00001189	         -0.00000050	          1.06133708	          0.00929487	          0.06559817	          0.00000000	          0.00000000	          0.00000000	          0.00000009	         -0.00000007	          0.00000000	          1.01873305	          0.01465064	          0.03087997	          0.00000000	          0.00000000	          0.00000000	        -11.29621496	         10.28984166	          2.75252761	          1.14414673	         -0.00046260	          0.03127001	          0.00000000	          0.00000000	          0.00000000	         -0.00000003	          0.00000003	          0.00000001	          1.12305057	          0.02017985	          0.07584601	          0.00000000	          0.00000000	          0.00000000	         75.63250263	        243.85906570	         47.82186009	          1.15653701	         -0.03149930	         -0.26675354	          0.00000000	          0.00000000	          0.00000000	         26.61875016	         82.35628619	         -1.55166977	          1.27271865	         -0.02744488	         -0.26257930	          0.00000000	          0.00000000	          0.00000000	         16.90894844	         81.71959099	          1.70837180	          1.25302909	         -0.03220485	         -0.32290264	          0.00000000	          0.00000000	          0.00000000	         42.77657096	        167.69035366	         18.57799046	          1.20360127	         -0.03201134	         -0.29659801	          0.00000000	          0.00000000	          0.00000000	          0.71000678	          2.47831382	         -0.27434509	          1.32994053	         -0.02763358	         -0.27831611	          0.00000000	          0.00000000	          0.00000000	         -1.90594930	        -10.95858504	          0.77574526	          1.31055023	         -0.03262063	         -0.33882267	          0.00000000	          0.00000000	          0.00000000	
          1.05000000	         -0.00000001	          0.00000000	          0.00000000	          1.04293896	          0.02173915	         -0.00825357	          0.00000000	          0.00000000	          0.00000000	         -2.85497651	          1.63925913	          0.04838111	          1.15131901	          0.00212941	          0.00897853	          0.00000000	          0.00000000	          0.00000000	         -0.00001629	          0.00000947	          0.00000040	          1.12747906	          0.01446059	          0.06320617	          0.00000000	          0.00000000	          0.00000000	         -0.00000024	          0.00000014	          0.00000001	          1.08394800	          0.01856036	          0.02895697	          0.00000000	          0.00000000	          0.00000000	         -7.39091722	          4.43246109	          0.32043028	          1.20821241	          0.00044324	          0.03313235	          0.00000000	          0.00000000	          0.00000000	         -0.00000055	          0.00000034	          0.00000003	          1.18718187	          0.01782850	          0.08298449	          0.00000000	          0.00000000	          0.00000000	         16.42924991	         76.89698434	         13.94065558	          1.15334913	         -0.02430809	         -0.26833727	          0.00000000	          0.00000000	          0.00000000	         20.13626583	         92.01380887	          3.12846811	          1.26941371	         -0.02004925	         -0.26218819	          0.00000000	          0.00000000	          0.00000000	         19.72734187	        137.13026573	          7.64203553	          1.25078196	         -0.02480900	         -0.32284666	          0.00000000	          0.00000000	          0.00000000	         19.08856131	        108.11644163	         12.96464114	          1.20091503	         -0.02471888	         -0.29738199	          0.00000000	          0.00000000	          0.00000000	          7.25975246	         52.30823158	          2.02516318	          1.32705258	         -0.01971576	         -0.27725826	          0.00000000	          0.00000000	          0.00000000	          0.97696995	         11.32841553	          0.70104341	          1.30867561	         -0.02432110	         -0.33820053	          0.00000000	          0.00000000	          0.00000000	
          1.10000000	         -0.00014465	          0.00007019	          0.00001565	          1.14363783	          0.01366228	         -0.01940647	          0.00000000	          0.00000000	          0.00000000	         -3.62895234	          1.76015628	          0.04141733	          1.25544727	          0.00257022	          0.00483938	          0.00000000	          0.00000000	          0.00000000	         -0.00027719	          0.00013994	          0.00001085	          1.22461925	          0.01259200	          0.05742360	          0.00000000	          0.00000000	          0.00000000	         -0.00014242	          0.00007055	          0.00001086	          1.18264700	          0.01347589	          0.02040471	          0.00000000	          0.00000000	          0.00000000	         -2.69049614	          1.35032333	         -0.03318311	          1.30905175	          0.00225459	          0.03404601	          0.00000000	          0.00000000	          0.00000000	         -0.00001361	          0.00000718	          0.00000017	          1.27948603	          0.01517252	          0.08498604	          0.00000000	          0.00000000	          0.00000000	          2.55360825	         38.07894424	          8.86659803	          1.15134931	         -0.01659118	         -0.27030786	          0.00000000	          0.00000000	          0.00000000	          5.42725060	         73.14245350	          3.53014275	          1.26740352	         -0.01309436	         -0.26231674	          0.00000000	          0.00000000	          0.00000000	         -1.92291657	        120.85386029	          8.90749149	          1.24963402	         -0.01793875	         -0.32320668	          0.00000000	          0.00000000	          0.00000000	          1.81013793	         78.95498331	         12.23680142	          1.19936619	         -0.01742374	         -0.29856369	          0.00000000	          0.00000000	          0.00000000	         -2.69825556	         58.21956167	          3.89392739	          1.32555130	         -0.01245115	         -0.27696254	          0.00000000	          0.00000000	          0.00000000	         -4.91902961	         44.55848678	          4.15802080	          1.30793635	         -0.01645405	         -0.33829874	          0.00000000	          0.00000000	          0.00000000	
          1.15000000	         -3.64163598	          1.79831128	          0.29497303	          1.25989809	          0.00340991	         -0.03079491	          0.00000000	          0.00000000	          0.00000000	         -0.49348992	          0.24974094	         -0.01912199	          1.37022492	          0.00419921	          0.00671304	          0.00000000	          0.00000000	          0.00000000	         -0.00874222	          0.00459900	          0.00003875	          1.32977187	          0.00915140	          0.05552559	          0.00000000	          0.00000000	          0.00000000	         -0.18794171	          0.09581658	          0.00879360	          1.29308234	          0.00642000	          0.01358242	          0.00000000	          0.00000000	          0.00000000	         -0.00453999	          0.00238374	         -0.00034505	          1.41847119	          0.00732765	          0.04250777	          0.00000000	          0.00000000	          0.00000000	         -0.00003750	          0.00002054	         -0.00000131	          1.37823424	          0.01392790	          0.09091484	          0.00000000	          0.00000000	          0.00000000	         -2.78276286	         76.90655627	         16.51669000	          1.15174876	         -0.00990012	         -0.27292425	          0.00000000	          0.00000000	          0.00000000	         -1.37398568	         57.94553150	          2.57673093	          1.26772367	         -0.00716703	         -0.26285996	          0.00000000	          0.00000000	          0.00000000	        -11.67228065	        107.32515240	          7.80848274	          1.25091673	         -0.01186526	         -0.32406817	          0.00000000	          0.00000000	          0.00000000	         -6.96355990	         92.84761470	         13.50699374	          1.20023557	         -0.01103321	         -0.30032276	          0.00000000	          0.00000000	          0.00000000	         -4.94534798	         43.02584259	          1.44788779	          1.32634092	         -0.00623971	         -0.27686909	          0.00000000	          0.00000000	          0.00000000	        -10.55917771	         57.03428402	          3.44059330	          1.30959854	         -0.00950101	         -0.33862391	          0.00000000	          0.00000000	          0.00000000	
          1.20000000	        -49.50443839	         31.35678294	          8.91474429	          1.35451177	         -0.00159905	         -0.03878545	          0.00000000	          0.00000000	          0.00000000	         -0.02316674	          0.01494752	          0.00244576	          1.45916159	          0.00760768	          0.00907591	          0.00000000	          0.00000000	          0.00000000	         -0.01896500	          0.01248238	          0.00276322	          1.41340815	          0.00812214	          0.05405120	          0.00000000	          0.00000000	          0.00000000	         -2.12940797	          1.37533261	          0.35173344	          1.38208360	          0.00322802	          0.00868430	          0.00000000	          0.00000000	          0.00000000	         -0.00005848	          0.00003858	          0.00000580	          1.50230227	          0.01309503	          0.04930199	          0.00000000	          0.00000000	          0.00000000	         -0.00001906	          0.00001283	          0.00000264	          1.45645625	          0.01451725	          0.09431933	          0.00000000	          0.00000000	          0.00000000	         19.56292158	         83.20025236	         20.44674505	          1.15089481	         -0.00594739	         -0.27530971	          0.00000000	          0.00000000	          0.00000000	         10.30562175	         40.75338245	          2.94198698	          1.26671377	         -0.00349791	         -0.26333825	          0.00000000	          0.00000000	          0.00000000	         18.51611966	        114.25243720	         11.55720363	          1.25084997	         -0.00779018	         -0.32491631	          0.00000000	          0.00000000	          0.00000000	         19.84351320	        101.30855512	         17.74993245	          1.19980336	         -0.00700605	         -0.30196031	          0.00000000	          0.00000000	          0.00000000	          4.48568837	         22.26499139	          0.34981144	          1.32564797	         -0.00224872	         -0.27657684	          0.00000000	          0.00000000	          0.00000000	          6.11146501	         52.45155003	          2.20351450	          1.30979190	         -0.00478884	         -0.33869999	          0.00000000	          0.00000000	          0.00000000	
          1.25000000	       -112.05648006	         97.53295079	         35.84495504	          1.41207523	         -0.00424994	         -0.05091849	          0.00000000	          0.00000000	          0.00000000	         -0.03535507	          0.03078436	          0.01283278	          1.51469330	          0.00734338	         -0.00078607	          0.00000000	          0.00000000	          0.00000000	         -0.08081681	          0.06945575	          0.02697634	          1.46805803	          0.00650672	          0.04325441	          0.00000000	          0.00000000	          0.00000000	         -6.71275725	          5.80363968	          2.18787302	          1.43817541	          0.00104316	         -0.00281966	          0.00000000	          0.00000000	          0.00000000	         -0.00007113	          0.00006221	          0.00002872	          1.55648445	          0.01324607	          0.04027670	          0.00000000	          0.00000000	          0.00000000	         -0.00010449	          0.00009000	          0.00003874	          1.50980769	          0.01291321	          0.08451861	          0.00000000	          0.00000000	          0.00000000	         45.14376448	         85.85219131	         10.71488166	          1.14678602	         -0.00481005	         -0.27664598	          0.00000000	          0.00000000	          0.00000000	         24.30070109	         45.36053271	          0.90631594	          1.26245848	         -0.00277030	         -0.26305965	          0.00000000	          0.00000000	          0.00000000	         62.72250625	        129.23689897	          5.25616677	          1.24737211	         -0.00645971	         -0.32498837	          0.00000000	          0.00000000	          0.00000000	         55.21368134	        109.53613393	          9.18893365	          1.19603334	         -0.00575251	         -0.30268313	          0.00000000	          0.00000000	          0.00000000	         10.28117195	         20.80091952	         -0.14325131	          1.32162412	         -0.00136312	         -0.27556054	          0.00000000	          0.00000000	          0.00000000	         21.13880457	         47.29826152	          0.44406475	          1.30652611	         -0.00312674	         -0.33797943	          0.00000000	          0.00000000	          0.00000000	
          1.30000000	         25.51659007	        211.95103888	         -4.64793741	          1.43156819	         -0.00728166	         -0.05779312	          0.00000000	          0.00000000	          0.00000000	         -0.38521093	          2.72443105	          1.19640827	          1.53648799	          0.00273676	         -0.01119149	          0.00000000	          0.00000000	          0.00000000	         -0.97341617	          2.82946143	          0.67300917	          1.49135426	          0.00257380	          0.03441610	          0.00000000	          0.00000000	          0.00000000	         -6.12382546	         52.64894770	          5.24941298	          1.45960141	         -0.00241136	         -0.01061214	          0.00000000	          0.00000000	          0.00000000	         -0.01018360	          0.03073492	          0.02063904	          1.58000607	          0.00773561	          0.02834499	          0.00000000	          0.00000000	          0.00000000	         -0.01369436	          0.02533903	          0.01182227	          1.53493008	          0.00786289	          0.07422090	          0.00000000	          0.00000000	          0.00000000	         16.34983337	         59.05993281	          3.33622824	          1.14309425	         -0.00419732	         -0.27748560	          0.00000000	          0.00000000	          0.00000000	         15.83069128	         58.18801342	          4.53897551	          1.25877054	         -0.00346147	         -0.26340800	          0.00000000	          0.00000000	          0.00000000	         35.74516243	        122.33245822	          9.72599793	          1.24378465	         -0.00637015	         -0.32552719	          0.00000000	          0.00000000	          0.00000000	         25.42300794	         89.16464064	          6.05668577	          1.19239661	         -0.00537189	         -0.30338046	          0.00000000	          0.00000000	          0.00000000	          9.30834929	         38.29537789	          4.33860289	          1.31807939	         -0.00234689	         -0.27571132	          0.00000000	          0.00000000	          0.00000000	         13.13301299	         50.18657391	          5.57064351	          1.30312372	         -0.00316839	         -0.33824242	          0.00000000	          0.00000000	          0.00000000	
          1.35000000	         31.14754156	        205.53229477	        -41.03191992	          1.43144585	         -0.00894207	         -0.05640865	          0.00000000	          0.00000000	          0.00000000	         -4.50822479	         44.74254554	         16.52281480	          1.53971803	         -0.00224142	         -0.01543442	          0.00000000	          0.00000000	          0.00000000	        -10.03422639	         27.68818530	          3.85746473	          1.49719441	         -0.00151019	          0.03259489	          0.00000000	          0.00000000	          0.00000000	        -12.42625572	        111.26494238	         -4.43018393	          1.46251830	         -0.00524020	         -0.01073074	          0.00000000	          0.00000000	          0.00000000	         -2.09864025	          6.51926718	          3.89976014	          1.58582014	          0.00116211	          0.02173721	          0.00000000	          0.00000000	          0.00000000	         -2.06535224	          3.52738948	          1.30221388	          1.54341045	          0.00213075	          0.07005051	          0.00000000	          0.00000000	          0.00000000	         -0.13696958	          2.40809673	         -1.03393387	          1.14341171	         -0.00040535	         -0.27518228	          0.00000000	          0.00000000	          0.00000000	         -2.46472289	         28.04445492	          0.62508493	          1.25930058	         -0.00261393	         -0.26371028	          0.00000000	          0.00000000	          0.00000000	          9.12947104	         54.96415938	         -2.28403097	          1.24267495	         -0.00480447	         -0.32552943	          0.00000000	          0.00000000	          0.00000000	          1.07653359	         17.32637292	         -4.15282450	          1.19195186	         -0.00265676	         -0.30220752	          0.00000000	          0.00000000	          0.00000000	         -0.40103768	         42.94441228	          9.92817807	          1.31836606	         -0.00288688	         -0.27733486	          0.00000000	          0.00000000	          0.00000000	          9.62171830	         41.58716277	          6.98101832	          1.30196731	         -0.00297779	         -0.33952455	          0.00000000	          0.00000000	          0.00000000	
          1.40000000	         15.77444227	        161.53189576	        -38.65573637	          1.43070633	         -0.00831823	         -0.05332758	          0.00000000	          0.00000000	          0.00000000	         -6.48441608	         66.53702351	         23.73408050	          1.54163333	         -0.00392864	         -0.01869416	          0.00000000	          0.00000000	          0.00000000	        -17.41963389	         46.60943715	          6.53114807	          1.50211831	         -0.00295214	          0.03182277	          0.00000000	          0.00000000	          0.00000000	        -14.72471204	        101.53602382	         -5.99088217	          1.46468370	         -0.00562998	         -0.00947082	          0.00000000	          0.00000000	          0.00000000	         -7.26094827	         22.80229386	         12.72675516	          1.59010869	         -0.00153152	          0.01582787	          0.00000000	          0.00000000	          0.00000000	         -5.21903516	          8.77728800	          3.02374487	          1.55072092	         -0.00016382	          0.06659824	          0.00000000	          0.00000000	          0.00000000	         -0.00451370	          0.01271739	         -0.01124060	          1.14918594	          0.00624265	         -0.26567876	          0.00000000	          0.00000000	          0.00000000	         -5.00444014	         10.35803474	         -3.75941392	          1.26481847	         -0.00073742	         -0.26173136	          0.00000000	          0.00000000	          0.00000000	          0.25200568	         24.41452955	        -12.94746440	          1.24389459	         -0.00224398	         -0.32231456	          0.00000000	          0.00000000	          0.00000000	         -0.27201499	          1.19791106	         -1.04888416	          1.19532560	          0.00199241	         -0.29577292	          0.00000000	          0.00000000	          0.00000000	        -21.84954693	         64.90293431	          6.93554147	          1.32261083	         -0.00347495	         -0.27914772	          0.00000000	          0.00000000	          0.00000000	          6.82734346	         48.04816477	         -2.60828202	          1.30223357	         -0.00292291	         -0.34013999	          0.00000000	          0.00000000	          0.00000000	
          1.45000000	          9.11742231	        206.08070839	        -20.20125938	          1.42997467	         -0.00822260	         -0.05059122	          0.00000000	          0.00000000	          0.00000000	         -4.33456213	         87.73399400	         22.82043121	          1.54249516	         -0.00447819	         -0.02119045	          0.00000000	          0.00000000	          0.00000000	        -17.26042673	         78.66188808	         10.90600612	          1.50547523	         -0.00391620	          0.03120682	          0.00000000	          0.00000000	          0.00000000	        -12.78518318	        138.93065032	          2.07079009	          1.46606025	         -0.00607282	         -0.00832859	          0.00000000	          0.00000000	          0.00000000	         -6.79637960	         35.13691579	         12.21421841	          1.59267227	         -0.00221687	          0.01116987	          0.00000000	          0.00000000	          0.00000000	         -6.00514430	         16.65793421	          3.81179008	          1.55575338	         -0.00096370	          0.06377428	          0.00000000	          0.00000000	          0.00000000	          0.00000185	          0.00000791	         -0.00000712	          1.15478485	          0.01316906	         -0.25239249	          0.00000000	          0.00000000	          0.00000000	          3.19707763	          7.03432403	         -4.26371435	          1.26826614	          0.00006570	         -0.25646086	          0.00000000	          0.00000000	          0.00000000	          5.14392671	          7.90178219	         -5.07586568	          1.24287398	         -0.00041633	         -0.31538048	          0.00000000	          0.00000000	          0.00000000	          0.01211147	          0.02703682	         -0.02168895	          1.19749659	          0.00643134	         -0.28557237	          0.00000000	          0.00000000	          0.00000000	         46.10663420	        114.82198126	        -17.10613841	          1.32420417	         -0.00511083	         -0.27815811	          0.00000000	          0.00000000	          0.00000000	         26.37866921	         42.13359067	        -10.83527822	          1.29988886	         -0.00296402	         -0.33754531	          0.00000000	          0.00000000	          0.00000000	
          1.50000000	         46.95518394	        141.20596348	         -9.29086716	          1.42879903	         -0.00802687	         -0.04845448	          0.00000000	          0.00000000	          0.00000000	         29.38447728	        102.68014191	          9.48106279	          1.54211108	         -0.00528790	         -0.02177640	          0.00000000	          0.00000000	          0.00000000	         25.69933514	        124.79136225	          4.97952843	          1.50648625	         -0.00560563	          0.03158726	          0.00000000	          0.00000000	          0.00000000	         37.15666939	        139.08386022	         -2.12772721	          1.46601420	         -0.00683987	         -0.00702768	          0.00000000	          0.00000000	          0.00000000	          8.94649833	         58.12387693	          1.26420334	          1.59326162	         -0.00326815	          0.00963042	          0.00000000	          0.00000000	          0.00000000	          3.26266101	         40.83330281	         -1.16644613	          1.55767245	         -0.00238681	          0.06317305	          0.00000000	          0.00000000	          0.00000000	          0.00000000	         -0.00000000	          0.00000000	          1.15955919	          0.02273032	         -0.24229751	          0.00000000	          0.00000000	          0.00000000	          0.03414126	          0.19413300	         -0.12754635	          1.26922846	          0.00329273	         -0.24883362	          0.00000000	          0.00000000	          0.00000000	         -0.00019879	         -0.00232474	          0.00145205	          1.24280085	          0.00457974	         -0.30724738	          0.00000000	          0.00000000	          0.00000000	         -0.00000000	         -0.00000000	          0.00000000	          1.19983725	          0.01379459	         -0.27643069	          0.00000000	          0.00000000	          0.00000000	         17.65906077	         49.41903943	        -40.81341242	          1.32343364	         -0.00465440	         -0.27182723	          0.00000000	          0.00000000	          0.00000000	          1.30908048	          4.78769122	         -3.86877325	          1.29875946	         -0.00057704	         -0.33065915	          0.00000000	          0.00000000	          0.00000000	
          1.55000000	         26.12063866	         65.10735008	        -26.06203737	          1.42631771	         -0.00577163	         -0.04327665	          0.00000000	          0.00000000	          0.00000000	         22.02886661	         71.12321865	          1.88483801	          1.54039016	         -0.00490841	         -0.01948915	          0.00000000	          0.00000000	          0.00000000	         15.17836294	        142.64850150	        -12.83363955	          1.50620878	         -0.00672233	          0.03469280	          0.00000000	          0.00000000	          0.00000000	         25.50411817	        102.67843773	        -25.74665717	          1.46467263	         -0.00630408	         -0.00284707	          0.00000000	          0.00000000	          0.00000000	          6.35376043	         54.17182434	          4.79639135	          1.59257202	         -0.00364865	          0.01101159	          0.00000000	          0.00000000	          0.00000000	         -4.91819150	         62.87469859	         -2.16438656	          1.55836155	         -0.00361388	          0.06547395	          0.00000000	          0.00000000	          0.00000000	          0.00000000	         -0.00000000	         -0.00000000	          1.18321545	          0.03666117	         -0.24340390	          0.00000000	          0.00000000	          0.00000000	          0.00000000	         -0.00000000	         -0.00000000	          1.28919771	          0.01264908	         -0.24994511	          0.00000000	          0.00000000	          0.00000000	          0.00000000	         -0.00000000	         -0.00000000	          1.26414199	          0.01623724	         -0.30857891	          0.00000000	          0.00000000	          0.00000000	          0.00000000	         -0.00000000	         -0.00000000	          1.22239510	          0.02667951	         -0.27765599	          0.00000000	          0.00000000	          0.00000000	          0.00048775	         -0.00045323	         -0.00014799	          1.34116716	          0.00189524	         -0.27242409	          0.00000000	          0.00000000	          0.00000000	          0.00000005	         -0.00000005	         -0.00000001	          1.31779670	          0.00730025	         -0.33136028	          0.00000000	          0.00000000	          0.00000000	
          1.60000000	          5.03044912	         23.68105333	         -8.74589663	          1.42319693	         -0.00253649	         -0.03742331	          0.00000000	          0.00000000	          0.00000000	          7.44292437	         49.00846404	          0.46876186	          1.53811443	         -0.00353097	         -0.01815257	          0.00000000	          0.00000000	          0.00000000	         -2.78026606	        135.49586004	        -10.98634966	          1.50598314	         -0.00678816	          0.03700498	          0.00000000	          0.00000000	          0.00000000	          6.21695298	         68.11137545	        -15.65346007	          1.46305438	         -0.00475147	          0.00128772	          0.00000000	          0.00000000	          0.00000000	          0.37125492	         48.55311847	          4.96675656	          1.59159045	         -0.00319345	          0.01063357	          0.00000000	          0.00000000	          0.00000000	        -11.75426699	         72.04335227	          0.37483977	          1.55942619	         -0.00410489	          0.06629907	          0.00000000	          0.00000000	          0.00000000	         -0.00000000	         -0.00000000	          0.00000000	          1.24525822	          0.04635063	         -0.25058496	          0.00000000	          0.00000000	          0.00000000	         -0.00000001	          0.00000000	          0.00000000	          1.34964027	          0.02096144	         -0.26094321	          0.00000000	          0.00000000	          0.00000000	         -0.00000000	          0.00000000	          0.00000000	          1.32422448	          0.02650503	         -0.31880792	          0.00000000	          0.00000000	          0.00000000	         -0.00000000	         -0.00000000	          0.00000000	          1.28345572	          0.03672204	         -0.28631866	          0.00000000	          0.00000000	          0.00000000	         -0.00283046	          0.00176769	          0.00045418	          1.39952194	          0.00917101	         -0.28477083	          0.00000000	          0.00000000	          0.00000000	         -0.00000213	          0.00000135	          0.00000032	          1.37521497	          0.01564895	         -0.34288990	          0.00000000	          0.00000000	          0.00000000	
          1.65000000	         -1.11985052	          6.81820773	          0.67194153	          1.42326532	         -0.00011742	         -0.03586506	          0.00000000	          0.00000000	          0.00000000	         -6.23872905	         50.81454721	         -5.56390841	          1.53824662	         -0.00307345	         -0.01781801	          0.00000000	          0.00000000	          0.00000000	         -1.58340178	        146.25744006	         -6.82099354	          1.50644068	         -0.00676755	          0.03741792	          0.00000000	          0.00000000	          0.00000000	         -4.55092377	         53.85107529	          1.55484395	          1.46332644	         -0.00353397	          0.00228202	          0.00000000	          0.00000000	          0.00000000	         -7.17036249	         67.05981861	        -17.95031887	          1.59206254	         -0.00359353	          0.01064162	          0.00000000	          0.00000000	          0.00000000	          0.40739224	         89.58421049	        -18.42948109	          1.56030872	         -0.00461121	          0.06653492	          0.00000000	          0.00000000	          0.00000000	         -0.00000000	         -0.00000000	          0.00000000	          1.33898673	          0.04324824	         -0.25909230	          0.00000000	          0.00000000	          0.00000000	         -0.00000005	          0.00000003	          0.00000001	          1.44431285	          0.02035992	         -0.27889774	          0.00000000	          0.00000000	          0.00000000	         -0.00000000	          0.00000000	          0.00000000	          1.41465213	          0.02680550	         -0.33431680	          0.00000000	          0.00000000	          0.00000000	         -0.00000000	         -0.00000000	          0.00000000	          1.37540582	          0.03533406	         -0.29820620	          0.00000000	          0.00000000	          0.00000000	         -0.00464936	          0.00253095	          0.00148766	          1.49273947	          0.00975341	         -0.30688905	          0.00000000	          0.00000000	          0.00000000	         -0.00000239	          0.00000135	          0.00000074	          1.46372585	          0.01669145	         -0.36258620	          0.00000000	          0.00000000	          0.00000000	
          1.70000000	         -1.13842499	         11.32955684	          3.10593234	          1.42477115	         -0.00031711	         -0.03819107	          0.00000000	          0.00000000	          0.00000000	         -3.36267458	         73.16718282	         -3.36237581	          1.53918240	         -0.00387361	         -0.01719537	          0.00000000	          0.00000000	          0.00000000	         16.30853750	        163.19714621	          6.04577160	          1.50590423	         -0.00721750	          0.03725690	          0.00000000	          0.00000000	          0.00000000	          0.26796437	         73.11617870	         11.67549696	          1.46377146	         -0.00384549	          0.00100028	          0.00000000	          0.00000000	          0.00000000	          0.55876845	         77.01870765	        -18.31316419	          1.59230447	         -0.00432137	          0.01277006	          0.00000000	          0.00000000	          0.00000000	         12.72543736	         79.02950782	        -11.54236831	          1.55908076	         -0.00472671	          0.06783400	          0.00000000	          0.00000000	          0.00000000	         -0.00000000	          0.00000000	          0.00000000	          1.44945358	          0.03002339	         -0.27875052	          0.00000000	          0.00000000	          0.00000000	         -0.00000731	          0.00000344	          0.00000164	          1.55917770	          0.01590396	         -0.30603665	          0.00000000	          0.00000000	          0.00000000	         -0.00000001	          0.00000001	          0.00000000	          1.52506350	          0.02162414	         -0.35916434	          0.00000000	          0.00000000	          0.00000000	         -0.00000000	          0.00000000	          0.00000000	          1.48569275	          0.02606380	         -0.32035333	          0.00000000	          0.00000000	          0.00000000	         -0.00305180	          0.00143238	          0.00067717	          1.60840648	          0.00958772	         -0.33729128	          0.00000000	          0.00000000	          0.00000000	         -0.00000630	          0.00000298	          0.00000139	          1.57463979	          0.01558636	         -0.39069900	          0.00000000	          0.00000000	          0.00000000	
          1.75000000	         12.88420946	         53.88442805	         -5.41106577	          1.42355536	         -0.00269861	         -0.04022240	          0.00000000	          0.00000000	          0.00000000	         25.92889016	        118.86732488	         -2.07753628	          1.53779871	         -0.00532507	         -0.01781231	          0.00000000	          0.00000000	          0.00000000	         32.12957579	        187.62942005	        -10.29912095	          1.50400687	         -0.00789126	          0.03649222	          0.00000000	          0.00000000	          0.00000000	         24.58455731	        120.55660790	         -9.54516250	          1.46220089	         -0.00535548	         -0.00040944	          0.00000000	          0.00000000	          0.00000000	         14.77510425	         88.59812455	         -1.46143747	          1.59064602	         -0.00472902	          0.01281473	          0.00000000	          0.00000000	          0.00000000	          8.03393817	         63.35230750	         -2.45743887	          1.55679909	         -0.00411656	          0.06749008	          0.00000000	          0.00000000	          0.00000000	         -0.00003555	          0.00001737	          0.00000710	          1.56430633	          0.01502728	         -0.30218967	          0.00000000	          0.00000000	          0.00000000	         -0.00000357	          0.00000172	          0.00000034	          1.67874887	          0.01584928	         -0.32413391	          0.00000000	          0.00000000	          0.00000000	         -0.00000021	          0.00000010	          0.00000003	          1.64535591	          0.01883717	         -0.37859869	          0.00000000	          0.00000000	          0.00000000	         -0.00000285	          0.00000136	          0.00000045	          1.60326140	          0.01701448	         -0.34185692	          0.00000000	          0.00000000	          0.00000000	          0.00000000	         -0.00000000	         -0.00000000	          1.73091252	          0.01668873	         -0.35288493	          0.00000000	          0.00000000	          0.00000000	         -0.00000001	          0.00000000	          0.00000000	          1.69772977	          0.01986424	         -0.40761225	          0.00000000	          0.00000000	          0.00000000	
          1.80000000	         23.29814161	         65.37784757	        -16.80724257	          1.42031683	         -0.00403649	         -0.03923956	          0.00000000	          0.00000000	          0.00000000	         43.92831446	        140.72989270	          1.17362579	          1.53491931	         -0.00652766	         -0.01867755	          0.00000000	          0.00000000	          0.00000000	         30.99645215	        167.94309945	        -12.28897761	          1.50207860	         -0.00807023	          0.03636046	          0.00000000	          0.00000000	          0.00000000	         30.19544436	        113.09194431	        -19.09946371	          1.45964316	         -0.00608495	          0.00004707	          0.00000000	          0.00000000	          0.00000000	         22.59234116	        103.51527807	         10.95286567	          1.58834362	         -0.00527724	          0.01102034	          0.00000000	          0.00000000	          0.00000000	          4.31498839	         49.72458675	          1.73462207	          1.55543381	         -0.00342925	          0.06615466	          0.00000000	          0.00000000	          0.00000000	         -0.35005828	          0.19137435	          0.05957185	          1.67027454	          0.00572012	         -0.32189529	          0.00000000	          0.00000000	          0.00000000	         -0.00000006	          0.00000003	          0.00000000	          1.78314167	          0.01931077	         -0.33207060	          0.00000000	          0.00000000	          0.00000000	         -0.00000005	          0.00000003	          0.00000000	          1.75452533	          0.01984428	         -0.38949166	          0.00000000	          0.00000000	          0.00000000	         -0.00018896	          0.00010204	          0.00002535	          1.71097692	          0.01272616	         -0.35730380	          0.00000000	          0.00000000	          0.00000000	         -0.00000000	          0.00000000	          0.00000000	          1.83615154	          0.02630643	         -0.35531875	          0.00000000	          0.00000000	          0.00000000	         -0.00000000	          0.00000000	          0.00000000	          1.80770926	          0.02699400	         -0.41298725	          0.00000000	          0.00000000	          0.00000000	
          1.85000000	          0.99468251	          7.14926398	          0.70683967	          1.41926650	         -0.00138163	         -0.03869751	          0.00000000	          0.00000000	          0.00000000	         29.27360891	        144.95444497	          0.72669231	          1.53358708	         -0.00695836	         -0.01900606	          0.00000000	          0.00000000	          0.00000000	         29.52294429	        119.43330640	          3.65473360	          1.50113208	         -0.00712708	          0.03634528	          0.00000000	          0.00000000	          0.00000000	          8.06587942	         41.54634032	          2.74081098	          1.45865739	         -0.00422991	          0.00032417	          0.00000000	          0.00000000	          0.00000000	         28.79809045	        167.38571987	        -17.32143172	          1.58742325	         -0.00664610	          0.01027804	          0.00000000	          0.00000000	          0.00000000	          8.89568189	         47.91344092	         -3.41940398	          1.55524588	         -0.00313008	          0.06552002	          0.00000000	          0.00000000	          0.00000000	         -4.41666922	          2.89650661	          0.50122444	          1.75561165	          0.00215663	         -0.33434630	          0.00000000	          0.00000000	          0.00000000	         -0.00000002	          0.00000001	          0.00000000	          1.86596645	          0.02079973	         -0.33793877	          0.00000000	          0.00000000	          0.00000000	         -0.00000003	          0.00000002	          0.00000000	          1.84061204	          0.02039320	         -0.39687691	          0.00000000	          0.00000000	          0.00000000	         -0.00079497	          0.00051841	          0.00007663	          1.79679656	          0.01116505	         -0.36730052	          0.00000000	          0.00000000	          0.00000000	         -0.00000000	          0.00000000	          0.00000000	          1.91872150	          0.03024318	         -0.35804957	          0.00000000	          0.00000000	          0.00000000	         -0.00000000	          0.00000000	          0.00000000	          1.89354442	          0.02997252	         -0.41723007	          0.00000000	          0.00000000	          0.00000000	
          1.90000000	          0.00000836	         -0.00116361	         -0.00054520	          1.42283451	          0.00548457	         -0.04199894	          0.00000000	          0.00000000	          0.00000000	         36.97922404	        155.57677217	         22.80460043	          1.53441177	         -0.00720236	         -0.01990750	          0.00000000	          0.00000000	          0.00000000	         23.99859070	         65.93062552	         15.96866290	          1.50106703	         -0.00515794	          0.03476079	          0.00000000	          0.00000000	          0.00000000	          0.36644910	          2.02704546	          0.72940766	          1.46039753	          0.00028931	         -0.00215121	          0.00000000	          0.00000000	          0.00000000	         62.59500481	        301.31874186	        -48.36552015	          1.58770133	         -0.00931516	          0.01061642	          0.00000000	          0.00000000	          0.00000000	          9.40134590	         39.72392177	         -2.46954160	          1.55563045	         -0.00285929	          0.06484977	          0.00000000	          0.00000000	          0.00000000	        -35.01915357	         29.54046268	         -1.78587418	          1.81141796	         -0.00133905	         -0.33737200	          0.00000000	          0.00000000	          0.00000000	         -0.00000095	          0.00000082	         -0.00000025	          1.92175365	          0.01739131	         -0.33535242	          0.00000000	          0.00000000	          0.00000000	         -0.00000226	          0.00000185	         -0.00000045	          1.89962725	          0.01667553	         -0.39556525	          0.00000000	          0.00000000	          0.00000000	         -0.03778822	          0.03131815	         -0.00476607	          1.85430096	          0.00754895	         -0.36822401	          0.00000000	          0.00000000	          0.00000000	         -0.00000000	          0.00000000	         -0.00000000	          1.97549658	          0.02677233	         -0.35275905	          0.00000000	          0.00000000	          0.00000000	         -0.00000000	          0.00000000	         -0.00000000	          1.95356866	          0.02617891	         -0.41320959	          0.00000000	          0.00000000	          0.00000000	
          1.95000000	          0.00000000	         -0.00000000	         -0.00000000	          1.43198339	          0.01646042	         -0.04571661	          0.00000000	          0.00000000	          0.00000000	         38.86413784	        109.44101499	         13.96044317	          1.53617512	         -0.00666933	         -0.02151968	          0.00000000	          0.00000000	          0.00000000	          2.01457447	          7.36922212	          1.04100015	          1.50317567	         -0.00142276	          0.03250015	          0.00000000	          0.00000000	          0.00000000	         -0.00000120	         -0.00001788	         -0.00000278	          1.46607515	          0.00779255	         -0.00517023	          0.00000000	          0.00000000	          0.00000000	        112.80409550	        435.34076906	        -21.58159691	          1.58822779	         -0.01233622	          0.01006266	          0.00000000	          0.00000000	          0.00000000	         -0.69997112	         16.19177831	         -0.70902904	          1.55869293	         -0.00156878	          0.06298194	          0.00000000	          0.00000000	          0.00000000	          9.31431986	        132.85300785	        -30.10831123	          1.83221407	         -0.00540283	         -0.33483905	          0.00000000	          0.00000000	          0.00000000	         -0.00048510	          0.00697559	         -0.00386929	          1.94471995	          0.00926127	         -0.32686207	          0.00000000	          0.00000000	          0.00000000	         -0.00143745	          0.00614376	         -0.00309683	          1.92579864	          0.00928311	         -0.38817434	          0.00000000	          0.00000000	          0.00000000	         -0.38745264	          4.50738621	         -1.63235573	          1.87786616	          0.00186362	         -0.36332528	          0.00000000	          0.00000000	          0.00000000	         -0.00000052	          0.00000284	         -0.00000205	          2.00054119	          0.01662550	         -0.34133609	          0.00000000	          0.00000000	          0.00000000	         -0.00000080	          0.00000227	         -0.00000152	          1.98185446	          0.01675008	         -0.40287676	          0.00000000	          0.00000000	          0.00000000	
