D:\Personal\AI_projectstuff\for_comparison\opencap-processing-grf\OpenCapData_ab7eb7cf-817d-4035-a30b-ee68773906cb\OpenSimData\Dynamics\Suhasno_1\GRF_resultant_Suhasno_1_Suhasno_1_window_4.mot
version=1
nRows=20
nColumns=19
inDegrees=yes
endheader 
time	ground_force_right_vx	ground_force_right_vy	ground_force_right_vz	ground_force_right_px	ground_force_right_py	ground_force_right_pz	ground_torque_right_x	ground_torque_right_y	ground_torque_right_z	ground_force_left_vx	ground_force_left_vy	ground_force_left_vz	ground_force_left_px	ground_force_left_py	ground_force_left_pz	ground_torque_left_x	ground_torque_left_y	ground_torque_left_z	
          4.00000000	         82.57983261	        669.94748988	         28.56380150	          2.99885316	          0.00000000	         -0.01249734	          0.00000000	         -0.45974377	          0.00000000	          0.24906501	          0.36559460	          0.29068534	          2.75603942	          0.00000000	         -0.22650224	          0.00000000	          0.00002558	          0.00000000	
          4.05000000	         68.51825541	        572.73611290	         22.26682125	          2.97734101	          0.00000000	         -0.00611557	          0.00000000	         -0.11946833	          0.00000000	         41.51874318	        120.09919348	        -10.76120715	          2.76493397	          0.00000000	         -0.24214267	          0.00000000	         -0.00319476	          0.00000000	
          4.10000000	        148.24214143	        307.68018448	         -7.93157372	          2.95703765	          0.00000000	          0.00126291	          0.00000000	         -1.58499486	          0.00000000	        -40.27976344	        103.31984383	         -8.26464687	          2.76719000	          0.00000000	         -0.24480760	          0.00000000	         -0.00007561	          0.00000000	
          4.15000000	         22.36573157	        362.24398065	        -32.74820255	          2.94769130	          0.00000000	          0.00669633	          0.00000000	         -0.48232381	          0.00000000	        -34.44043981	         27.88395725	          1.74170989	          2.79292521	          0.00000000	         -0.24690741	          0.00000000	         -0.00000005	          0.00000000	
          4.20000000	         43.24732619	        610.85935730	          2.90709160	          2.94697832	          0.00000000	          0.01006777	          0.00000000	          1.98512458	          0.00000000	        -22.12797442	         14.92371250	          4.37952315	          2.85134599	          0.00000000	         -0.25524559	          0.00000000	         -0.00000005	          0.00000000	
          4.25000000	        108.95932305	        427.88036666	        -29.45584071	          2.94804864	          0.00000000	          0.01369100	          0.00000000	          0.85104486	          0.00000000	         -7.70586202	          4.74760532	          0.67326888	          2.92373165	          0.00000000	         -0.26488343	          0.00000000	          0.00000037	          0.00000000	
          4.30000000	         40.61969689	        493.96850330	        -11.14522988	          2.94253488	          0.00000000	          0.01545126	          0.00000000	         -0.85753610	          0.00000000	         -0.18056813	          0.10848075	          0.01290864	          3.00706778	          0.00000000	         -0.27047362	          0.00000000	          0.00000434	          0.00000000	
          4.35000000	        120.62127777	        667.29617582	        -30.18404908	          2.92722901	          0.00000000	          0.01156798	          0.00000000	         -0.55143347	          0.00000000	         -0.00899510	          0.00567796	         -0.00108560	          3.02128446	          0.00000000	         -0.23587606	          0.00000000	          0.00001814	          0.00000000	
          4.40000000	         77.58027211	        498.17646840	        -20.91211413	          2.92255595	          0.00000000	          0.01139744	          0.00000000	          3.02156061	          0.00000000	         -8.76278414	          5.73166795	         -1.50672457	          2.98003200	          0.00000000	         -0.20748436	          0.00000000	          0.00005294	          0.00000000	
          4.45000000	        103.19230710	        498.95456930	        -21.45321669	          2.93685487	          0.00000000	          0.01343919	          0.00000000	          7.47344550	          0.00000000	        -76.05186687	         62.18125292	        -26.25459960	          3.03147076	          0.00000000	         -0.19661246	          0.00000000	          0.00053122	          0.00000000	
          4.50000000	         60.54990978	        509.00587829	         51.50632274	          2.96576194	          0.00000000	          0.01185512	          0.00000000	          6.96742002	          0.00000000	          0.37286472	        160.88602215	        -57.98391882	          3.05997826	          0.00000000	         -0.19085244	          0.00000000	          0.06324461	          0.00000000	
          4.55000000	       -113.63320639	        330.52375641	         88.53774930	          2.99522057	          0.00000000	          0.00714100	          0.00000000	          1.20445932	          0.00000000	        158.70586030	        195.29058693	       -117.95991624	          3.07082565	          0.00000000	         -0.19560230	          0.00000000	          0.10010492	          0.00000000	
          4.60000000	          6.06878205	        312.93991703	         19.63928316	          3.02026023	          0.00000000	         -0.00660304	          0.00000000	          1.52792689	          0.00000000	         45.67474941	        311.20999201	        -16.24610927	          3.08537823	          0.00000000	         -0.19883043	          0.00000000	          1.50447913	          0.00000000	
          4.65000000	        129.54229044	        243.52593226	         41.15957497	          3.03669071	          0.00000000	         -0.02001354	          0.00000000	          0.45142676	          0.00000000	        -74.15159346	        351.12494156	        -10.98298918	          3.11646614	          0.00000000	         -0.20532188	          0.00000000	          1.51273377	          0.00000000	
          4.70000000	        150.92356741	        225.07962312	         54.88845855	          3.04459794	          0.00000000	         -0.02354312	          0.00000000	          0.02354818	          0.00000000	        -72.76744419	        310.38285952	        -21.96342981	          3.12650211	          0.00000000	         -0.20535030	          0.00000000	          0.92548836	          0.00000000	
          4.75000000	          0.92979006	        185.41113275	         36.99804519	          3.04516444	          0.00000000	         -0.02610319	          0.00000000	          0.00010167	          0.00000000	         90.14098916	        337.95345454	         -9.96745522	          3.12857812	          0.00000000	         -0.20619814	          0.00000000	          0.54194291	          0.00000000	
          4.80000000	        -29.60763943	         27.62154734	         -6.38885244	          3.05749924	          0.00000000	         -0.02624953	          0.00000000	         -0.00001505	          0.00000000	         89.96219981	        442.49611651	         40.76935569	          3.12957855	          0.00000000	         -0.20875920	          0.00000000	         -0.51698614	          0.00000000	
          4.85000000	         -1.54513646	          1.25450044	         -0.32896949	          3.10170431	          0.00000000	         -0.01725626	          0.00000000	         -0.00000013	          0.00000000	        145.07685874	        725.72124197	         72.93056516	          3.13487617	          0.00000000	         -0.21203114	          0.00000000	         -5.54740592	          0.00000000	
          4.90000000	         -0.20351138	          0.13413519	         -0.01214384	          3.16619582	          0.00000000	         -0.01064356	          0.00000000	         -0.00000000	          0.00000000	         75.99315203	        446.44261404	         57.31393669	          3.15852654	          0.00000000	         -0.21843722	          0.00000000	         -2.33989066	          0.00000000	
          4.95000000	         -3.36229187	          1.81569002	          0.31732565	          3.24939018	          0.00000000	         -0.01420921	          0.00000000	          0.00000042	          0.00000000	         44.62673158	        356.87112611	         11.89335118	          3.17338707	          0.00000000	         -0.21985511	          0.00000000	         -0.39689977	          0.00000000	
