D:\Personal\AI_projectstuff\for_comparison\opencap-processing-grf\OpenCapData_ab7eb7cf-817d-4035-a30b-ee68773906cb\OpenSimData\Dynamics\Suhasno_1\GRF_resultant_Suhasno_1_Suhasno_1_window_3.mot
version=1
nRows=20
nColumns=19
inDegrees=yes
endheader 
time	ground_force_right_vx	ground_force_right_vy	ground_force_right_vz	ground_force_right_px	ground_force_right_py	ground_force_right_pz	ground_torque_right_x	ground_torque_right_y	ground_torque_right_z	ground_force_left_vx	ground_force_left_vy	ground_force_left_vz	ground_force_left_px	ground_force_left_py	ground_force_left_pz	ground_torque_left_x	ground_torque_left_y	ground_torque_left_z	
          3.00000000	         33.79120139	         33.02854942	        -10.09181696	          2.45024994	          0.00000000	         -0.01376599	          0.00000000	         -0.08894231	          0.00000000	        -15.81516071	        542.18172883	         34.01982892	          2.58549358	          0.00000000	         -0.28326758	          0.00000000	         -5.38502988	          0.00000000	
          3.05000000	         52.44350180	        115.19016951	          3.22038360	          2.42875832	          0.00000000	         -0.01602275	          0.00000000	         -1.07571800	          0.00000000	          1.59053202	        518.82530461	         37.74629937	          2.51062271	          0.00000000	         -0.29289042	          0.00000000	          1.27197524	          0.00000000	
          3.10000000	        104.64687539	        166.31510896	        -17.31451713	          2.39069631	          0.00000000	         -0.04276785	          0.00000000	         -2.98159721	          0.00000000	         27.69942342	        493.20903790	         33.07255429	          2.47604353	          0.00000000	         -0.29726048	          0.00000000	         -0.12279131	          0.00000000	
          3.15000000	        105.00139948	        129.00026356	         56.29967501	          2.37182411	          0.00000000	         -0.05206472	          0.00000000	         -1.36565417	          0.00000000	          4.17487842	        339.48341804	        -91.95623206	          2.47067200	          0.00000000	         -0.30271050	          0.00000000	         -2.72901369	          0.00000000	
          3.20000000	         -6.12099734	        119.04812599	        140.79275463	          2.37882952	          0.00000000	         -0.06448939	          0.00000000	         -0.14291531	          0.00000000	         94.29821896	        501.82944160	        -88.27904630	          2.47847314	          0.00000000	         -0.30354407	          0.00000000	         -3.24294252	          0.00000000	
          3.25000000	        -21.63394394	         67.23970210	         76.51124181	          2.41106700	          0.00000000	         -0.08746115	          0.00000000	         -0.09175558	          0.00000000	         88.12982967	        713.28112124	         22.88520158	          2.49800478	          0.00000000	         -0.30686921	          0.00000000	          2.55860794	          0.00000000	
          3.30000000	          0.25901866	         39.97169208	         42.68393520	          2.46705071	          0.00000000	         -0.11466816	          0.00000000	         -0.08198795	          0.00000000	         32.16200090	        463.84801284	         30.42970885	          2.52476003	          0.00000000	         -0.30957815	          0.00000000	         -0.52184037	          0.00000000	
          3.35000000	        158.93145786	        237.67049689	         96.63670523	          2.48975486	          0.00000000	         -0.16216300	          0.00000000	         -0.66462179	          0.00000000	       -154.34620126	        421.95322787	       -215.54513874	          2.53006190	          0.00000000	         -0.30666153	          0.00000000	         -0.50689955	          0.00000000	
          3.40000000	         89.97675768	        793.73979661	        -32.99487765	          2.47457559	          0.00000000	         -0.17615286	          0.00000000	         -5.97548462	          0.00000000	         -0.07912195	         -0.32708488	         -0.52494410	          0.00000000	          0.00000000	          0.00000000	          0.00000000	          1.33108058	          0.00000000	
          3.45000000	        399.75639984	       1322.24023748	        151.68490014	          2.46579105	          0.00000000	         -0.16830229	          0.00000000	        -20.05035818	          0.00000000	         -0.00000000	         -0.00000000	         -0.00000000	          0.00000000	          0.00000000	          0.00000000	          0.00000000	          0.00000000	          0.00000000	
          3.50000000	        -14.74336091	         11.57071248	         -5.29061304	          2.51359616	          0.00000000	         -0.09947734	          0.00000000	         -0.00221267	          0.00000000	         -0.00000000	         -0.00000000	         -0.00000000	          0.00000000	          0.00000000	          0.00000000	          0.00000000	          0.00000000	          0.00000000	
          3.55000000	        -46.53968007	         29.73880083	        -15.86410482	          2.57213904	          0.00000000	         -0.14787355	          0.00000000	         -0.00056466	          0.00000000	         -0.00000000	         -0.00000000	         -0.00000000	          0.00000000	          0.00000000	          0.00000000	          0.00000000	          0.00000000	          0.00000000	
          3.60000000	        -90.31042423	         58.22892162	          1.82816058	          2.65754877	          0.00000000	         -0.13178987	          0.00000000	          0.00166318	          0.00000000	         -0.00000000	         -0.00000000	         -0.00000000	          0.00000000	          0.00000000	          0.00000000	          0.00000000	          0.00000000	          0.00000000	
          3.65000000	       -105.57297250	         69.76485233	         46.28400391	          2.72882958	          0.00000000	         -0.14301881	          0.00000000	          0.03519630	          0.00000000	         -0.00000000	          0.00000000	         -0.00000000	          0.00000000	          0.00000000	          0.00000000	          0.00000000	          0.00000000	          0.00000000	
          3.70000000	       -154.37938717	        138.79199439	        142.76199463	          2.72066717	          0.00000000	         -0.15128317	          0.00000000	          0.49815014	          0.00000000	         -0.00000000	          0.00000000	         -0.00000000	          0.00000000	          0.00000000	          0.00000000	          0.00000000	          0.00000000	          0.00000000	
          3.75000000	        352.27599890	       1644.64470757	         79.18177752	          2.71282948	          0.00000000	         -0.18200337	          0.00000000	         27.38111054	          0.00000000	         -0.00000000	          0.00000000	         -0.00000000	          0.00000000	          0.00000000	          0.00000000	          0.00000000	          0.00000000	          0.00000000	
          3.80000000	        150.31782062	        905.34086559	         65.27634225	          2.74291418	          0.00000000	         -0.18326221	          0.00000000	         11.99776721	          0.00000000	         -0.00000012	          0.00000044	         -0.00000053	          2.53047638	          0.00000000	         -0.39716102	          0.00000000	         -0.00000000	          0.00000000	
          3.85000000	         13.12988482	        469.67556565	         34.38713161	          2.77691802	          0.00000000	         -0.18545927	          0.00000000	         -1.81519825	          0.00000000	         -0.00002470	          0.00003374	         -0.00002474	          2.55244917	          0.00000000	         -0.38108749	          0.00000000	         -0.00000000	          0.00000000	
          3.90000000	         -5.03045821	        497.89687771	         79.69538370	          2.78700396	          0.00000000	         -0.18903953	          0.00000000	         -5.10789106	          0.00000000	         -0.00005538	          0.00005641	          0.00000609	          2.57604976	          0.00000000	         -0.38534261	          0.00000000	         -0.00000000	          0.00000000	
          3.95000000	        128.20988762	        501.33798731	         71.97872986	          2.79132108	          0.00000000	         -0.18773818	          0.00000000	         -5.66112708	          0.00000000	         -0.00556863	          0.00497393	         -0.00040487	          2.60164099	          0.00000000	         -0.38300578	          0.00000000	         -0.00000000	          0.00000000	
