D:\Personal\AI_projectstuff\for_comparison\opencap-processing-grf\OpenCapData_ab7eb7cf-817d-4035-a30b-ee68773906cb\OpenSimData\Dynamics\Suhasno_1\GRF_Suhasno_1_Suhasno_1_window_5.mot
version=1
nRows=20
nColumns=109
inDegrees=yes
endheader 
time	ground_force_SmoothSphereHalfSpaceForce_s1_r_vx	ground_force_SmoothSphereHalfSpaceForce_s1_r_vy	ground_force_SmoothSphereHalfSpaceForce_s1_r_vz	ground_force_SmoothSphereHalfSpaceForce_s1_r_px	ground_force_SmoothSphereHalfSpaceForce_s1_r_py	ground_force_SmoothSphereHalfSpaceForce_s1_r_pz	ground_torque_SmoothSphereHalfSpaceForce_s1_r_x	ground_torque_SmoothSphereHalfSpaceForce_s1_r_y	ground_torque_SmoothSphereHalfSpaceForce_s1_r_z	ground_force_SmoothSphereHalfSpaceForce_s2_r_vx	ground_force_SmoothSphereHalfSpaceForce_s2_r_vy	ground_force_SmoothSphereHalfSpaceForce_s2_r_vz	ground_force_SmoothSphereHalfSpaceForce_s2_r_px	ground_force_SmoothSphereHalfSpaceForce_s2_r_py	ground_force_SmoothSphereHalfSpaceForce_s2_r_pz	ground_torque_SmoothSphereHalfSpaceForce_s2_r_x	ground_torque_SmoothSphereHalfSpaceForce_s2_r_y	ground_torque_SmoothSphereHalfSpaceForce_s2_r_z	ground_force_SmoothSphereHalfSpaceForce_s3_r_vx	ground_force_SmoothSphereHalfSpaceForce_s3_r_vy	ground_force_SmoothSphereHalfSpaceForce_s3_r_vz	ground_force_SmoothSphereHalfSpaceForce_s3_r_px	ground_force_SmoothSphereHalfSpaceForce_s3_r_py	ground_force_SmoothSphereHalfSpaceForce_s3_r_pz	ground_torque_SmoothSphereHalfSpaceForce_s3_r_x	ground_torque_SmoothSphereHalfSpaceForce_s3_r_y	ground_torque_SmoothSphereHalfSpaceForce_s3_r_z	ground_force_SmoothSphereHalfSpaceForce_s4_r_vx	ground_force_SmoothSphereHalfSpaceForce_s4_r_vy	ground_force_SmoothSphereHalfSpaceForce_s4_r_vz	ground_force_SmoothSphereHalfSpaceForce_s4_r_px	ground_force_SmoothSphereHalfSpaceForce_s4_r_py	ground_force_SmoothSphereHalfSpaceForce_s4_r_pz	ground_torque_SmoothSphereHalfSpaceForce_s4_r_x	ground_torque_SmoothSphereHalfSpaceForce_s4_r_y	ground_torque_SmoothSphereHalfSpaceForce_s4_r_z	ground_force_SmoothSphereHalfSpaceForce_s5_r_vx	ground_force_SmoothSphereHalfSpaceForce_s5_r_vy	ground_force_SmoothSphereHalfSpaceForce_s5_r_vz	ground_force_SmoothSphereHalfSpaceForce_s5_r_px	ground_force_SmoothSphereHalfSpaceForce_s5_r_py	ground_force_SmoothSphereHalfSpaceForce_s5_r_pz	ground_torque_SmoothSphereHalfSpaceForce_s5_r_x	ground_torque_SmoothSphereHalfSpaceForce_s5_r_y	ground_torque_SmoothSphereHalfSpaceForce_s5_r_z	ground_force_SmoothSphereHalfSpaceForce_s6_r_vx	ground_force_SmoothSphereHalfSpaceForce_s6_r_vy	ground_force_SmoothSphereHalfSpaceForce_s6_r_vz	ground_force_SmoothSphereHalfSpaceForce_s6_r_px	ground_force_SmoothSphereHalfSpaceForce_s6_r_py	ground_force_SmoothSphereHalfSpaceForce_s6_r_pz	ground_torque_SmoothSphereHalfSpaceForce_s6_r_x	ground_torque_SmoothSphereHalfSpaceForce_s6_r_y	ground_torque_SmoothSphereHalfSpaceForce_s6_r_z	ground_force_SmoothSphereHalfSpaceForce_s1_l_vx	ground_force_SmoothSphereHalfSpaceForce_s1_l_vy	ground_force_SmoothSphereHalfSpaceForce_s1_l_vz	ground_force_SmoothSphereHalfSpaceForce_s1_l_px	ground_force_SmoothSphereHalfSpaceForce_s1_l_py	ground_force_SmoothSphereHalfSpaceForce_s1_l_pz	ground_torque_SmoothSphereHalfSpaceForce_s1_l_x	ground_torque_SmoothSphereHalfSpaceForce_s1_l_y	ground_torque_SmoothSphereHalfSpaceForce_s1_l_z	ground_force_SmoothSphereHalfSpaceForce_s2_l_vx	ground_force_SmoothSphereHalfSpaceForce_s2_l_vy	ground_force_SmoothSphereHalfSpaceForce_s2_l_vz	ground_force_SmoothSphereHalfSpaceForce_s2_l_px	ground_force_SmoothSphereHalfSpaceForce_s2_l_py	ground_force_SmoothSphereHalfSpaceForce_s2_l_pz	ground_torque_SmoothSphereHalfSpaceForce_s2_l_x	ground_torque_SmoothSphereHalfSpaceForce_s2_l_y	ground_torque_SmoothSphereHalfSpaceForce_s2_l_z	ground_force_SmoothSphereHalfSpaceForce_s3_l_vx	ground_force_SmoothSphereHalfSpaceForce_s3_l_vy	ground_force_SmoothSphereHalfSpaceForce_s3_l_vz	ground_force_SmoothSphereHalfSpaceForce_s3_l_px	ground_force_SmoothSphereHalfSpaceForce_s3_l_py	ground_force_SmoothSphereHalfSpaceForce_s3_l_pz	ground_torque_SmoothSphereHalfSpaceForce_s3_l_x	ground_torque_SmoothSphereHalfSpaceForce_s3_l_y	ground_torque_SmoothSphereHalfSpaceForce_s3_l_z	ground_force_SmoothSphereHalfSpaceForce_s4_l_vx	ground_force_SmoothSphereHalfSpaceForce_s4_l_vy	ground_force_SmoothSphereHalfSpaceForce_s4_l_vz	ground_force_SmoothSphereHalfSpaceForce_s4_l_px	ground_force_SmoothSphereHalfSpaceForce_s4_l_py	ground_force_SmoothSphereHalfSpaceForce_s4_l_pz	ground_torque_SmoothSphereHalfSpaceForce_s4_l_x	ground_torque_SmoothSphereHalfSpaceForce_s4_l_y	ground_torque_SmoothSphereHalfSpaceForce_s4_l_z	ground_force_SmoothSphereHalfSpaceForce_s5_l_vx	ground_force_SmoothSphereHalfSpaceForce_s5_l_vy	ground_force_SmoothSphereHalfSpaceForce_s5_l_vz	ground_force_SmoothSphereHalfSpaceForce_s5_l_px	ground_force_SmoothSphereHalfSpaceForce_s5_l_py	ground_force_SmoothSphereHalfSpaceForce_s5_l_pz	ground_torque_SmoothSphereHalfSpaceForce_s5_l_x	ground_torque_SmoothSphereHalfSpaceForce_s5_l_y	ground_torque_SmoothSphereHalfSpaceForce_s5_l_z	ground_force_SmoothSphereHalfSpaceForce_s6_l_vx	ground_force_SmoothSphereHalfSpaceForce_s6_l_vy	ground_force_SmoothSphereHalfSpaceForce_s6_l_vz	ground_force_SmoothSphereHalfSpaceForce_s6_l_px	ground_force_SmoothSphereHalfSpaceForce_s6_l_py	ground_force_SmoothSphereHalfSpaceForce_s6_l_pz	ground_torque_SmoothSphereHalfSpaceForce_s6_l_x	ground_torque_SmoothSphereHalfSpaceForce_s6_l_y	ground_torque_SmoothSphereHalfSpaceForce_s6_l_z	
          5.00000000	         -0.00000000	          0.00000000	          0.00000000	          3.22401554	          0.02458304	          0.02923073	          0.00000000	          0.00000000	          0.00000000	         -0.00590743	          0.00420369	          0.00194127	          3.33636879	          0.00924155	          0.03331135	          0.00000000	          0.00000000	          0.00000000	         -0.00000000	          0.00000000	          0.00000000	          3.31950102	          0.02457373	          0.08709227	          0.00000000	          0.00000000	          0.00000000	         -0.00000000	          0.00000000	          0.00000000	          3.27067840	          0.02510337	          0.05969841	          0.00000000	          0.00000000	          0.00000000	         -0.29804656	          0.19199979	          0.05691534	          3.39108614	          0.00414358	          0.05281684	          0.00000000	          0.00000000	          0.00000000	         -0.00000004	          0.00000002	          0.00000001	          3.37404891	          0.01878932	          0.10748174	          0.00000000	          0.00000000	          0.00000000	          1.05582711	          4.21217294	          0.15875561	          3.13635336	         -0.00015406	         -0.19228570	          0.00000000	          0.00000000	          0.00000000	         22.76452170	         89.89754400	         -7.90273205	          3.25191236	         -0.00705595	         -0.19836204	          0.00000000	          0.00000000	          0.00000000	         18.29508501	         94.80323852	         -5.83512939	          3.22614834	         -0.00718715	         -0.25712732	          0.00000000	          0.00000000	          0.00000000	          7.38330445	         33.55117987	         -0.35247263	          3.17989632	         -0.00363809	         -0.22637735	          0.00000000	          0.00000000	          0.00000000	        -26.05823369	         73.98112818	         34.11072179	          3.30618312	         -0.01235235	         -0.21894795	          0.00000000	          0.00000000	          0.00000000	          0.05211707	         -0.10459882	         -0.05591466	          3.28045868	         -0.01326386	         -0.27786687	          0.00000000	          0.00000000	          0.00000000	
          5.05000000	         -0.00101734	          0.00065739	          0.00026521	          3.28531794	          0.01175679	          0.01108834	          0.00000000	          0.00000000	          0.00000000	         -0.24685324	          0.15809006	          0.06131077	          3.40115455	          0.00578126	          0.01560512	          0.00000000	          0.00000000	          0.00000000	         -0.00000212	          0.00000139	          0.00000052	          3.37873366	          0.01711558	          0.07128859	          0.00000000	          0.00000000	          0.00000000	         -0.00003277	          0.00002129	          0.00000827	          3.33076668	          0.01479605	          0.04277821	          0.00000000	          0.00000000	          0.00000000	         -0.09066266	          0.05881448	          0.02334052	          3.45789779	          0.00639976	          0.03522274	          0.00000000	          0.00000000	          0.00000000	         -0.00000029	          0.00000019	          0.00000007	          3.43590465	          0.01868868	          0.09043815	          0.00000000	          0.00000000	          0.00000000	          3.08899513	          7.83391347	          1.95438569	          3.13238487	          0.00045868	         -0.19411227	          0.00000000	          0.00000000	          0.00000000	         45.59571549	        124.58574705	         -0.34849198	          3.24816791	         -0.00586897	         -0.19804686	          0.00000000	          0.00000000	          0.00000000	         34.70728466	        146.76933364	          7.41278047	          3.22345491	         -0.00633603	         -0.25725503	          0.00000000	          0.00000000	          0.00000000	         17.37803241	         55.73645772	          8.52008491	          3.17659464	         -0.00291892	         -0.22737859	          0.00000000	          0.00000000	          0.00000000	          8.74443286	        139.55986698	         17.68641105	          3.30467726	         -0.00813553	         -0.21919957	          0.00000000	          0.00000000	          0.00000000	         -6.67180905	         88.50918944	         15.78453601	          3.28043946	         -0.00674099	         -0.27870806	          0.00000000	          0.00000000	          0.00000000	
          5.10000000	        -23.29991119	         16.26668343	          5.34775685	          3.34983522	         -0.00008278	         -0.00180871	          0.00000000	          0.00000000	          0.00000000	         -0.47200667	          0.33306594	          0.13035154	          3.46596752	          0.00447634	          0.00158177	          0.00000000	          0.00000000	          0.00000000	         -0.00282740	          0.00197807	          0.00071056	          3.44085065	          0.01017296	          0.05951751	          0.00000000	          0.00000000	          0.00000000	         -0.49935770	          0.34887751	          0.11958168	          3.39400414	          0.00518617	          0.03051534	          0.00000000	          0.00000000	          0.00000000	         -0.00491288	          0.00350403	          0.00151642	          3.52177499	          0.00860857	          0.02139997	          0.00000000	          0.00000000	          0.00000000	         -0.00001388	          0.00000981	          0.00000391	          3.49681927	          0.01486167	          0.07934232	          0.00000000	          0.00000000	          0.00000000	          8.01381415	         26.12220849	          7.04287252	          3.12763270	         -0.00162685	         -0.19689797	          0.00000000	          0.00000000	          0.00000000	         37.90023614	        128.21223064	          8.50731343	          3.24377890	         -0.00635491	         -0.19830830	          0.00000000	          0.00000000	          0.00000000	         27.94696822	        148.80069233	         16.15608142	          3.22040873	         -0.00707081	         -0.25804938	          0.00000000	          0.00000000	          0.00000000	         19.76759252	         80.93723194	         15.49031046	          3.17273246	         -0.00434470	         -0.22919734	          0.00000000	          0.00000000	          0.00000000	         20.01873010	        114.08354347	          5.37274047	          3.30129447	         -0.00659030	         -0.21861847	          0.00000000	          0.00000000	          0.00000000	          4.37802791	         58.88580352	          4.83791777	          3.27820737	         -0.00435402	         -0.27848074	          0.00000000	          0.00000000	          0.00000000	
          5.15000000	       -160.31168657	        161.05835486	         66.90771761	          3.39237790	         -0.00588004	         -0.01152700	          0.00000000	          0.00000000	          0.00000000	         -0.35002738	          0.37205407	          0.20800653	          3.50701692	          0.00459757	         -0.01117713	          0.00000000	          0.00000000	          0.00000000	         -0.08095994	          0.08148789	          0.04049265	          3.48334087	          0.00643030	          0.04834783	          0.00000000	          0.00000000	          0.00000000	         -9.15944511	          9.19707257	          4.18616117	          3.43657020	          0.00027311	          0.02013340	          0.00000000	          0.00000000	          0.00000000	         -0.00089678	          0.00098007	          0.00061437	          3.56246586	          0.01049518	          0.00740108	          0.00000000	          0.00000000	          0.00000000	         -0.00011911	          0.00012253	          0.00006923	          3.53893298	          0.01265299	          0.06710106	          0.00000000	          0.00000000	          0.00000000	          9.28282193	         13.70135596	         -0.34117306	          3.12206313	         -0.00128670	         -0.19778924	          0.00000000	          0.00000000	          0.00000000	         65.19483370	         95.43277076	         -7.45613374	          3.23824812	         -0.00582529	         -0.19783778	          0.00000000	          0.00000000	          0.00000000	         58.95390345	         90.50961611	         -5.92396933	          3.21565658	         -0.00611828	         -0.25789185	          0.00000000	          0.00000000	          0.00000000	         29.93273142	         45.11459509	         -2.00888746	          3.16759396	         -0.00368710	         -0.22958045	          0.00000000	          0.00000000	          0.00000000	         58.40977725	         88.34236432	         -8.77856555	          3.29612707	         -0.00545624	         -0.21748195	          0.00000000	          0.00000000	          0.00000000	         17.23083620	         27.54574348	         -2.58894798	          3.27374731	         -0.00248291	         -0.27748439	          0.00000000	          0.00000000	          0.00000000	
          5.20000000	         18.84757221	        281.47544833	          3.59783702	          3.40477267	         -0.00903798	         -0.01603859	          0.00000000	          0.00000000	          0.00000000	          0.17594432	          5.80408744	          0.61916440	          3.51940066	          0.00142918	         -0.01791686	          0.00000000	          0.00000000	          0.00000000	         -0.11532410	          3.88307790	          0.32840434	          3.49731419	          0.00210489	          0.04231248	          0.00000000	          0.00000000	          0.00000000	          1.41883976	         83.04972930	          3.94844436	          3.44980036	         -0.00350204	          0.01489207	          0.00000000	          0.00000000	          0.00000000	          0.00067211	          0.06948817	          0.01175176	          3.57532301	          0.00682262	         -0.00040830	          0.00000000	          0.00000000	          0.00000000	         -0.00156540	          0.02911834	          0.00424536	          3.55343233	          0.00769933	          0.06004196	          0.00000000	          0.00000000	          0.00000000	          0.51325732	          3.89777394	          0.04630749	          3.11828090	          0.00072144	         -0.19708290	          0.00000000	          0.00000000	          0.00000000	         13.96447101	         93.68502883	          2.02719643	          3.23422239	         -0.00517160	         -0.19699200	          0.00000000	          0.00000000	          0.00000000	         10.37269051	         70.47502089	          1.45909140	          3.21181989	         -0.00458959	         -0.25710843	          0.00000000	          0.00000000	          0.00000000	          2.99444457	         21.49864166	          0.34857163	          3.16379126	         -0.00188621	         -0.22883811	          0.00000000	          0.00000000	          0.00000000	         20.16494114	        110.34319073	         -0.86591360	          3.29214139	         -0.00535713	         -0.21644275	          0.00000000	          0.00000000	          0.00000000	          3.87456655	         22.44226301	         -0.27668318	          3.27011204	         -0.00158117	         -0.27639428	          0.00000000	          0.00000000	          0.00000000	
          5.25000000	         14.75103385	        267.20594361	        -68.11504156	          3.40505607	         -0.01054889	         -0.01465583	          0.00000000	          0.00000000	          0.00000000	          1.17460984	         52.35040140	        -10.29814340	          3.52048198	         -0.00262659	         -0.01733131	          0.00000000	          0.00000000	          0.00000000	         -0.22403821	         26.81018690	         -5.49508188	          3.49891806	         -0.00155188	          0.04306397	          0.00000000	          0.00000000	          0.00000000	          3.02181202	        133.09464586	        -30.67623204	          3.45075494	         -0.00606093	          0.01596819	          0.00000000	          0.00000000	          0.00000000	         -0.02976181	          5.26056857	         -0.90098099	          3.57694725	          0.00146075	         -0.00022065	          0.00000000	          0.00000000	          0.00000000	         -0.08074490	          2.18857996	         -0.39188756	          3.55560778	          0.00269966	          0.06040110	          0.00000000	          0.00000000	          0.00000000	         -0.01785971	          0.10889657	          0.02477596	          3.11991999	          0.00454172	         -0.19752249	          0.00000000	          0.00000000	          0.00000000	         -5.27595971	         42.44270053	         14.07979527	          3.23525474	         -0.00380558	         -0.19825307	          0.00000000	          0.00000000	          0.00000000	         -1.25929435	         13.82320884	          4.29672118	          3.21271450	         -0.00198764	         -0.25821914	          0.00000000	          0.00000000	          0.00000000	         -0.18707923	          1.47539179	          0.39543757	          3.16505731	          0.00137364	         -0.22960458	          0.00000000	          0.00000000	          0.00000000	          1.45725398	         94.05015680	         26.23086367	          3.29281389	         -0.00548344	         -0.21789838	          0.00000000	          0.00000000	          0.00000000	          0.58104814	         11.52941967	          2.93628470	          3.27092981	         -0.00093205	         -0.27768748	          0.00000000	          0.00000000	          0.00000000	
          5.30000000	          8.82600077	        219.21327888	        -76.78848153	          3.40506364	         -0.01012486	         -0.01132773	          0.00000000	          0.00000000	          0.00000000	          4.01307969	         62.74961102	         13.26317191	          3.52077617	         -0.00392478	         -0.01750807	          0.00000000	          0.00000000	          0.00000000	         -8.25818820	         35.01698886	          4.00103690	          3.50110792	         -0.00245951	          0.04349835	          0.00000000	          0.00000000	          0.00000000	        -12.34243208	        115.78565804	        -14.33246571	          3.45190708	         -0.00628235	          0.01788558	          0.00000000	          0.00000000	          0.00000000	         -0.39478323	         10.95183551	          5.13721430	          3.57796584	         -0.00058080	         -0.00210184	          0.00000000	          0.00000000	          0.00000000	         -1.40793062	          4.19690034	          1.56969045	          3.55852200	          0.00111304	          0.05911066	          0.00000000	          0.00000000	          0.00000000	         -0.00000000	         -0.00000001	         -0.00000001	          3.11911108	          0.01245694	         -0.21199545	          0.00000000	          0.00000000	          0.00000000	          0.33840815	          1.11107237	          1.24044406	          3.23318111	          0.00066078	         -0.21557021	          0.00000000	          0.00000000	          0.00000000	         -0.00005832	         -0.00017120	         -0.00018841	          3.21010601	          0.00482186	         -0.27486181	          0.00000000	          0.00000000	          0.00000000	         -0.00000022	         -0.00000068	         -0.00000074	          3.16333976	          0.00882204	         -0.24512788	          0.00000000	          0.00000000	          0.00000000	          9.30446211	         23.58390714	         25.84075489	          3.28955655	         -0.00315072	         -0.23622699	          0.00000000	          0.00000000	          0.00000000	          0.14033547	          0.31720482	          0.34037660	          3.26733029	          0.00287259	         -0.29536565	          0.00000000	          0.00000000	          0.00000000	
          5.35000000	         35.50374277	        278.36667698	        -81.74273744	          3.40431346	         -0.01014727	         -0.00764178	          0.00000000	          0.00000000	          0.00000000	         17.24547933	         96.59831244	         23.32836669	          3.51968021	         -0.00459924	         -0.01983766	          0.00000000	          0.00000000	          0.00000000	         -7.10709438	         62.92821236	         10.30440903	          3.50329962	         -0.00328538	          0.04214608	          0.00000000	          0.00000000	          0.00000000	         -0.22572942	        159.83463948	        -11.19158759	          3.45272492	         -0.00670744	          0.01911239	          0.00000000	          0.00000000	          0.00000000	          1.68498695	         24.33668529	         11.45807050	          3.57773807	         -0.00144280	         -0.00737340	          0.00000000	          0.00000000	          0.00000000	         -1.69054015	          7.68730198	          3.04294641	          3.56155268	          0.00028475	          0.05477646	          0.00000000	          0.00000000	          0.00000000	         -0.00000000	         -0.00000000	         -0.00000000	          3.11474916	          0.02233692	         -0.23824296	          0.00000000	          0.00000000	          0.00000000	          0.03486200	          0.09230222	          0.10341623	          3.22584554	          0.00546294	         -0.24824393	          0.00000000	          0.00000000	          0.00000000	          0.00000469	          0.00001039	          0.00001124	          3.20173770	          0.01306633	         -0.30573113	          0.00000000	          0.00000000	          0.00000000	          0.00000000	          0.00000000	          0.00000000	          3.15696037	          0.01801072	         -0.27360021	          0.00000000	          0.00000000	          0.00000000	          6.42241213	         14.01592211	         15.78916655	          3.27972445	         -0.00094783	         -0.27162037	          0.00000000	          0.00000000	          0.00000000	          0.00529827	          0.00983556	          0.01064163	          3.25646162	          0.00769352	         -0.32903692	          0.00000000	          0.00000000	          0.00000000	
          5.40000000	         17.33796850	        293.03836620	        -26.12721029	          3.40385993	         -0.01096521	         -0.00480871	          0.00000000	          0.00000000	          0.00000000	          8.09065708	         96.77121490	          4.46524060	          3.51879146	         -0.00536235	         -0.02050975	          0.00000000	          0.00000000	          0.00000000	          0.10245321	         91.90118331	          2.30698201	          3.50443885	         -0.00470529	          0.04201615	          0.00000000	          0.00000000	          0.00000000	          5.11256729	        185.09293592	         -6.17283399	          3.45312882	         -0.00784569	          0.02049811	          0.00000000	          0.00000000	          0.00000000	          1.02783087	         28.35471964	          2.42481221	          3.57730120	         -0.00212060	         -0.00974028	          0.00000000	          0.00000000	          0.00000000	         -0.58728237	         13.81809138	          0.88758658	          3.56309068	         -0.00082748	          0.05293253	          0.00000000	          0.00000000	          0.00000000	          0.00000000	         -0.00000000	         -0.00000000	          3.12108923	          0.03263097	         -0.25980191	          0.00000000	          0.00000000	          0.00000000	         -0.00003153	          0.00419075	          0.00457407	          3.22554705	          0.00854198	         -0.27847795	          0.00000000	          0.00000000	          0.00000000	          0.00000000	          0.00000001	          0.00000001	          3.20102997	          0.01975767	         -0.33336837	          0.00000000	          0.00000000	          0.00000000	          0.00000000	         -0.00000000	         -0.00000000	          3.15979961	          0.02664605	         -0.29807741	          0.00000000	          0.00000000	          0.00000000	          2.48292509	         18.03432777	         20.07229014	          3.27515786	         -0.00119167	         -0.30572049	          0.00000000	          0.00000000	          0.00000000	          0.00011715	          0.00057119	          0.00061949	          3.25139614	          0.01056174	         -0.36066882	          0.00000000	          0.00000000	          0.00000000	
          5.45000000	          2.66201810	        218.76082066	        -22.93608857	          3.40376956	         -0.01062332	         -0.00257304	          0.00000000	          0.00000000	          0.00000000	          1.51521388	         23.67554451	          0.43238164	          3.51814411	         -0.00319435	         -0.01927799	          0.00000000	          0.00000000	          0.00000000	         -2.00889155	         58.88996188	          0.34873287	          3.50473549	         -0.00438912	          0.04342537	          0.00000000	          0.00000000	          0.00000000	         -1.85881669	        131.94672860	         -6.65897713	          3.45326225	         -0.00757993	          0.02233098	          0.00000000	          0.00000000	          0.00000000	          0.24864400	          2.38766572	          0.28268579	          3.57663971	          0.00045905	         -0.00901216	          0.00000000	          0.00000000	          0.00000000	          0.00490142	          5.94806100	          0.60123709	          3.56334941	         -0.00011602	          0.05390489	          0.00000000	          0.00000000	          0.00000000	          0.00000000	         -0.00000000	         -0.00000000	          3.14280573	          0.04521515	         -0.27489732	          0.00000000	          0.00000000	          0.00000000	          0.00000008	         -0.00000011	         -0.00000007	          3.23894270	          0.01437942	         -0.29804172	          0.00000000	          0.00000000	          0.00000000	          0.00000000	         -0.00000000	         -0.00000000	          3.21644365	          0.02809007	         -0.35151206	          0.00000000	          0.00000000	          0.00000000	          0.00000000	         -0.00000000	         -0.00000000	          3.17846695	          0.03721213	         -0.31463230	          0.00000000	          0.00000000	          0.00000000	         -0.68487237	          1.01348625	          0.70450547	          3.28415724	          0.00148401	         -0.32725037	          0.00000000	          0.00000000	          0.00000000	         -0.00000039	          0.00000054	          0.00000036	          3.26224338	          0.01544020	         -0.38088982	          0.00000000	          0.00000000	          0.00000000	
          5.50000000	         33.11051309	        263.97255506	        -33.88595928	          3.40240605	         -0.01014387	          0.00011552	          0.00000000	          0.00000000	          0.00000000	          1.67140419	          9.05569557	          0.84763746	          3.51589412	         -0.00048735	         -0.01801766	          0.00000000	          0.00000000	          0.00000000	          2.04877594	         70.78960271	          5.84735789	          3.50400776	         -0.00387455	          0.04467232	          0.00000000	          0.00000000	          0.00000000	         11.83868562	        163.59452424	         -3.98684141	          3.45226539	         -0.00715816	          0.02430586	          0.00000000	          0.00000000	          0.00000000	          0.13875650	          0.71517693	          0.16859240	          3.57434733	          0.00351556	         -0.00863923	          0.00000000	          0.00000000	          0.00000000	          0.19822928	          6.09371216	          1.35714795	          3.56261257	          0.00057324	          0.05432248	          0.00000000	          0.00000000	          0.00000000	          0.00000000	         -0.00000000	         -0.00000000	          3.17144941	          0.05770669	         -0.28415445	          0.00000000	          0.00000000	          0.00000000	         -0.00000000	          0.00000000	          0.00000000	          3.26125810	          0.02214949	         -0.30556685	          0.00000000	          0.00000000	          0.00000000	         -0.00000000	         -0.00000000	          0.00000000	          3.24276450	          0.03697116	         -0.35938572	          0.00000000	          0.00000000	          0.00000000	          0.00000000	         -0.00000000	         -0.00000000	          3.20609858	          0.04795548	         -0.32321692	          0.00000000	          0.00000000	          0.00000000	         -0.01340623	          0.01340068	          0.00062545	          3.30391664	          0.00692029	         -0.33392397	          0.00000000	          0.00000000	          0.00000000	         -0.00000000	          0.00000000	          0.00000000	          3.28585983	          0.02183739	         -0.38796452	          0.00000000	          0.00000000	          0.00000000	
          5.55000000	          8.28964243	        209.15768645	        -14.13826138	          3.40086378	         -0.00978870	          0.00186415	          0.00000000	          0.00000000	          0.00000000	          0.14391339	          7.12707242	         -0.63218515	          3.51413239	          0.00010250	         -0.01711550	          0.00000000	          0.00000000	          0.00000000	          2.58944383	         81.34907861	         -6.59629843	          3.50309884	         -0.00443539	          0.04543930	          0.00000000	          0.00000000	          0.00000000	          5.42598758	        150.00562700	        -11.10184786	          3.45106567	         -0.00729558	          0.02556420	          0.00000000	          0.00000000	          0.00000000	          0.01234425	          0.71191418	         -0.06700701	          3.57271239	          0.00380235	         -0.00830486	          0.00000000	          0.00000000	          0.00000000	          0.29769768	         10.87279479	         -0.94648567	          3.56186079	         -0.00036471	          0.05453855	          0.00000000	          0.00000000	          0.00000000	         -0.00000000	         -0.00000000	         -0.00000000	          3.21069835	          0.06335817	         -0.28608521	          0.00000000	          0.00000000	          0.00000000	         -0.00000000	          0.00000000	         -0.00000000	          3.29945217	          0.02674784	         -0.30460115	          0.00000000	          0.00000000	          0.00000000	         -0.00000000	         -0.00000000	         -0.00000000	          3.28305139	          0.04156601	         -0.35909806	          0.00000000	          0.00000000	          0.00000000	         -0.00000000	         -0.00000000	         -0.00000000	          3.24593268	          0.05308408	         -0.32407335	          0.00000000	          0.00000000	          0.00000000	         -0.00056898	          0.00042317	         -0.00007307	          3.34202693	          0.01089522	         -0.33158946	          0.00000000	          0.00000000	          0.00000000	         -0.00000000	          0.00000000	         -0.00000000	          3.32597476	          0.02574695	         -0.38633014	          0.00000000	          0.00000000	          0.00000000	
          5.60000000	          6.17135865	        196.30368131	          8.58122260	          3.40083277	         -0.00900086	          0.00203573	          0.00000000	          0.00000000	          0.00000000	         -0.24424966	         13.50514554	         -1.37050645	          3.51474460	         -0.00063251	         -0.01600108	          0.00000000	          0.00000000	          0.00000000	          8.47443235	        109.01516037	         -9.61517299	          3.50300240	         -0.00521044	          0.04641289	          0.00000000	          0.00000000	          0.00000000	          9.17961061	        159.30136012	         -3.36037486	          3.45097802	         -0.00728233	          0.02612774	          0.00000000	          0.00000000	          0.00000000	         -0.16044472	          2.59246825	         -0.57066681	          3.57346906	          0.00233805	         -0.00665249	          0.00000000	          0.00000000	          0.00000000	          1.30628313	         29.57727650	         -6.13469372	          3.56189550	         -0.00176897	          0.05607781	          0.00000000	          0.00000000	          0.00000000	         -0.00000000	         -0.00000000	         -0.00000000	          3.26395221	          0.05517860	         -0.28409857	          0.00000000	          0.00000000	          0.00000000	         -0.00000000	          0.00000000	         -0.00000000	          3.36218738	          0.02477908	         -0.29941767	          0.00000000	          0.00000000	          0.00000000	         -0.00000000	         -0.00000000	         -0.00000000	          3.34331542	          0.03801986	         -0.35473302	          0.00000000	          0.00000000	          0.00000000	         -0.00000000	         -0.00000000	         -0.00000000	          3.30257014	          0.04714284	         -0.32093804	          0.00000000	          0.00000000	          0.00000000	         -0.00038327	          0.00022496	         -0.00003205	          3.40925059	          0.01175193	         -0.32491507	          0.00000000	          0.00000000	          0.00000000	         -0.00000000	          0.00000000	         -0.00000000	          3.39068627	          0.02502134	         -0.38048095	          0.00000000	          0.00000000	          0.00000000	
          5.65000000	          6.60598332	        185.70058452	          4.84898849	          3.40102588	         -0.00856962	          0.00154776	          0.00000000	          0.00000000	          0.00000000	          0.19186023	         30.25143390	         -2.22042902	          3.51559057	         -0.00191768	         -0.01516411	          0.00000000	          0.00000000	          0.00000000	          9.40836476	        132.65143221	         -8.42886187	          3.50282893	         -0.00617620	          0.04714008	          0.00000000	          0.00000000	          0.00000000	          9.10656458	        164.75142049	         -2.94997215	          3.45095487	         -0.00753131	          0.02623720	          0.00000000	          0.00000000	          0.00000000	         -0.42146339	          6.44229474	         -1.25793888	          3.57443621	          0.00055007	         -0.00492801	          0.00000000	          0.00000000	          0.00000000	          0.71707197	         48.14707281	         -8.93588300	          3.56178419	         -0.00293667	          0.05774420	          0.00000000	          0.00000000	          0.00000000	         -0.00000000	         -0.00000000	         -0.00000000	          3.32573894	          0.03774145	         -0.28163408	          0.00000000	          0.00000000	          0.00000000	         -0.00000012	          0.00000007	         -0.00000002	          3.43600031	          0.01954398	         -0.29159335	          0.00000000	          0.00000000	          0.00000000	         -0.00000000	          0.00000000	         -0.00000000	          3.41397150	          0.02986834	         -0.34821113	          0.00000000	          0.00000000	          0.00000000	         -0.00000000	         -0.00000000	         -0.00000000	          3.36863680	          0.03419980	         -0.31651079	          0.00000000	          0.00000000	          0.00000000	         -0.00021827	          0.00012983	         -0.00003570	          3.48890661	          0.01219505	         -0.31457221	          0.00000000	          0.00000000	          0.00000000	         -0.00000000	          0.00000000	         -0.00000000	          3.46716774	          0.02257171	         -0.37143370	          0.00000000	          0.00000000	          0.00000000	
          5.70000000	          6.31035903	        191.46582436	          4.65859377	          3.40075969	         -0.00843296	          0.00115991	          0.00000000	          0.00000000	          0.00000000	          0.53291496	         29.59777648	         -3.83069091	          3.51560967	         -0.00220285	         -0.01418846	          0.00000000	          0.00000000	          0.00000000	         11.28620483	        113.25330345	        -12.86174367	          3.50201285	         -0.00623531	          0.04799913	          0.00000000	          0.00000000	          0.00000000	         10.58729574	        153.99496532	         -6.67552910	          3.45038803	         -0.00748376	          0.02646225	          0.00000000	          0.00000000	          0.00000000	          0.14361379	          5.50014461	         -1.19783298	          3.57441097	          0.00034577	         -0.00311187	          0.00000000	          0.00000000	          0.00000000	          3.86535519	         34.67945788	         -6.97949421	          3.56086614	         -0.00269889	          0.05946582	          0.00000000	          0.00000000	          0.00000000	         -0.00000006	          0.00000004	         -0.00000001	          3.39095631	          0.02058858	         -0.27522930	          0.00000000	          0.00000000	          0.00000000	         -0.00002818	          0.00001815	         -0.00000571	          3.50679223	          0.01451204	         -0.27919053	          0.00000000	          0.00000000	          0.00000000	         -0.00000001	          0.00000001	         -0.00000000	          3.48367611	          0.02148436	         -0.33740053	          0.00000000	          0.00000000	          0.00000000	         -0.00000002	          0.00000001	         -0.00000000	          3.43603695	          0.02127047	         -0.30798079	          0.00000000	          0.00000000	          0.00000000	         -0.00012956	          0.00008304	         -0.00003014	          3.56267479	          0.01270269	         -0.29936298	          0.00000000	          0.00000000	          0.00000000	         -0.00000008	          0.00000005	         -0.00000002	          3.53983053	          0.01975054	         -0.35780920	          0.00000000	          0.00000000	          0.00000000	
          5.75000000	         16.57609469	        209.02427850	          0.02834609	          3.39989815	         -0.00869180	          0.00083276	          0.00000000	          0.00000000	          0.00000000	          1.71970393	         30.87870050	         -6.70504293	          3.51491717	         -0.00210216	         -0.01251944	          0.00000000	          0.00000000	          0.00000000	         19.82261438	        113.23274981	        -21.78620807	          3.50023346	         -0.00588817	          0.04948270	          0.00000000	          0.00000000	          0.00000000	         21.19643811	        162.09612762	        -15.28132058	          3.44903519	         -0.00743436	          0.02702459	          0.00000000	          0.00000000	          0.00000000	          0.47309648	          5.23246114	         -1.66599543	          3.57346428	          0.00071946	         -0.00041337	          0.00000000	          0.00000000	          0.00000000	          6.06400328	         29.07654441	         -8.51438542	          3.55881128	         -0.00207827	          0.06196042	          0.00000000	          0.00000000	          0.00000000	         -0.11835139	          0.08676363	         -0.03300271	          3.45137931	          0.00691739	         -0.26427169	          0.00000000	          0.00000000	          0.00000000	         -0.00447059	          0.00334280	         -0.00169431	          3.56777366	          0.00969051	         -0.26255646	          0.00000000	          0.00000000	          0.00000000	         -0.00011755	          0.00008561	         -0.00004003	          3.54583001	          0.01331683	         -0.32241536	          0.00000000	          0.00000000	          0.00000000	         -0.00369350	          0.00269641	         -0.00114014	          3.49735644	          0.01020760	         -0.29508705	          0.00000000	          0.00000000	          0.00000000	         -0.00043295	          0.00032477	         -0.00018247	          3.62452132	          0.01166839	         -0.28007300	          0.00000000	          0.00000000	          0.00000000	         -0.00001016	          0.00000741	         -0.00000388	          3.60283557	          0.01538254	         -0.34016509	          0.00000000	          0.00000000	          0.00000000	
          5.80000000	         53.51859181	        171.55177166	         -0.76922741	          3.39802763	         -0.00851211	          0.00059653	          0.00000000	          0.00000000	          0.00000000	         12.20802049	         41.83313073	         -2.52164334	          3.51335606	         -0.00262045	         -0.01131375	          0.00000000	          0.00000000	          0.00000000	         39.40218480	        118.50009262	         -6.52141148	          3.49774675	         -0.00599215	          0.05055780	          0.00000000	          0.00000000	          0.00000000	         48.23170020	        149.08304720	         -4.37005702	          3.44682812	         -0.00738082	          0.02743265	          0.00000000	          0.00000000	          0.00000000	          2.23640130	          8.52151712	         -1.00935484	          3.57180428	          0.00000875	          0.00156474	          0.00000000	          0.00000000	          0.00000000	         10.89516870	         35.45891595	         -3.96301895	          3.55622593	         -0.00231900	          0.06379134	          0.00000000	          0.00000000	          0.00000000	        -73.45226264	         74.28261435	        -41.70298197	          3.49317101	         -0.00265259	         -0.24969638	          0.00000000	          0.00000000	          0.00000000	         -0.60974288	          0.64769157	         -0.43282058	          3.60868313	          0.00441219	         -0.24347920	          0.00000000	          0.00000000	          0.00000000	         -0.27925928	          0.28292713	         -0.17701753	          3.58906313	          0.00545209	         -0.30453607	          0.00000000	          0.00000000	          0.00000000	         -6.92145501	          6.99714437	         -4.14642217	          3.53994082	          0.00139271	         -0.27891815	          0.00000000	          0.00000000	          0.00000000	         -0.01957597	          0.02105627	         -0.01494530	          3.66575751	          0.00793674	         -0.25882696	          0.00000000	          0.00000000	          0.00000000	         -0.00733320	          0.00751174	         -0.00502221	          3.64639303	          0.00906598	         -0.32011665	          0.00000000	          0.00000000	          0.00000000	
          5.85000000	         14.62972398	         76.96632682	          3.43012740	          3.39634849	         -0.00643698	         -0.00013201	          0.00000000	          0.00000000	          0.00000000	          8.51573307	         51.51155751	         -0.84495696	          3.51215314	         -0.00317819	         -0.01145246	          0.00000000	          0.00000000	          0.00000000	         20.83819584	         96.66962504	         -1.18243459	          3.49588853	         -0.00568550	          0.05041456	          0.00000000	          0.00000000	          0.00000000	         18.24816056	         89.27391120	          1.48275902	          3.44503795	         -0.00615104	          0.02699353	          0.00000000	          0.00000000	          0.00000000	          2.79702479	         24.73689227	         -2.34846179	          3.57076538	         -0.00147820	          0.00184374	          0.00000000	          0.00000000	          0.00000000	          6.81752122	         41.49354689	         -3.61215247	          3.55457052	         -0.00272168	          0.06403740	          0.00000000	          0.00000000	          0.00000000	         18.44663600	        181.23096154	         15.26167374	          3.50758300	         -0.00721682	         -0.24264843	          0.00000000	          0.00000000	          0.00000000	          1.72540185	         24.51675335	          1.49076642	          3.62318635	         -0.00103833	         -0.23461610	          0.00000000	          0.00000000	          0.00000000	          1.09072436	         19.92032842	          1.29916354	          3.60476875	         -0.00078477	         -0.29607948	          0.00000000	          0.00000000	          0.00000000	          7.23117673	         92.72836559	          6.95143412	          3.55503399	         -0.00402595	         -0.27118721	          0.00000000	          0.00000000	          0.00000000	          0.18367331	          5.20562257	          0.33498554	          3.68066926	          0.00180840	         -0.24907296	          0.00000000	          0.00000000	          0.00000000	          0.08143605	          3.96975692	          0.27079997	          3.66250515	          0.00218698	         -0.31076575	          0.00000000	          0.00000000	          0.00000000	
          5.90000000	         -1.52867777	          4.42337388	          0.39714877	          3.39896142	         -0.00148071	         -0.00186608	          0.00000000	          0.00000000	          0.00000000	         -6.89064172	         18.90005470	         -3.38952197	          3.51510731	         -0.00199476	         -0.01137524	          0.00000000	          0.00000000	          0.00000000	         -4.17826676	         19.19470914	         -2.74335279	          3.49761523	         -0.00290241	          0.05033330	          0.00000000	          0.00000000	          0.00000000	         -2.77814770	         10.01936740	         -0.24144631	          3.44717040	         -0.00221516	          0.02607174	          0.00000000	          0.00000000	          0.00000000	         -6.35855916	         24.14849195	         -6.10304938	          3.57358831	         -0.00191593	          0.00280230	          0.00000000	          0.00000000	          0.00000000	         -1.97518549	         15.69870678	         -3.34291891	          3.55632286	         -0.00160180	          0.06475404	          0.00000000	          0.00000000	          0.00000000	         14.76526431	         91.40450286	         11.51660593	          3.50776850	         -0.00670231	         -0.24371847	          0.00000000	          0.00000000	          0.00000000	         12.71385911	         87.64847949	         12.44573498	          3.62393226	         -0.00434387	         -0.23565112	          0.00000000	          0.00000000	          0.00000000	          8.46019973	         56.85584664	          7.85070020	          3.60559974	         -0.00340594	         -0.29711340	          0.00000000	          0.00000000	          0.00000000	         12.14516033	         78.17204461	         10.30626405	          3.55554175	         -0.00503935	         -0.27223934	          0.00000000	          0.00000000	          0.00000000	          1.46973755	         60.15798147	         14.98744685	          3.68181886	         -0.00297053	         -0.25021990	          0.00000000	          0.00000000	          0.00000000	          0.69949783	         24.47981054	          5.90353020	          3.66371333	         -0.00155925	         -0.31186998	          0.00000000	          0.00000000	          0.00000000	
          5.95000000	         -1.53475664	          1.63019181	          0.36211965	          3.41037634	          0.00243603	         -0.00563114	          0.00000000	          0.00000000	          0.00000000	        -10.61193054	         11.02699709	          0.63993144	          3.52657654	         -0.00058284	         -0.01214332	          0.00000000	          0.00000000	          0.00000000	         -5.44064536	          5.75322950	          0.53281983	          3.50756991	          0.00016274	          0.04912443	          0.00000000	          0.00000000	          0.00000000	         -2.99875562	          3.17619846	          0.51637722	          3.45781103	          0.00133687	          0.02355623	          0.00000000	          0.00000000	          0.00000000	        -25.91781499	         27.27316885	          0.63168827	          3.58445250	         -0.00180093	          0.00335119	          0.00000000	          0.00000000	          0.00000000	         -7.92083695	          8.47767282	          0.49935531	          3.56576999	         -0.00022730	          0.06481311	          0.00000000	          0.00000000	          0.00000000	         16.31981311	         70.31742334	          7.99348462	          3.50732272	         -0.00469040	         -0.24476887	          0.00000000	          0.00000000	          0.00000000	         37.06045216	        150.76384412	          4.35058170	          3.62351789	         -0.00612906	         -0.23629814	          0.00000000	          0.00000000	          0.00000000	         16.16815144	         84.77818729	          3.44370335	          3.60557378	         -0.00427934	         -0.29779233	          0.00000000	          0.00000000	          0.00000000	         16.02864604	         76.42498209	          5.95623980	          3.55531697	         -0.00442370	         -0.27310705	          0.00000000	          0.00000000	          0.00000000	          5.61933739	        136.41550108	         18.37456720	          3.68194421	         -0.00557236	         -0.25089219	          0.00000000	          0.00000000	          0.00000000	         -1.03150884	         37.07652620	          5.07610716	          3.66423731	         -0.00238863	         -0.31239365	          0.00000000	          0.00000000	          0.00000000	
