D:\Personal\AI_projectstuff\for_comparison\opencap-processing-grf\OpenCapData_ab7eb7cf-817d-4035-a30b-ee68773906cb\OpenSimData\Dynamics\Suhasno_1\GRF_Suhasno_1_Suhasno_1_window_4.mot
version=1
nRows=20
nColumns=109
inDegrees=yes
endheader 
time	ground_force_SmoothSphereHalfSpaceForce_s1_r_vx	ground_force_SmoothSphereHalfSpaceForce_s1_r_vy	ground_force_SmoothSphereHalfSpaceForce_s1_r_vz	ground_force_SmoothSphereHalfSpaceForce_s1_r_px	ground_force_SmoothSphereHalfSpaceForce_s1_r_py	ground_force_SmoothSphereHalfSpaceForce_s1_r_pz	ground_torque_SmoothSphereHalfSpaceForce_s1_r_x	ground_torque_SmoothSphereHalfSpaceForce_s1_r_y	ground_torque_SmoothSphereHalfSpaceForce_s1_r_z	ground_force_SmoothSphereHalfSpaceForce_s2_r_vx	ground_force_SmoothSphereHalfSpaceForce_s2_r_vy	ground_force_SmoothSphereHalfSpaceForce_s2_r_vz	ground_force_SmoothSphereHalfSpaceForce_s2_r_px	ground_force_SmoothSphereHalfSpaceForce_s2_r_py	ground_force_SmoothSphereHalfSpaceForce_s2_r_pz	ground_torque_SmoothSphereHalfSpaceForce_s2_r_x	ground_torque_SmoothSphereHalfSpaceForce_s2_r_y	ground_torque_SmoothSphereHalfSpaceForce_s2_r_z	ground_force_SmoothSphereHalfSpaceForce_s3_r_vx	ground_force_SmoothSphereHalfSpaceForce_s3_r_vy	ground_force_SmoothSphereHalfSpaceForce_s3_r_vz	ground_force_SmoothSphereHalfSpaceForce_s3_r_px	ground_force_SmoothSphereHalfSpaceForce_s3_r_py	ground_force_SmoothSphereHalfSpaceForce_s3_r_pz	ground_torque_SmoothSphereHalfSpaceForce_s3_r_x	ground_torque_SmoothSphereHalfSpaceForce_s3_r_y	ground_torque_SmoothSphereHalfSpaceForce_s3_r_z	ground_force_SmoothSphereHalfSpaceForce_s4_r_vx	ground_force_SmoothSphereHalfSpaceForce_s4_r_vy	ground_force_SmoothSphereHalfSpaceForce_s4_r_vz	ground_force_SmoothSphereHalfSpaceForce_s4_r_px	ground_force_SmoothSphereHalfSpaceForce_s4_r_py	ground_force_SmoothSphereHalfSpaceForce_s4_r_pz	ground_torque_SmoothSphereHalfSpaceForce_s4_r_x	ground_torque_SmoothSphereHalfSpaceForce_s4_r_y	ground_torque_SmoothSphereHalfSpaceForce_s4_r_z	ground_force_SmoothSphereHalfSpaceForce_s5_r_vx	ground_force_SmoothSphereHalfSpaceForce_s5_r_vy	ground_force_SmoothSphereHalfSpaceForce_s5_r_vz	ground_force_SmoothSphereHalfSpaceForce_s5_r_px	ground_force_SmoothSphereHalfSpaceForce_s5_r_py	ground_force_SmoothSphereHalfSpaceForce_s5_r_pz	ground_torque_SmoothSphereHalfSpaceForce_s5_r_x	ground_torque_SmoothSphereHalfSpaceForce_s5_r_y	ground_torque_SmoothSphereHalfSpaceForce_s5_r_z	ground_force_SmoothSphereHalfSpaceForce_s6_r_vx	ground_force_SmoothSphereHalfSpaceForce_s6_r_vy	ground_force_SmoothSphereHalfSpaceForce_s6_r_vz	ground_force_SmoothSphereHalfSpaceForce_s6_r_px	ground_force_SmoothSphereHalfSpaceForce_s6_r_py	ground_force_SmoothSphereHalfSpaceForce_s6_r_pz	ground_torque_SmoothSphereHalfSpaceForce_s6_r_x	ground_torque_SmoothSphereHalfSpaceForce_s6_r_y	ground_torque_SmoothSphereHalfSpaceForce_s6_r_z	ground_force_SmoothSphereHalfSpaceForce_s1_l_vx	ground_force_SmoothSphereHalfSpaceForce_s1_l_vy	ground_force_SmoothSphereHalfSpaceForce_s1_l_vz	ground_force_SmoothSphereHalfSpaceForce_s1_l_px	ground_force_SmoothSphereHalfSpaceForce_s1_l_py	ground_force_SmoothSphereHalfSpaceForce_s1_l_pz	ground_torque_SmoothSphereHalfSpaceForce_s1_l_x	ground_torque_SmoothSphereHalfSpaceForce_s1_l_y	ground_torque_SmoothSphereHalfSpaceForce_s1_l_z	ground_force_SmoothSphereHalfSpaceForce_s2_l_vx	ground_force_SmoothSphereHalfSpaceForce_s2_l_vy	ground_force_SmoothSphereHalfSpaceForce_s2_l_vz	ground_force_SmoothSphereHalfSpaceForce_s2_l_px	ground_force_SmoothSphereHalfSpaceForce_s2_l_py	ground_force_SmoothSphereHalfSpaceForce_s2_l_pz	ground_torque_SmoothSphereHalfSpaceForce_s2_l_x	ground_torque_SmoothSphereHalfSpaceForce_s2_l_y	ground_torque_SmoothSphereHalfSpaceForce_s2_l_z	ground_force_SmoothSphereHalfSpaceForce_s3_l_vx	ground_force_SmoothSphereHalfSpaceForce_s3_l_vy	ground_force_SmoothSphereHalfSpaceForce_s3_l_vz	ground_force_SmoothSphereHalfSpaceForce_s3_l_px	ground_force_SmoothSphereHalfSpaceForce_s3_l_py	ground_force_SmoothSphereHalfSpaceForce_s3_l_pz	ground_torque_SmoothSphereHalfSpaceForce_s3_l_x	ground_torque_SmoothSphereHalfSpaceForce_s3_l_y	ground_torque_SmoothSphereHalfSpaceForce_s3_l_z	ground_force_SmoothSphereHalfSpaceForce_s4_l_vx	ground_force_SmoothSphereHalfSpaceForce_s4_l_vy	ground_force_SmoothSphereHalfSpaceForce_s4_l_vz	ground_force_SmoothSphereHalfSpaceForce_s4_l_px	ground_force_SmoothSphereHalfSpaceForce_s4_l_py	ground_force_SmoothSphereHalfSpaceForce_s4_l_pz	ground_torque_SmoothSphereHalfSpaceForce_s4_l_x	ground_torque_SmoothSphereHalfSpaceForce_s4_l_y	ground_torque_SmoothSphereHalfSpaceForce_s4_l_z	ground_force_SmoothSphereHalfSpaceForce_s5_l_vx	ground_force_SmoothSphereHalfSpaceForce_s5_l_vy	ground_force_SmoothSphereHalfSpaceForce_s5_l_vz	ground_force_SmoothSphereHalfSpaceForce_s5_l_px	ground_force_SmoothSphereHalfSpaceForce_s5_l_py	ground_force_SmoothSphereHalfSpaceForce_s5_l_pz	ground_torque_SmoothSphereHalfSpaceForce_s5_l_x	ground_torque_SmoothSphereHalfSpaceForce_s5_l_y	ground_torque_SmoothSphereHalfSpaceForce_s5_l_z	ground_force_SmoothSphereHalfSpaceForce_s6_l_vx	ground_force_SmoothSphereHalfSpaceForce_s6_l_vy	ground_force_SmoothSphereHalfSpaceForce_s6_l_vz	ground_force_SmoothSphereHalfSpaceForce_s6_l_px	ground_force_SmoothSphereHalfSpaceForce_s6_l_py	ground_force_SmoothSphereHalfSpaceForce_s6_l_pz	ground_torque_SmoothSphereHalfSpaceForce_s6_l_x	ground_torque_SmoothSphereHalfSpaceForce_s6_l_y	ground_torque_SmoothSphereHalfSpaceForce_s6_l_z	
          4.00000000	         26.56133419	         84.16910748	         -3.03579164	          2.88904801	         -0.00433624	         -0.01527135	          0.00000000	          0.00000000	          0.00000000	         69.92932238	        206.00760353	         29.29054606	          3.00345086	         -0.00890749	         -0.03551367	          0.00000000	          0.00000000	          0.00000000	         20.93200879	         82.58976150	          9.55427707	          2.99237418	         -0.00434661	          0.02702682	          0.00000000	          0.00000000	          0.00000000	         22.44365409	         79.61832339	          3.03363794	          2.93978824	         -0.00418522	          0.00779644	          0.00000000	          0.00000000	          0.00000000	        -36.58284463	        167.77849658	         -7.54777056	          3.06187068	         -0.01125899	         -0.02735426	          0.00000000	          0.00000000	          0.00000000	        -20.70364220	         49.78419739	         -2.73109737	          3.05102853	         -0.00718742	          0.03551581	          0.00000000	          0.00000000	          0.00000000	         -0.00000000	          0.00000000	          0.00000000	          2.60923111	          0.03328245	         -0.16999362	          0.00000000	          0.00000000	          0.00000000	          0.00719953	          0.03482383	          0.03633210	          2.71008241	          0.00706750	         -0.19571266	          0.00000000	          0.00000000	          0.00000000	          0.00000124	          0.00000590	          0.00000612	          2.67873584	          0.01503618	         -0.24938393	          0.00000000	          0.00000000	          0.00000000	          0.00000000	          0.00000000	          0.00000000	          2.64254456	          0.02452814	         -0.21110867	          0.00000000	          0.00000000	          0.00000000	          0.24186423	          0.33076487	          0.25434713	          2.76500876	          0.00543687	         -0.22478608	          0.00000000	          0.00000000	          0.00000000	          0.00000000	          0.00000000	          0.00000000	          2.73894085	          0.02287035	         -0.27212811	          0.00000000	          0.00000000	          0.00000000	
          4.05000000	         18.00481664	        116.26977370	          2.25326384	          2.88644730	         -0.00554458	         -0.01376854	          0.00000000	          0.00000000	          0.00000000	         20.06159545	        130.68674794	          9.87470614	          3.00086380	         -0.00800090	         -0.03535736	          0.00000000	          0.00000000	          0.00000000	         13.66070530	         96.33363861	          5.13454380	          2.99013040	         -0.00510021	          0.02763748	          0.00000000	          0.00000000	          0.00000000	         15.44332093	        104.34820206	          3.69382169	          2.93737586	         -0.00522542	          0.00887343	          0.00000000	          0.00000000	          0.00000000	          1.37671714	         86.42900147	          1.52513799	          3.06060416	         -0.00763579	         -0.02756883	          0.00000000	          0.00000000	          0.00000000	         -0.02890005	         38.66874911	         -0.21465219	          3.05013479	         -0.00336806	          0.03531239	          0.00000000	          0.00000000	          0.00000000	         -0.00000000	         -0.00000000	         -0.00000000	          2.62129379	          0.03737915	         -0.18044356	          0.00000000	          0.00000000	          0.00000000	         -0.06167824	          0.18657533	          0.00366321	          2.71443732	          0.00538854	         -0.20893978	          0.00000000	          0.00000000	          0.00000000	         -0.00000133	          0.00000442	         -0.00000029	          2.68386353	          0.01533727	         -0.26172753	          0.00000000	          0.00000000	          0.00000000	         -0.00000000	          0.00000000	         -0.00000000	          2.65120269	          0.02681480	         -0.22246522	          0.00000000	          0.00000000	          0.00000000	         41.58012492	        119.91206702	        -10.76477925	          2.76369319	         -0.00379728	         -0.24185306	          0.00000000	          0.00000000	          0.00000000	          0.00029783	          0.00054671	         -0.00009081	          2.73895580	          0.01158184	         -0.29263201	          0.00000000	          0.00000000	          0.00000000	
          4.10000000	         41.49475753	         84.43493881	        -10.40211740	          2.88269294	         -0.00548258	         -0.01118941	          0.00000000	          0.00000000	          0.00000000	         21.82950254	         41.61117433	          1.23758474	          2.99697955	         -0.00489275	         -0.03396062	          0.00000000	          0.00000000	          0.00000000	         29.14762122	         66.52597431	          0.91308723	          2.98669893	         -0.00464656	          0.02937403	          0.00000000	          0.00000000	          0.00000000	         35.23498451	         76.24808630	         -4.27023744	          2.93379675	         -0.00506054	          0.01104733	          0.00000000	          0.00000000	          0.00000000	         12.68761854	         22.50663617	          2.94128539	          3.05683018	         -0.00337586	         -0.02652409	          0.00000000	          0.00000000	          0.00000000	          7.84765709	         16.35337457	          1.64882377	          3.04665290	         -0.00149144	          0.03686935	          0.00000000	          0.00000000	          0.00000000	          0.00000000	         -0.00000000	         -0.00000000	          2.64467040	          0.04588701	         -0.18065950	          0.00000000	          0.00000000	          0.00000000	         -0.00290900	          0.00321912	          0.00048504	          2.72748164	          0.00769287	         -0.21046684	          0.00000000	          0.00000000	          0.00000000	          0.00000000	         -0.00000000	         -0.00000000	          2.69909195	          0.01964382	         -0.26281124	          0.00000000	          0.00000000	          0.00000000	          0.00000000	         -0.00000000	         -0.00000000	          2.67062285	          0.03331266	         -0.22309531	          0.00000000	          0.00000000	          0.00000000	        -40.27514659	        103.31022444	         -8.26431796	          2.76983791	         -0.00678666	         -0.24426262	          0.00000000	          0.00000000	          0.00000000	         -0.00170785	          0.00640027	         -0.00081396	          2.74662986	          0.00834139	         -0.29605513	          0.00000000	          0.00000000	          0.00000000	
          4.15000000	          6.28547615	        101.49453268	        -11.65253744	          2.87898957	         -0.00511464	         -0.00836299	          0.00000000	          0.00000000	          0.00000000	          2.67169545	         37.08125062	         -3.13107559	          2.99296456	         -0.00258233	         -0.03214112	          0.00000000	          0.00000000	          0.00000000	          4.28038531	         88.52976596	         -7.11881924	          2.98338736	         -0.00445760	          0.03119468	          0.00000000	          0.00000000	          0.00000000	          5.29965537	         97.42112148	         -9.51352911	          2.93031131	         -0.00485378	          0.01337620	          0.00000000	          0.00000000	          0.00000000	          1.68835271	         14.13958208	         -0.48166353	          3.05274038	         -0.00093362	         -0.02521083	          0.00000000	          0.00000000	          0.00000000	          2.14016659	         23.57772783	         -0.85057764	          3.04325942	         -0.00141087	          0.03839507	          0.00000000	          0.00000000	          0.00000000	         -0.00000000	         -0.00000000	          0.00000000	          2.68157218	          0.05459345	         -0.18575678	          0.00000000	          0.00000000	          0.00000000	         -0.00001284	          0.00001017	          0.00000171	          2.75949599	          0.01369825	         -0.21438472	          0.00000000	          0.00000000	          0.00000000	         -0.00000000	          0.00000000	          0.00000000	          2.73413675	          0.02684552	         -0.26713620	          0.00000000	          0.00000000	          0.00000000	         -0.00000000	         -0.00000000	          0.00000000	          2.70670967	          0.04131561	         -0.22782443	          0.00000000	          0.00000000	          0.00000000	        -34.44012786	         27.88370392	          1.74169152	          2.79726504	         -0.00351361	         -0.24712642	          0.00000000	          0.00000000	          0.00000000	         -0.00029911	          0.00024316	          0.00001666	          2.77518217	          0.01119897	         -0.29988072	          0.00000000	          0.00000000	          0.00000000	
          4.20000000	         10.36718632	        167.77705419	         11.03138572	          2.87708348	         -0.00646745	         -0.00735142	          0.00000000	          0.00000000	          0.00000000	          2.56060848	         53.94725619	         -1.70577781	          2.99104503	         -0.00301068	         -0.03072484	          0.00000000	          0.00000000	          0.00000000	         14.24985266	        153.15318327	         -2.47092411	          2.98140801	         -0.00608821	          0.03241354	          0.00000000	          0.00000000	          0.00000000	         12.98862455	        164.80232271	          4.24683973	          2.92836692	         -0.00638520	          0.01448356	          0.00000000	          0.00000000	          0.00000000	          0.04423620	         19.08509539	         -2.36224243	          3.05078399	         -0.00121937	         -0.02356580	          0.00000000	          0.00000000	          0.00000000	          3.03681797	         52.09444555	         -5.83218949	          3.04121538	         -0.00289196	          0.03994610	          0.00000000	          0.00000000	          0.00000000	         -0.00000000	         -0.00000000	          0.00000000	          2.72996920	          0.05302945	         -0.19507088	          0.00000000	          0.00000000	          0.00000000	         -0.00001031	          0.00000701	          0.00000232	          2.81395545	          0.01521447	         -0.22349213	          0.00000000	          0.00000000	          0.00000000	         -0.00000000	          0.00000000	          0.00000000	          2.78907913	          0.02860881	         -0.27622493	          0.00000000	          0.00000000	          0.00000000	         -0.00000000	         -0.00000000	          0.00000000	          2.75836147	          0.04140621	         -0.23702639	          0.00000000	          0.00000000	          0.00000000	        -22.12787682	         14.92364591	          4.37950369	          2.85293507	         -0.00107170	         -0.25555988	          0.00000000	          0.00000000	          0.00000000	         -0.00008729	          0.00005958	          0.00001713	          2.82958099	          0.01303400	         -0.30842965	          0.00000000	          0.00000000	          0.00000000	
          4.25000000	         26.08252426	        106.68136671	         -3.02105506	          2.87461715	         -0.00665748	         -0.00680528	          0.00000000	          0.00000000	          0.00000000	          6.68921562	         28.81704170	         -2.91084612	          2.98870568	         -0.00258877	         -0.02914222	          0.00000000	          0.00000000	          0.00000000	         32.13675651	        120.95600819	         -9.99395326	          2.97866055	         -0.00669966	          0.03369654	          0.00000000	          0.00000000	          0.00000000	         30.16583064	        117.77667864	         -6.42546707	          2.92574754	         -0.00681910	          0.01538400	          0.00000000	          0.00000000	          0.00000000	          2.01906028	          8.78922047	         -1.26251774	          3.04842239	         -0.00062396	         -0.02137034	          0.00000000	          0.00000000	          0.00000000	         11.86593574	         44.86005096	         -5.84200147	          3.03839001	         -0.00319013	          0.04195043	          0.00000000	          0.00000000	          0.00000000	         -0.00000000	         -0.00000000	          0.00000000	          2.78151857	          0.04016571	         -0.20313411	          0.00000000	          0.00000000	          0.00000000	         -0.00042405	          0.00026648	          0.00004547	          2.87911627	          0.01194415	         -0.23263347	          0.00000000	          0.00000000	          0.00000000	         -0.00000000	          0.00000000	          0.00000000	          2.85084448	          0.02428144	         -0.28468232	          0.00000000	          0.00000000	          0.00000000	         -0.00000000	         -0.00000000	          0.00000000	          2.81484883	          0.03272954	         -0.24526121	          0.00000000	          0.00000000	          0.00000000	         -7.70532448	          4.74726799	          0.67321323	          2.92352465	          0.00012848	         -0.26486609	          0.00000000	          0.00000000	          0.00000000	         -0.00011349	          0.00007085	          0.00001018	          2.89589254	          0.01280993	         -0.31711262	          0.00000000	          0.00000000	          0.00000000	
          4.30000000	         12.27179830	        129.22086067	         -7.78262437	          2.87277964	         -0.00612393	         -0.00572083	          0.00000000	          0.00000000	          0.00000000	          2.88729250	         26.67169395	          0.05085147	          2.98685776	         -0.00181072	         -0.02792705	          0.00000000	          0.00000000	          0.00000000	         10.22893645	        141.58133481	         -0.26161489	          2.97683587	         -0.00654634	          0.03473929	          0.00000000	          0.00000000	          0.00000000	         11.57447776	        140.30606133	         -4.41588686	          2.92391717	         -0.00649505	          0.01644191	          0.00000000	          0.00000000	          0.00000000	          0.68581679	          7.24678634	          0.19123268	          3.04658675	          0.00013284	         -0.02007398	          0.00000000	          0.00000000	          0.00000000	          2.97137509	         48.94176619	          1.07281210	          3.03656515	         -0.00302413	          0.04314161	          0.00000000	          0.00000000	          0.00000000	         -0.00000000	          0.00000000	          0.00000000	          2.84131276	          0.02492551	         -0.21169252	          0.00000000	          0.00000000	          0.00000000	         -0.00248805	          0.00151989	          0.00025684	          2.95057736	          0.01004013	         -0.23919337	          0.00000000	          0.00000000	          0.00000000	         -0.00000007	          0.00000004	          0.00000001	          2.91884375	          0.01985949	         -0.29139021	          0.00000000	          0.00000000	          0.00000000	         -0.00000000	          0.00000000	          0.00000000	          2.87858386	          0.02275535	         -0.25290916	          0.00000000	          0.00000000	          0.00000000	         -0.17806761	          0.10695337	          0.01265075	          3.00016785	          0.00448682	         -0.27035952	          0.00000000	          0.00000000	          0.00000000	         -0.00001240	          0.00000745	          0.00000104	          2.96876555	          0.01451079	         -0.32278551	          0.00000000	          0.00000000	          0.00000000	
          4.35000000	         42.93342229	        239.85772956	        -14.28922101	          2.87063876	         -0.00798719	         -0.00509623	          0.00000000	          0.00000000	          0.00000000	          7.19276771	         34.44513910	         -1.00019904	          2.98436537	         -0.00227673	         -0.02783759	          0.00000000	          0.00000000	          0.00000000	         26.36576844	        151.04532824	         -5.43411653	          2.97485658	         -0.00701588	          0.03490758	          0.00000000	          0.00000000	          0.00000000	         34.96826765	        199.10685376	         -9.58439961	          2.92187380	         -0.00766891	          0.01684346	          0.00000000	          0.00000000	          0.00000000	          1.30564231	          5.37033857	          0.03972471	          3.04400145	          0.00039474	         -0.02028415	          0.00000000	          0.00000000	          0.00000000	          7.85540937	         37.47078659	          0.08416239	          3.03442802	         -0.00280191	          0.04299290	          0.00000000	          0.00000000	          0.00000000	         -0.00191738	          0.00121753	         -0.00010892	          2.90842121	          0.01110083	         -0.21543537	          0.00000000	          0.00000000	          0.00000000	         -0.00550314	          0.00347235	         -0.00072552	          3.02278237	          0.00930159	         -0.23756962	          0.00000000	          0.00000000	          0.00000000	         -0.00000810	          0.00000506	         -0.00000087	          2.98992638	          0.01568103	         -0.29118778	          0.00000000	          0.00000000	          0.00000000	         -0.00010736	          0.00006758	         -0.00000873	          2.94762007	          0.01358525	         -0.25474879	          0.00000000	          0.00000000	          0.00000000	         -0.00145656	          0.00091385	         -0.00024120	          3.07497888	          0.00971372	         -0.26624914	          0.00000000	          0.00000000	          0.00000000	         -0.00000255	          0.00000158	         -0.00000036	          3.04235170	          0.01624554	         -0.32011302	          0.00000000	          0.00000000	          0.00000000	
          4.40000000	         21.37789411	        186.81269192	         13.48860453	          2.86850572	         -0.00907232	         -0.00533702	          0.00000000	          0.00000000	          0.00000000	          1.74934457	         26.13141594	         -4.56234935	          2.98216523	         -0.00207062	         -0.02694190	          0.00000000	          0.00000000	          0.00000000	         22.52018876	        108.21254340	        -17.15796003	          2.97216316	         -0.00649002	          0.03581993	          0.00000000	          0.00000000	          0.00000000	         24.68579284	        149.05693178	         -6.17303793	          2.91944663	         -0.00794606	          0.01717374	          0.00000000	          0.00000000	          0.00000000	          0.56552691	          3.78013083	         -0.93994788	          3.04151123	          0.00116627	         -0.01891034	          0.00000000	          0.00000000	          0.00000000	          6.68152492	         24.18275453	         -5.56742348	          3.03144267	         -0.00192608	          0.04431057	          0.00000000	          0.00000000	          0.00000000	         -8.69766279	          5.68913742	         -1.49461239	          2.97732489	          0.00153114	         -0.20761962	          0.00000000	          0.00000000	          0.00000000	         -0.00110914	          0.00073273	         -0.00024602	          3.09121175	          0.01028021	         -0.22508238	          0.00000000	          0.00000000	          0.00000000	         -0.00015370	          0.00010028	         -0.00003080	          3.05902834	          0.01264810	         -0.28039072	          0.00000000	          0.00000000	          0.00000000	         -0.06385598	          0.04169585	         -0.01183476	          3.01664487	          0.00711220	         -0.24551594	          0.00000000	          0.00000000	          0.00000000	         -0.00000213	          0.00000141	         -0.00000052	          3.14357192	          0.01516880	         -0.25168533	          0.00000000	          0.00000000	          0.00000000	         -0.00000039	          0.00000026	         -0.00000009	          3.11157716	          0.01766611	         -0.30725420	          0.00000000	          0.00000000	          0.00000000	
          4.45000000	         16.80851004	        136.89087692	         35.45822798	          2.86774621	         -0.00779661	         -0.00760492	          0.00000000	          0.00000000	          0.00000000	          0.79178399	         46.24822537	        -11.22854084	          2.98246721	         -0.00256545	         -0.02523964	          0.00000000	          0.00000000	          0.00000000	         39.64118618	        125.25489206	        -24.60081397	          2.96990838	         -0.00605364	          0.03729690	          0.00000000	          0.00000000	          0.00000000	         31.14255220	        136.07309265	          4.80254901	          2.91785982	         -0.00705372	          0.01675086	          0.00000000	          0.00000000	          0.00000000	          0.41850230	         11.44881314	         -5.89009354	          3.04159681	         -0.00014742	         -0.01520001	          0.00000000	          0.00000000	          0.00000000	         14.38977239	         43.03866916	        -19.99454533	          3.02906459	         -0.00242633	          0.04771802	          0.00000000	          0.00000000	          0.00000000	        -74.86312040	         61.21185968	        -25.83638593	          3.03421239	         -0.00284459	         -0.19487156	          0.00000000	          0.00000000	          0.00000000	         -0.00046770	          0.00038667	         -0.00017954	          3.14615422	          0.01138377	         -0.21038254	          0.00000000	          0.00000000	          0.00000000	         -0.00143819	          0.00117083	         -0.00051784	          3.11539726	          0.01056356	         -0.26667224	          0.00000000	          0.00000000	          0.00000000	         -1.18683971	          0.96783503	         -0.41751594	          3.07332465	          0.00376086	         -0.23232137	          0.00000000	          0.00000000	          0.00000000	         -0.00000023	          0.00000019	         -0.00000009	          3.19802232	          0.01827098	         -0.23614413	          0.00000000	          0.00000000	          0.00000000	         -0.00000065	          0.00000053	         -0.00000024	          3.16744213	          0.01756592	         -0.29270713	          0.00000000	          0.00000000	          0.00000000	
          4.50000000	          5.20326104	         66.80455710	         29.25413834	          2.86809017	         -0.00550827	         -0.01225271	          0.00000000	          0.00000000	          0.00000000	          2.40862266	         85.09404635	          6.11251103	          2.98388290	         -0.00424171	         -0.02517466	          0.00000000	          0.00000000	          0.00000000	         31.35736618	        130.42825237	         15.24440263	          2.96831012	         -0.00639922	          0.03692269	          0.00000000	          0.00000000	          0.00000000	         16.03642415	         96.86151780	         27.18169217	          2.91713970	         -0.00602292	          0.01420234	          0.00000000	          0.00000000	          0.00000000	         -4.32582488	         64.58598510	        -14.73013465	          3.04287694	         -0.00314528	         -0.01253333	          0.00000000	          0.00000000	          0.00000000	          9.87006065	         65.23151957	        -11.55628678	          3.02739809	         -0.00369963	          0.04988209	          0.00000000	          0.00000000	          0.00000000	          1.37956971	        149.10761427	        -53.10387528	          3.05696587	         -0.00586132	         -0.18616767	          0.00000000	          0.00000000	          0.00000000	         -0.00118932	          0.01577549	         -0.00827177	          3.16911838	          0.00821785	         -0.20066847	          0.00000000	          0.00000000	          0.00000000	         -0.02449226	          0.14133245	         -0.06717825	          3.13954015	          0.00604135	         -0.25744340	          0.00000000	          0.00000000	          0.00000000	         -0.98097357	         11.62109036	         -4.80447600	          3.09680588	         -0.00004713	         -0.22337438	          0.00000000	          0.00000000	          0.00000000	         -0.00000286	          0.00001938	         -0.00001173	          3.22146825	          0.01459795	         -0.22596133	          0.00000000	          0.00000000	          0.00000000	         -0.00004697	          0.00019020	         -0.00010578	          3.19207601	          0.01252191	         -0.28301714	          0.00000000	          0.00000000	          0.00000000	
          4.55000000	         -3.21029917	          8.91457477	          3.70169517	          2.87169868	         -0.00157024	         -0.01781107	          0.00000000	          0.00000000	          0.00000000	        -24.83776803	         70.57767786	         20.98517573	          2.98764067	         -0.00453467	         -0.02799203	          0.00000000	          0.00000000	          0.00000000	        -21.79696774	         76.10904291	         23.77944606	          2.97040492	         -0.00544287	          0.03378856	          0.00000000	          0.00000000	          0.00000000	        -10.35542412	         32.21984201	         11.75695575	          2.91994237	         -0.00351727	          0.00983249	          0.00000000	          0.00000000	          0.00000000	        -36.02446880	         91.41723638	         17.47132666	          3.04657697	         -0.00479610	         -0.01378561	          0.00000000	          0.00000000	          0.00000000	        -17.40827853	         51.28538249	         10.84314993	          3.02960278	         -0.00358401	          0.04820237	          0.00000000	          0.00000000	          0.00000000	        105.94514916	        129.08138059	        -76.90015057	          3.05002802	         -0.00692192	         -0.17879659	          0.00000000	          0.00000000	          0.00000000	          1.50939702	          1.92981996	         -1.23424860	          3.16404821	          0.00302194	         -0.19240625	          0.00000000	          0.00000000	          0.00000000	          5.31262776	          6.82988329	         -4.36380507	          3.13500599	          0.00096418	         -0.24947484	          0.00000000	          0.00000000	          0.00000000	         45.64157150	         57.05615823	        -35.20120797	          3.09107558	         -0.00309081	         -0.21571776	          0.00000000	          0.00000000	          0.00000000	          0.03966187	          0.05221432	         -0.03458683	          3.21749250	          0.00717549	         -0.21725964	          0.00000000	          0.00000000	          0.00000000	          0.25745299	          0.34113054	         -0.22591721	          3.18865385	          0.00520604	         -0.27461229	          0.00000000	          0.00000000	          0.00000000	
          4.60000000	         -0.01183622	          0.55725755	          0.25241707	          2.87630941	          0.00307834	         -0.02398831	          0.00000000	          0.00000000	          0.00000000	          1.46050142	         81.41109753	         13.58988190	          2.99162779	         -0.00440688	         -0.03166340	          0.00000000	          0.00000000	          0.00000000	          6.12746008	         42.79879883	          9.03584863	          2.97326898	         -0.00347895	          0.02979164	          0.00000000	          0.00000000	          0.00000000	          0.31996880	          4.96946358	          1.66392026	          2.92365051	         -0.00013403	          0.00472280	          0.00000000	          0.00000000	          0.00000000	         -4.25228480	        148.46999632	         -5.62985678	          3.05034621	         -0.00612192	         -0.01618594	          0.00000000	          0.00000000	          0.00000000	          2.42497277	         34.73330323	          0.72707209	          3.03256428	         -0.00266252	          0.04523427	          0.00000000	          0.00000000	          0.00000000	         26.99371227	        133.93785388	          1.91875488	          3.04223346	         -0.00651671	         -0.17282547	          0.00000000	          0.00000000	          0.00000000	          3.44701739	         22.68522647	         -3.96630770	          3.15761544	         -0.00108507	         -0.18508669	          0.00000000	          0.00000000	          0.00000000	          2.96482415	         44.75718868	         -5.73298274	          3.12907609	         -0.00235507	         -0.24249981	          0.00000000	          0.00000000	          0.00000000	         11.98720539	         91.04104524	         -4.96470743	          3.08422076	         -0.00450126	         -0.20926176	          0.00000000	          0.00000000	          0.00000000	          0.47358256	          7.23662759	         -1.54654186	          3.21188446	          0.00097483	         -0.20935842	          0.00000000	          0.00000000	          0.00000000	         -0.19159237	         11.55205016	         -1.95432443	          3.18354230	         -0.00010104	         -0.26705245	          0.00000000	          0.00000000	          0.00000000	
          4.65000000	          0.00003362	          0.00007328	          0.00003832	          2.87771209	          0.00927318	         -0.03198805	          0.00000000	          0.00000000	          0.00000000	         35.45558213	         59.47091034	         17.72741144	          2.99104598	         -0.00414231	         -0.03609634	          0.00000000	          0.00000000	          0.00000000	          2.49574825	          3.97645754	          1.37840640	          2.97199119	         -0.00027921	          0.02468551	          0.00000000	          0.00000000	          0.00000000	          0.03616986	          0.06655857	          0.02910968	          2.92370323	          0.00467951	         -0.00186841	          0.00000000	          0.00000000	          0.00000000	         88.58024358	        173.72184749	         20.80497001	          3.04933617	         -0.00752403	         -0.01907957	          0.00000000	          0.00000000	          0.00000000	          2.97451300	          6.29008505	          1.21963914	          3.03145949	         -0.00053017	          0.04109748	          0.00000000	          0.00000000	          0.00000000	        -13.51737862	         89.78699238	          4.06641128	          3.04330364	         -0.00580512	         -0.17299707	          0.00000000	          0.00000000	          0.00000000	        -10.21989475	         59.01893901	         -6.00660366	          3.15927962	         -0.00337014	         -0.18335100	          0.00000000	          0.00000000	          0.00000000	        -14.55651771	         59.58161974	         -3.98550797	          3.13157659	         -0.00366802	         -0.24122500	          0.00000000	          0.00000000	          0.00000000	        -15.14166526	         75.94622934	         -0.68476981	          3.08602721	         -0.00475801	         -0.20873355	          0.00000000	          0.00000000	          0.00000000	        -10.68001761	         38.04656404	         -3.00458450	          3.21419495	         -0.00225634	         -0.20690703	          0.00000000	          0.00000000	          0.00000000	        -10.03611950	         28.74459704	         -1.36793452	          3.18667297	         -0.00201384	         -0.26503460	          0.00000000	          0.00000000	          0.00000000	
          4.70000000	         -0.00000000	         -0.00000000	         -0.00000000	          2.87958488	          0.01920694	         -0.04029082	          0.00000000	          0.00000000	          0.00000000	         17.28906729	         22.92290587	          6.75643902	          2.98787249	         -0.00231985	         -0.04152905	          0.00000000	          0.00000000	          0.00000000	          0.02732546	          0.04655383	          0.01535625	          2.97032074	          0.00513329	          0.01836211	          0.00000000	          0.00000000	          0.00000000	         -0.00000012	         -0.00000024	         -0.00000008	          2.92387450	          0.01249934	         -0.00922241	          0.00000000	          0.00000000	          0.00000000	        133.32701206	        201.35010518	         47.88022190	          3.04542499	         -0.00831803	         -0.02377648	          0.00000000	          0.00000000	          0.00000000	          0.28016272	          0.76005848	          0.23644146	          3.03022024	          0.00290689	          0.03454444	          0.00000000	          0.00000000	          0.00000000	        -13.63017905	         68.87167931	         -0.83877947	          3.04606045	         -0.00451858	         -0.17328557	          0.00000000	          0.00000000	          0.00000000	        -12.09186257	         58.56419629	         -6.46764557	          3.16224136	         -0.00371401	         -0.18227188	          0.00000000	          0.00000000	          0.00000000	        -13.77949636	         53.81920967	         -4.70781195	          3.13521318	         -0.00351291	         -0.24046576	          0.00000000	          0.00000000	          0.00000000	        -14.02224279	         61.40383954	         -2.98695278	          3.08924238	         -0.00401415	         -0.20851464	          0.00000000	          0.00000000	          0.00000000	        -11.65595223	         43.71806333	         -4.82873795	          3.21760606	         -0.00293102	         -0.20534051	          0.00000000	          0.00000000	          0.00000000	         -7.58771119	         24.00587139	         -2.13350208	          3.19075823	         -0.00182878	         -0.26374294	          0.00000000	          0.00000000	          0.00000000	
          4.75000000	          0.00000000	         -0.00000000	         -0.00000000	          2.88959162	          0.03072408	         -0.04520452	          0.00000000	          0.00000000	          0.00000000	         -0.44775041	          1.73836302	          0.20873387	          2.99015271	          0.00127589	         -0.04538778	          0.00000000	          0.00000000	          0.00000000	         -0.00003711	          0.00008377	          0.00001058	          2.97611454	          0.01141246	          0.01385023	          0.00000000	          0.00000000	          0.00000000	          0.00000000	         -0.00000000	         -0.00000000	          2.93191723	          0.02151693	         -0.01395967	          0.00000000	          0.00000000	          0.00000000	          1.39900379	        183.50874710	         36.75580495	          3.04562610	         -0.00850180	         -0.02767072	          0.00000000	          0.00000000	          0.00000000	         -0.02142621	          0.16393886	          0.03349579	          3.03504124	          0.00519126	          0.02955228	          0.00000000	          0.00000000	          0.00000000	         20.96853532	         70.83311441	          0.41102402	          3.04610855	         -0.00416239	         -0.17388340	          0.00000000	          0.00000000	          0.00000000	         18.38526496	         63.14210422	         -3.92298762	          3.16235839	         -0.00377348	         -0.18205156	          0.00000000	          0.00000000	          0.00000000	         16.89137154	         65.78317915	         -3.05321446	          3.13574741	         -0.00374565	         -0.24043875	          0.00000000	          0.00000000	          0.00000000	         18.87548809	         68.53119973	         -1.33584371	          3.08954527	         -0.00395526	         -0.20880996	          0.00000000	          0.00000000	          0.00000000	         10.23817803	         45.07511191	         -1.57899027	          3.21799698	         -0.00294942	         -0.20485706	          0.00000000	          0.00000000	          0.00000000	          4.78215121	         24.58874511	         -0.48744318	          3.19154701	         -0.00173509	         -0.26343188	          0.00000000	          0.00000000	          0.00000000	
          4.80000000	         -0.00000000	         -0.00000000	         -0.00000000	          2.91290982	          0.03906312	         -0.04100501	          0.00000000	          0.00000000	          0.00000000	         -0.00696750	          0.00632856	         -0.00197690	          3.01014700	          0.00695144	         -0.04228518	          0.00000000	          0.00000000	          0.00000000	         -0.00000003	          0.00000002	         -0.00000001	          2.99881435	          0.01815466	          0.01676340	          0.00000000	          0.00000000	          0.00000000	         -0.00000000	          0.00000000	         -0.00000000	          2.95502212	          0.02910247	         -0.01040305	          0.00000000	          0.00000000	          0.00000000	        -29.59657416	         27.61135940	         -6.38591698	          3.06319119	         -0.00530244	         -0.02502854	          0.00000000	          0.00000000	          0.00000000	         -0.00409775	          0.00385935	         -0.00095855	          3.05471402	          0.00820714	          0.03271757	          0.00000000	          0.00000000	          0.00000000	         17.08959728	         80.66925307	          5.78790128	          3.04381111	         -0.00445371	         -0.17508094	          0.00000000	          0.00000000	          0.00000000	         17.59560941	         82.83357159	          6.74163026	          3.16008171	         -0.00435200	         -0.18298371	          0.00000000	          0.00000000	          0.00000000	         20.65721627	         94.99887429	          7.48385882	          3.13360641	         -0.00469659	         -0.24142851	          0.00000000	          0.00000000	          0.00000000	         18.90252140	         88.00468292	          6.61242086	          3.08732987	         -0.00458567	         -0.20990667	          0.00000000	          0.00000000	          0.00000000	          9.71730914	         60.29047508	          8.95513906	          3.21588970	         -0.00342758	         -0.20581635	          0.00000000	          0.00000000	          0.00000000	          5.99994632	         35.69925956	          5.18840541	          3.18954006	         -0.00225537	         -0.26443981	          0.00000000	          0.00000000	          0.00000000	
          4.85000000	         -0.00000000	         -0.00000000	         -0.00000000	          2.94811328	          0.04276930	         -0.02953760	          0.00000000	          0.00000000	          0.00000000	         -0.00004391	          0.00003579	         -0.00001269	          3.04781588	          0.01265883	         -0.03330303	          0.00000000	          0.00000000	          0.00000000	         -0.00000000	          0.00000000	         -0.00000000	          3.03878589	          0.02508055	          0.02516471	          0.00000000	          0.00000000	          0.00000000	         -0.00000000	         -0.00000000	         -0.00000000	          2.99266337	          0.03444328	         -0.00047245	          0.00000000	          0.00000000	          0.00000000	         -1.54509065	          1.25446313	         -0.32895642	          3.10083826	          0.00070403	         -0.01744062	          0.00000000	          0.00000000	          0.00000000	         -0.00000190	          0.00000152	         -0.00000038	          3.09337731	          0.01429588	          0.04036845	          0.00000000	          0.00000000	          0.00000000	         17.23290583	        101.32148302	         -7.12863015	          3.04213542	         -0.00504933	         -0.17557954	          0.00000000	          0.00000000	          0.00000000	         26.94024212	        145.38793419	         15.22585829	          3.15832479	         -0.00590959	         -0.18443495	          0.00000000	          0.00000000	          0.00000000	         46.33288489	        168.57808300	         10.61039658	          3.13135129	         -0.00649285	         -0.24264390	          0.00000000	          0.00000000	          0.00000000	         29.86598918	        132.75069311	         -0.77525532	          3.08535046	         -0.00578347	         -0.21075182	          0.00000000	          0.00000000	          0.00000000	         11.82387379	        112.58494397	         36.73436087	          3.21414080	         -0.00494420	         -0.20797428	          0.00000000	          0.00000000	          0.00000000	         12.88096292	         65.09810468	         18.26383490	          3.18725383	         -0.00344253	         -0.26632306	          0.00000000	          0.00000000	          0.00000000	
          4.90000000	         -0.00000000	         -0.00000000	         -0.00000000	          3.00122944	          0.04272052	         -0.02221643	          0.00000000	          0.00000000	          0.00000000	         -0.00000482	          0.00000317	         -0.00000032	          3.10428244	          0.01559364	         -0.02645427	          0.00000000	          0.00000000	          0.00000000	         -0.00000000	          0.00000000	         -0.00000000	          3.09597392	          0.02958522	          0.03068699	          0.00000000	          0.00000000	          0.00000000	         -0.00000000	         -0.00000000	         -0.00000000	          3.04781875	          0.03670101	          0.00591333	          0.00000000	          0.00000000	          0.00000000	         -0.20350653	          0.13413200	         -0.01214352	          3.15833988	          0.00517847	         -0.01111206	          0.00000000	          0.00000000	          0.00000000	         -0.00000003	          0.00000002	         -0.00000000	          3.15093688	          0.01979412	          0.04569671	          0.00000000	          0.00000000	          0.00000000	          1.63605889	         14.35905420	         -0.89074169	          3.04157303	         -0.00275258	         -0.17512474	          0.00000000	          0.00000000	          0.00000000	         15.21061517	        101.40796299	          9.97435732	          3.15741061	         -0.00628547	         -0.18575866	          0.00000000	          0.00000000	          0.00000000	         25.39729594	        107.57516829	          6.15366793	          3.12945994	         -0.00678599	         -0.24350786	          0.00000000	          0.00000000	          0.00000000	          8.37902822	         47.25396951	         -0.21034658	          3.08409713	         -0.00476520	         -0.21093372	          0.00000000	          0.00000000	          0.00000000	         14.27389594	        118.24816219	         29.98027100	          3.21308108	         -0.00606370	         -0.21042726	          0.00000000	          0.00000000	          0.00000000	         11.09625787	         57.59829686	         12.30672873	          3.18532841	         -0.00385568	         -0.26827876	          0.00000000	          0.00000000	          0.00000000	
          4.95000000	         -0.00000000	         -0.00000000	          0.00000000	          3.07989269	          0.03258052	         -0.02633541	          0.00000000	          0.00000000	          0.00000000	         -0.00194152	          0.00104842	          0.00019345	          3.18812714	          0.01103985	         -0.02959903	          0.00000000	          0.00000000	          0.00000000	         -0.00000000	          0.00000000	          0.00000000	          3.17646440	          0.02459933	          0.02737250	          0.00000000	          0.00000000	          0.00000000	         -0.00000000	          0.00000000	          0.00000000	          3.12727115	          0.02909616	          0.00218655	          0.00000000	          0.00000000	          0.00000000	         -3.36034797	          1.81464028	          0.31713198	          3.24349201	          0.00319783	         -0.01364031	          0.00000000	          0.00000000	          0.00000000	         -0.00000238	          0.00000131	          0.00000022	          3.23237065	          0.01709478	          0.04328353	          0.00000000	          0.00000000	          0.00000000	          0.11570625	          1.11491102	         -0.01937913	          3.04226311	          0.00216074	         -0.17472566	          0.00000000	          0.00000000	          0.00000000	         12.24832804	         84.10634692	          0.06199663	          3.15732089	         -0.00508966	         -0.18624872	          0.00000000	          0.00000000	          0.00000000	         12.03770789	         76.75561905	         -0.36806343	          3.12881959	         -0.00509980	         -0.24373687	          0.00000000	          0.00000000	          0.00000000	          1.69164503	         12.97168368	         -0.14715276	          3.08411014	         -0.00143167	         -0.21083645	          0.00000000	          0.00000000	          0.00000000	         13.99047312	        134.30477259	          9.33043537	          3.21285193	         -0.00632421	         -0.21153311	          0.00000000	          0.00000000	          0.00000000	          4.54287126	         47.61779285	          3.03551450	          3.18487400	         -0.00322527	         -0.26911202	          0.00000000	          0.00000000	          0.00000000	
