D:\Personal\AI_projectstuff\for_comparison\opencap-processing-grf\OpenCapData_ab7eb7cf-817d-4035-a30b-ee68773906cb\OpenSimData\Dynamics\Suhasno_1\GRF_resultant_Suhasno_1_Suhasno_1_window_1.mot
version=1
nRows=20
nColumns=19
inDegrees=yes
endheader 
time	ground_force_right_vx	ground_force_right_vy	ground_force_right_vz	ground_force_right_px	ground_force_right_py	ground_force_right_pz	ground_torque_right_x	ground_torque_right_y	ground_torque_right_z	ground_force_left_vx	ground_force_left_vy	ground_force_left_vz	ground_force_left_px	ground_force_left_py	ground_force_left_pz	ground_torque_left_x	ground_torque_left_y	ground_torque_left_z	
          1.00000000	        -19.40246985	         17.02056942	          3.21278716	          1.11945977	          0.00000000	          0.02338636	          0.00000000	         -0.04076012	          0.00000000	        160.74082967	        567.14502532	         67.05795275	          1.20779733	          0.00000000	         -0.27796231	          0.00000000	          2.32248568	          0.00000000	
          1.05000000	        -10.24591080	          6.07173017	          0.36881182	          1.19439292	          0.00000000	          0.02657094	          0.00000000	         -0.00061377	          0.00000000	         83.61814133	        477.79414768	         40.40200694	          1.24116969	          0.00000000	         -0.28997576	          0.00000000	          1.53351845	          0.00000000	
          1.10000000	         -6.32002635	          3.11076747	          0.00827175	          1.28366121	          0.00000000	          0.01750943	          0.00000000	          0.00349538	          0.00000000	          0.25079504	        413.80828978	         41.59298189	          1.25108858	          0.00000000	         -0.29634225	          0.00000000	          1.39917784	          0.00000000	
          1.15000000	         -4.33638731	          2.15087208	          0.28433702	          1.28186351	          0.00000000	         -0.02465146	          0.00000000	          0.00681386	          0.00000000	        -38.29711477	        435.08498147	         45.29737850	          1.23907940	          0.00000000	         -0.29797962	          0.00000000	          1.95948778	          0.00000000	
          1.20000000	        -51.67605565	         32.75959686	          9.27169516	          1.35354326	          0.00000000	         -0.03633595	          0.00000000	          0.00352332	          0.00000000	         78.82532956	        414.23116855	         55.24919405	          1.23248038	          0.00000000	         -0.30156374	          0.00000000	          2.08461200	          0.00000000	
          1.25000000	       -118.88558481	        103.43698280	         38.07270465	          1.40907919	          0.00000000	         -0.04669335	          0.00000000	         -0.00397721	          0.00000000	        218.80062970	        438.08493797	         26.36711145	          1.22878003	          0.00000000	         -0.30225672	          0.00000000	          1.20867628	          0.00000000	
          1.30000000	         18.01025955	        270.20995301	          2.50335432	          1.43938764	          0.00000000	         -0.04724043	          0.00000000	         -0.88701129	          0.00000000	        115.79005729	        417.22699691	         33.56713384	          1.23591736	          0.00000000	         -0.30192313	          0.00000000	         -0.44233126	          0.00000000	
          1.35000000	          0.01484218	        399.27462466	        -19.87985030	          1.46079518	          0.00000000	         -0.03141097	          0.00000000	         -5.30717427	          0.00000000	         16.82499277	        187.27465900	         10.06349198	          1.27008070	          0.00000000	         -0.30537007	          0.00000000	         -1.84058871	          0.00000000	
          1.40000000	        -35.33430317	        407.79396210	          1.36911007	          1.47682455	          0.00000000	         -0.02112255	          0.00000000	         -7.56775839	          0.00000000	        -20.05116661	        148.93429182	        -13.43974362	          1.29768217	          0.00000000	         -0.30491075	          0.00000000	         -2.11658284	          0.00000000	
          1.45000000	        -38.06427363	        563.20209079	         31.62197652	          1.48062373	          0.00000000	         -0.01688623	          0.00000000	         -6.23416532	          0.00000000	         80.83842109	        171.91872289	        -37.30269272	          1.31403439	          0.00000000	         -0.29424204	          0.00000000	         -0.92672383	          0.00000000	
          1.50000000	        151.40482509	        606.71850761	          3.13975405	          1.49850957	          0.00000000	         -0.00491842	          0.00000000	         -2.54818414	          0.00000000	         19.00208372	         54.39853891	        -44.80827998	          1.32259480	          0.00000000	         -0.28044702	          0.00000000	          0.02290193	          0.00000000	
          1.55000000	         90.26755533	        498.60403089	        -60.12549130	          1.50911565	          0.00000000	          0.00959857	          0.00000000	         -5.91635529	          0.00000000	          0.00048780	         -0.00045327	         -0.00014800	          0.00000000	          0.00000000	          0.00000000	          0.00000000	          0.00006561	          0.00000000	
          1.60000000	          4.52704834	        396.89322361	        -29.57534818	          1.51782427	          0.00000000	          0.02133192	          0.00000000	         -3.49667604	          0.00000000	         -0.00283260	          0.00176905	          0.00045450	          1.41419570	          0.00000000	         -0.28717250	          0.00000000	         -0.00000000	          0.00000000	
          1.65000000	        -20.25587537	        414.38529940	        -46.53791643	          1.52870225	          0.00000000	          0.02633423	          0.00000000	          2.35949952	          0.00000000	         -0.00465180	          0.00253232	          0.00148841	          1.51064700	          0.00000000	         -0.31265318	          0.00000000	         -0.00000001	          0.00000000	
          1.70000000	         25.35960811	        476.85828003	        -12.39070741	          1.52574229	          0.00000000	          0.02254286	          0.00000000	          3.81389409	          0.00000000	         -0.00306542	          0.00143881	          0.00068020	          1.62870374	          0.00000000	         -0.34187260	          0.00000000	         -0.00000000	          0.00000000	
          1.75000000	        118.33627514	        632.88821292	        -31.25176183	          1.51399796	          0.00000000	          0.01224374	          0.00000000	         -1.35505950	          0.00000000	         -0.00004218	          0.00002055	          0.00000791	          1.60816226	          0.00000000	         -0.31288305	          0.00000000	          0.00000005	          0.00000000	
          1.80000000	        155.32568212	        640.38264885	        -34.33457036	          1.51302310	          0.00000000	          0.00802081	          0.00000000	         -4.95402254	          0.00000000	         -0.35024736	          0.19147645	          0.05959721	          1.68076639	          0.00000000	         -0.32369549	          0.00000000	          0.00000043	          0.00000000	
          1.85000000	        105.55088748	        528.38251645	        -12.91175914	          1.53909715	          0.00000000	          0.01154499	          0.00000000	          1.48123968	          0.00000000	         -4.41746423	          2.89702505	          0.50130107	          1.75890999	          0.00000000	         -0.33472562	          0.00000000	          0.00000087	          0.00000000	
          1.90000000	        133.34062291	        564.57594318	        -11.33293596	          1.56195753	          0.00000000	          0.00842078	          0.00000000	          3.15263561	          0.00000000	        -35.05694500	         29.57178350	         -1.79064095	          1.80988731	          0.00000000	         -0.33748433	          0.00000000	          0.00017340	          0.00000000	
          1.95000000	        152.98283549	        568.34276660	         -7.28918541	          1.57916786	          0.00000000	          0.00547571	          0.00000000	          0.34277956	          0.00000000	          8.92494334	        137.37351853	        -31.74763665	          1.83409358	          0.00000000	         -0.33693722	          0.00000000	          0.04541199	          0.00000000	
