D:\Personal\AI_projectstuff\for_comparison\opencap-processing-grf\OpenCapData_ab7eb7cf-817d-4035-a30b-ee68773906cb\OpenSimData\Dynamics\Suhasno_1\GRF_resultant_Suhasno_1_Suhasno_1_window_2.mot
version=1
nRows=20
nColumns=19
inDegrees=yes
endheader 
time	ground_force_right_vx	ground_force_right_vy	ground_force_right_vz	ground_force_right_px	ground_force_right_py	ground_force_right_pz	ground_torque_right_x	ground_torque_right_y	ground_torque_right_z	ground_force_left_vx	ground_force_left_vy	ground_force_left_vz	ground_force_left_px	ground_force_left_py	ground_force_left_pz	ground_torque_left_x	ground_torque_left_y	ground_torque_left_z	
          2.00000000	          0.01150035	          0.01879933	         -0.02304523	          1.60086976	          0.00000000	         -0.14733207	          0.00000000	         -0.00000002	          0.00000000	         49.76056165	        526.32703082	         41.89774357	          1.90954534	          0.00000000	         -0.24631496	          0.00000000	          1.31047275	          0.00000000	
          2.05000000	          0.61753408	          1.00589438	         -1.15823660	          1.63415059	          0.00000000	         -0.05625812	          0.00000000	         -0.00000057	          0.00000000	         29.97443099	        529.78145316	         29.23962890	          1.91968793	          0.00000000	         -0.24571446	          0.00000000	         -3.38959954	          0.00000000	
          2.10000000	          1.10540707	          6.25151555	         -7.69218364	          1.63036073	          0.00000000	         -0.00797767	          0.00000000	          0.00000000	          0.00000000	         24.56819416	        585.16613035	         45.69229985	          1.92510737	          0.00000000	         -0.24126578	          0.00000000	         -2.46764051	          0.00000000	
          2.15000000	         -1.34119612	          2.25059352	         -2.23758746	          1.64222986	          0.00000000	          0.03361699	          0.00000000	          0.00000000	          0.00000000	         81.66748937	        562.90627128	         33.96204649	          1.91181322	          0.00000000	         -0.23952201	          0.00000000	          3.43220017	          0.00000000	
          2.20000000	         -1.26685232	          1.14487672	         -0.41870580	          1.67327098	          0.00000000	          0.05557670	          0.00000000	         -0.00000000	          0.00000000	         94.93617474	        559.11349546	         26.00213308	          1.90352103	          0.00000000	         -0.23961350	          0.00000000	          2.67198685	          0.00000000	
          2.25000000	         -1.16257469	          0.84208189	         -0.16398118	          1.72230314	          0.00000000	          0.06443880	          0.00000000	         -0.00000000	          0.00000000	        108.58673638	        616.91290174	         28.49507450	          1.90863248	          0.00000000	         -0.24185786	          0.00000000	          0.74851350	          0.00000000	
          2.30000000	         -0.38783888	          0.21400061	         -0.04264198	          1.80564944	          0.00000000	          0.07348573	          0.00000000	         -0.00000000	          0.00000000	         62.57339291	        579.45945175	         32.59472188	          1.91972998	          0.00000000	         -0.24553248	          0.00000000	         -3.62256082	          0.00000000	
          2.35000000	         -0.04251038	          0.02079957	         -0.00258848	          1.91789199	          0.00000000	          0.07969369	          0.00000000	         -0.00000000	          0.00000000	        -13.56256825	        436.45178567	         45.47247062	          1.93078242	          0.00000000	         -0.25093878	          0.00000000	         -1.06506465	          0.00000000	
          2.40000000	         -0.00294812	          0.00140990	         -0.00007919	          2.03238736	          0.00000000	          0.08026324	          0.00000000	          0.00000001	          0.00000000	         56.10357599	        504.35644817	         56.49436636	          1.93724469	          0.00000000	         -0.25527694	          0.00000000	          0.52743552	          0.00000000	
          2.45000000	         -0.11938237	          0.05828967	         -0.00069699	          1.98391141	          0.00000000	          0.02946774	          0.00000000	         -0.00000230	          0.00000000	        102.23935421	        642.40869751	         66.65301437	          1.93831285	          0.00000000	         -0.25533334	          0.00000000	         -1.53919138	          0.00000000	
          2.50000000	        -58.33635105	         31.68579583	          5.50942894	          2.07249945	          0.00000000	          0.02895522	          0.00000000	         -0.00001558	          0.00000000	         84.00835705	        490.75848283	         31.30867726	          1.94228149	          0.00000000	         -0.25509447	          0.00000000	         -1.48011478	          0.00000000	
          2.55000000	       -124.60675424	        104.97013280	         52.40280504	          2.14309761	          0.00000000	          0.01708977	          0.00000000	          0.00027743	          0.00000000	        170.93942366	        388.84529307	         15.68639378	          1.95810648	          0.00000000	         -0.25319392	          0.00000000	         -1.17516060	          0.00000000	
          2.60000000	        -17.80412241	        240.48345684	          1.02021008	          2.17624120	          0.00000000	          0.00837449	          0.00000000	         -0.27752693	          0.00000000	         98.11807968	        477.66345313	         15.39992464	          1.97158665	          0.00000000	         -0.24390196	          0.00000000	         -2.25684020	          0.00000000	
          2.65000000	        -15.81202852	        413.45947040	         -8.33846463	          2.21399018	          0.00000000	          0.02061939	          0.00000000	         -4.42055325	          0.00000000	         65.80256876	        290.69128840	         -1.66275217	          1.99070169	          0.00000000	         -0.23262233	          0.00000000	         -1.56535519	          0.00000000	
          2.70000000	        -25.09037953	        438.99871673	         13.10310811	          2.23401491	          0.00000000	          0.02751620	          0.00000000	         -6.28006434	          0.00000000	        136.74880757	        243.45844587	        -38.82682333	          2.00969464	          0.00000000	         -0.22398772	          0.00000000	         -0.18562041	          0.00000000	
          2.75000000	         73.17953891	        381.70126855	         -5.95590487	          2.24251847	          0.00000000	          0.03331955	          0.00000000	         -6.44298234	          0.00000000	         72.37261386	        158.02265105	        -22.44609173	          2.01223128	          0.00000000	         -0.21891700	          0.00000000	          0.03748335	          0.00000000	
          2.80000000	         70.36006646	        380.02584423	        -33.69062208	          2.24956899	          0.00000000	          0.04317237	          0.00000000	         -2.47490115	          0.00000000	          0.01485807	         -0.01284804	         -0.00361060	          0.00000000	          0.00000000	          0.00000000	          0.00000000	          0.00405749	          0.00000000	
          2.85000000	         53.13794149	        521.63393867	        -33.68599195	          2.26947528	          0.00000000	          0.05429301	          0.00000000	          1.75239623	          0.00000000	         -0.06945213	          0.04251531	          0.00489716	          2.10559390	          0.00000000	         -0.22997362	          0.00000000	         -0.00000000	          0.00000000	
          2.90000000	         36.27896678	        436.17378520	        -35.74632750	          2.29704461	          0.00000000	          0.05969022	          0.00000000	          4.00425212	          0.00000000	         -0.07712123	          0.03875350	          0.00521427	          2.20927310	          0.00000000	         -0.23561432	          0.00000000	         -0.00000000	          0.00000000	
          2.95000000	         73.84130250	        349.01356605	          2.67996125	          2.31163131	          0.00000000	          0.05596614	          0.00000000	          2.87037330	          0.00000000	         -8.04321189	          3.77708672	          0.19697488	          2.31913747	          0.00000000	         -0.23936348	          0.00000000	         -0.00000013	          0.00000000	
