D:\Personal\AI_projectstuff\for_comparison\opencap-processing-grf\OpenCapData_ab7eb7cf-817d-4035-a30b-ee68773906cb\OpenSimData\Dynamics\Suhasno_1\GRF_resultant_Suhasno_1_Suhasno_1_window_0.mot
version=1
nRows=20
nColumns=19
inDegrees=yes
endheader 
time	ground_force_right_vx	ground_force_right_vy	ground_force_right_vz	ground_force_right_px	ground_force_right_py	ground_force_right_pz	ground_torque_right_x	ground_torque_right_y	ground_torque_right_z	ground_force_left_vx	ground_force_left_vy	ground_force_left_vz	ground_force_left_px	ground_force_left_py	ground_force_left_pz	ground_torque_left_x	ground_torque_left_y	ground_torque_left_z	
          0.00000000	         49.29367767	         91.53723681	         85.68758523	          0.89898233	          0.00000000	          0.02568806	          0.00000000	          0.08030320	          0.00000000	         -0.00000000	         -0.00000000	         -0.00000000	          0.00000000	          0.00000000	          0.00000000	          0.00000000	          0.00000000	          0.00000000	
          0.05000000	         13.96957497	        538.71943130	         12.16026720	          0.84744442	          0.00000000	         -0.01600993	          0.00000000	          1.77869111	          0.00000000	         49.53777674	         73.44197820	        -18.38839816	          0.69236869	          0.00000000	         -0.27765481	          0.00000000	         -0.75353832	          0.00000000	
          0.10000000	         -6.20470765	        533.91803762	        -14.16126265	          0.86839330	          0.00000000	         -0.00568066	          0.00000000	          2.80716477	          0.00000000	        -20.09496007	         62.75433452	         -4.81109742	          0.70093921	          0.00000000	         -0.28212273	          0.00000000	         -0.29676092	          0.00000000	
          0.15000000	          4.25326583	        435.46857217	        -25.25898675	          0.88327302	          0.00000000	          0.00111130	          0.00000000	          7.10839151	          0.00000000	        -43.27271725	        121.61545078	         -0.56474036	          0.71735450	          0.00000000	         -0.27549906	          0.00000000	         -0.78366789	          0.00000000	
          0.20000000	        -45.48471232	        370.59446807	         38.04775182	          0.88429943	          0.00000000	          0.00072662	          0.00000000	          3.96809363	          0.00000000	         59.71635714	        143.30949891	        -45.88745321	          0.73366401	          0.00000000	         -0.25947093	          0.00000000	         -0.20329822	          0.00000000	
          0.25000000	        -17.32947772	        578.68243474	         -4.23022821	          0.87920534	          0.00000000	          0.00028833	          0.00000000	         -7.67180152	          0.00000000	         47.48175104	         96.72581324	        -41.96952168	          0.73907705	          0.00000000	         -0.24607368	          0.00000000	          0.29962315	          0.00000000	
          0.30000000	         45.98301710	        574.47081606	        -30.67313179	          0.86563756	          0.00000000	         -0.00132392	          0.00000000	         -5.71592888	          0.00000000	         -5.27849632	          4.89081463	          1.24283299	          0.75016048	          0.00000000	         -0.24899314	          0.00000000	         -0.00082906	          0.00000000	
          0.35000000	         62.72921714	        437.78812070	        -16.73371335	          0.86106107	          0.00000000	          0.00050463	          0.00000000	          0.86322540	          0.00000000	         -1.23697822	          0.77177934	          0.21202699	          0.81022573	          0.00000000	         -0.26565299	          0.00000000	         -0.00099332	          0.00000000	
          0.40000000	          6.40377584	        406.42125598	        -23.39360131	          0.86633533	          0.00000000	          0.00578136	          0.00000000	          1.97312676	          0.00000000	         -4.37013401	          2.63298647	          1.69296033	          0.89617673	          0.00000000	         -0.28887692	          0.00000000	         -0.00348306	          0.00000000	
          0.45000000	         49.95756980	        478.56789118	        -38.97656797	          0.86378902	          0.00000000	          0.00461760	          0.00000000	         -2.43337255	          0.00000000	         -1.28019328	          0.84174241	          0.58692269	          0.98822986	          0.00000000	         -0.31230619	          0.00000000	          0.00001324	          0.00000000	
          0.50000000	         94.68379818	        732.63964018	        -33.51544101	          0.85578898	          0.00000000	          0.00027549	          0.00000000	         -4.10099838	          0.00000000	         -0.00252853	          0.00162932	          0.00088248	          0.95844793	          0.00000000	         -0.27485181	          0.00000000	          0.00000712	          0.00000000	
          0.55000000	         68.17935103	        541.73758874	        -30.96333940	          0.85660527	          0.00000000	          0.00024681	          0.00000000	          0.42515896	          0.00000000	         -0.76767380	          0.49875561	          0.12527731	          0.98871191	          0.00000000	         -0.26143085	          0.00000000	          0.00002003	          0.00000000	
          0.60000000	         53.38357662	        472.89285478	        -24.87627357	          0.86716597	          0.00000000	          0.00441950	          0.00000000	          1.19553322	          0.00000000	         -5.06489307	          3.43327128	          0.00801466	          1.05137619	          0.00000000	         -0.26655620	          0.00000000	          0.00002529	          0.00000000	
          0.65000000	         93.37392078	        582.33666539	        -41.43704950	          0.89151636	          0.00000000	          0.01011581	          0.00000000	          0.58671186	          0.00000000	        -49.21060645	         41.26389499	         -9.17930329	          1.09931330	          0.00000000	         -0.26474341	          0.00000000	          0.00125827	          0.00000000	
          0.70000000	         22.78097332	        420.40742382	         -6.26954057	          0.91766544	          0.00000000	          0.01430902	          0.00000000	          0.00491820	          0.00000000	         15.62117230	        278.21236759	         -2.95014749	          1.12685037	          0.00000000	         -0.26610318	          0.00000000	          0.33490337	          0.00000000	
          0.75000000	        -14.38872504	        169.88804697	          1.10199215	          0.95010012	          0.00000000	          0.01515806	          0.00000000	         -0.14536333	          0.00000000	         23.09304608	        442.44631303	         38.38096012	          1.13831588	          0.00000000	         -0.27497466	          0.00000000	          1.08112476	          0.00000000	
          0.80000000	         20.39887758	         62.97855716	         45.76463608	          0.97532533	          0.00000000	          0.01324454	          0.00000000	         -0.05294053	          0.00000000	          4.96439665	        419.85529433	         -9.08219408	          1.14857118	          0.00000000	         -0.28276250	          0.00000000	          1.93350873	          0.00000000	
          0.85000000	         -0.44835149	         30.18119569	         29.95461347	          0.98036386	          0.00000000	         -0.00123444	          0.00000000	         -0.00887884	          0.00000000	         63.57385590	        503.99628271	          9.81686426	          1.15836190	          0.00000000	         -0.28755090	          0.00000000	          1.70131100	          0.00000000	
          0.90000000	         -9.55374278	         13.40127593	         11.09661002	          0.99377763	          0.00000000	         -0.02477145	          0.00000000	         -0.00080961	          0.00000000	         97.22191039	        639.29028143	         59.40335338	          1.16824930	          0.00000000	         -0.29269349	          0.00000000	          1.57535061	          0.00000000	
          0.95000000	         -2.89406704	          2.41363910	          1.17973205	          1.03202350	          0.00000000	         -0.04747956	          0.00000000	         -0.00000245	          0.00000000	         84.49796915	        502.87712218	         73.06304711	          1.17556228	          0.00000000	         -0.29719951	          0.00000000	         -0.44166816	          0.00000000	
