D:\Personal\AI_projectstuff\for_comparison\opencap-processing-grf\OpenCapData_ab7eb7cf-817d-4035-a30b-ee68773906cb\OpenSimData\Dynamics\Suhasno_1\GRF_Suhasno_1_Suhasno_1_window_3.mot
version=1
nRows=20
nColumns=109
inDegrees=yes
endheader 
time	ground_force_SmoothSphereHalfSpaceForce_s1_r_vx	ground_force_SmoothSphereHalfSpaceForce_s1_r_vy	ground_force_SmoothSphereHalfSpaceForce_s1_r_vz	ground_force_SmoothSphereHalfSpaceForce_s1_r_px	ground_force_SmoothSphereHalfSpaceForce_s1_r_py	ground_force_SmoothSphereHalfSpaceForce_s1_r_pz	ground_torque_SmoothSphereHalfSpaceForce_s1_r_x	ground_torque_SmoothSphereHalfSpaceForce_s1_r_y	ground_torque_SmoothSphereHalfSpaceForce_s1_r_z	ground_force_SmoothSphereHalfSpaceForce_s2_r_vx	ground_force_SmoothSphereHalfSpaceForce_s2_r_vy	ground_force_SmoothSphereHalfSpaceForce_s2_r_vz	ground_force_SmoothSphereHalfSpaceForce_s2_r_px	ground_force_SmoothSphereHalfSpaceForce_s2_r_py	ground_force_SmoothSphereHalfSpaceForce_s2_r_pz	ground_torque_SmoothSphereHalfSpaceForce_s2_r_x	ground_torque_SmoothSphereHalfSpaceForce_s2_r_y	ground_torque_SmoothSphereHalfSpaceForce_s2_r_z	ground_force_SmoothSphereHalfSpaceForce_s3_r_vx	ground_force_SmoothSphereHalfSpaceForce_s3_r_vy	ground_force_SmoothSphereHalfSpaceForce_s3_r_vz	ground_force_SmoothSphereHalfSpaceForce_s3_r_px	ground_force_SmoothSphereHalfSpaceForce_s3_r_py	ground_force_SmoothSphereHalfSpaceForce_s3_r_pz	ground_torque_SmoothSphereHalfSpaceForce_s3_r_x	ground_torque_SmoothSphereHalfSpaceForce_s3_r_y	ground_torque_SmoothSphereHalfSpaceForce_s3_r_z	ground_force_SmoothSphereHalfSpaceForce_s4_r_vx	ground_force_SmoothSphereHalfSpaceForce_s4_r_vy	ground_force_SmoothSphereHalfSpaceForce_s4_r_vz	ground_force_SmoothSphereHalfSpaceForce_s4_r_px	ground_force_SmoothSphereHalfSpaceForce_s4_r_py	ground_force_SmoothSphereHalfSpaceForce_s4_r_pz	ground_torque_SmoothSphereHalfSpaceForce_s4_r_x	ground_torque_SmoothSphereHalfSpaceForce_s4_r_y	ground_torque_SmoothSphereHalfSpaceForce_s4_r_z	ground_force_SmoothSphereHalfSpaceForce_s5_r_vx	ground_force_SmoothSphereHalfSpaceForce_s5_r_vy	ground_force_SmoothSphereHalfSpaceForce_s5_r_vz	ground_force_SmoothSphereHalfSpaceForce_s5_r_px	ground_force_SmoothSphereHalfSpaceForce_s5_r_py	ground_force_SmoothSphereHalfSpaceForce_s5_r_pz	ground_torque_SmoothSphereHalfSpaceForce_s5_r_x	ground_torque_SmoothSphereHalfSpaceForce_s5_r_y	ground_torque_SmoothSphereHalfSpaceForce_s5_r_z	ground_force_SmoothSphereHalfSpaceForce_s6_r_vx	ground_force_SmoothSphereHalfSpaceForce_s6_r_vy	ground_force_SmoothSphereHalfSpaceForce_s6_r_vz	ground_force_SmoothSphereHalfSpaceForce_s6_r_px	ground_force_SmoothSphereHalfSpaceForce_s6_r_py	ground_force_SmoothSphereHalfSpaceForce_s6_r_pz	ground_torque_SmoothSphereHalfSpaceForce_s6_r_x	ground_torque_SmoothSphereHalfSpaceForce_s6_r_y	ground_torque_SmoothSphereHalfSpaceForce_s6_r_z	ground_force_SmoothSphereHalfSpaceForce_s1_l_vx	ground_force_SmoothSphereHalfSpaceForce_s1_l_vy	ground_force_SmoothSphereHalfSpaceForce_s1_l_vz	ground_force_SmoothSphereHalfSpaceForce_s1_l_px	ground_force_SmoothSphereHalfSpaceForce_s1_l_py	ground_force_SmoothSphereHalfSpaceForce_s1_l_pz	ground_torque_SmoothSphereHalfSpaceForce_s1_l_x	ground_torque_SmoothSphereHalfSpaceForce_s1_l_y	ground_torque_SmoothSphereHalfSpaceForce_s1_l_z	ground_force_SmoothSphereHalfSpaceForce_s2_l_vx	ground_force_SmoothSphereHalfSpaceForce_s2_l_vy	ground_force_SmoothSphereHalfSpaceForce_s2_l_vz	ground_force_SmoothSphereHalfSpaceForce_s2_l_px	ground_force_SmoothSphereHalfSpaceForce_s2_l_py	ground_force_SmoothSphereHalfSpaceForce_s2_l_pz	ground_torque_SmoothSphereHalfSpaceForce_s2_l_x	ground_torque_SmoothSphereHalfSpaceForce_s2_l_y	ground_torque_SmoothSphereHalfSpaceForce_s2_l_z	ground_force_SmoothSphereHalfSpaceForce_s3_l_vx	ground_force_SmoothSphereHalfSpaceForce_s3_l_vy	ground_force_SmoothSphereHalfSpaceForce_s3_l_vz	ground_force_SmoothSphereHalfSpaceForce_s3_l_px	ground_force_SmoothSphereHalfSpaceForce_s3_l_py	ground_force_SmoothSphereHalfSpaceForce_s3_l_pz	ground_torque_SmoothSphereHalfSpaceForce_s3_l_x	ground_torque_SmoothSphereHalfSpaceForce_s3_l_y	ground_torque_SmoothSphereHalfSpaceForce_s3_l_z	ground_force_SmoothSphereHalfSpaceForce_s4_l_vx	ground_force_SmoothSphereHalfSpaceForce_s4_l_vy	ground_force_SmoothSphereHalfSpaceForce_s4_l_vz	ground_force_SmoothSphereHalfSpaceForce_s4_l_px	ground_force_SmoothSphereHalfSpaceForce_s4_l_py	ground_force_SmoothSphereHalfSpaceForce_s4_l_pz	ground_torque_SmoothSphereHalfSpaceForce_s4_l_x	ground_torque_SmoothSphereHalfSpaceForce_s4_l_y	ground_torque_SmoothSphereHalfSpaceForce_s4_l_z	ground_force_SmoothSphereHalfSpaceForce_s5_l_vx	ground_force_SmoothSphereHalfSpaceForce_s5_l_vy	ground_force_SmoothSphereHalfSpaceForce_s5_l_vz	ground_force_SmoothSphereHalfSpaceForce_s5_l_px	ground_force_SmoothSphereHalfSpaceForce_s5_l_py	ground_force_SmoothSphereHalfSpaceForce_s5_l_pz	ground_torque_SmoothSphereHalfSpaceForce_s5_l_x	ground_torque_SmoothSphereHalfSpaceForce_s5_l_y	ground_torque_SmoothSphereHalfSpaceForce_s5_l_z	ground_force_SmoothSphereHalfSpaceForce_s6_l_vx	ground_force_SmoothSphereHalfSpaceForce_s6_l_vy	ground_force_SmoothSphereHalfSpaceForce_s6_l_vz	ground_force_SmoothSphereHalfSpaceForce_s6_l_px	ground_force_SmoothSphereHalfSpaceForce_s6_l_py	ground_force_SmoothSphereHalfSpaceForce_s6_l_pz	ground_torque_SmoothSphereHalfSpaceForce_s6_l_x	ground_torque_SmoothSphereHalfSpaceForce_s6_l_y	ground_torque_SmoothSphereHalfSpaceForce_s6_l_z	
          3.00000000	          0.99714319	          0.96093953	         -0.40288232	          2.36450645	          0.00352943	         -0.10581436	          0.00000000	          0.00000000	          0.00000000	          1.21146457	          1.15074547	         -0.31417343	          2.47377748	          0.00338466	         -0.06530378	          0.00000000	          0.00000000	          0.00000000	         12.29337178	         12.13588245	         -4.30908935	          2.43198604	         -0.00045127	         -0.01722229	          0.00000000	          0.00000000	          0.00000000	          4.35763328	          4.25694539	         -1.66725986	          2.39646038	          0.00142869	         -0.06033823	          0.00000000	          0.00000000	          0.00000000	          2.50987221	          2.37411372	         -0.38540699	          2.52074708	          0.00251850	         -0.02790435	          0.00000000	          0.00000000	          0.00000000	         12.42171635	         12.14992285	         -3.01300501	          2.47899456	         -0.00031830	          0.02068626	          0.00000000	          0.00000000	          0.00000000	          0.69328002	         19.15979336	        -11.24360679	          2.45895947	         -0.00068314	         -0.29047122	          0.00000000	          0.00000000	          0.00000000	        -38.43453164	        287.75216641	          0.73709164	          2.57252347	         -0.01149197	         -0.27573205	          0.00000000	          0.00000000	          0.00000000	          7.85200754	         30.55878823	         -1.93495762	          2.56086579	         -0.00213624	         -0.33599143	          0.00000000	          0.00000000	          0.00000000	          3.28659869	         20.69975777	         -6.83270466	          2.50897735	         -0.00108173	         -0.31505498	          0.00000000	          0.00000000	          0.00000000	         10.40027770	        183.25555399	         53.10432291	          2.63341430	         -0.01017446	         -0.28460942	          0.00000000	          0.00000000	          0.00000000	          0.38720697	          0.75566908	          0.18968345	          2.62212838	          0.00346922	         -0.34174555	          0.00000000	          0.00000000	          0.00000000	
          3.05000000	          4.86107303	          6.29862425	         -1.57768785	          2.34541055	          0.00102926	         -0.09865424	          0.00000000	          0.00000000	          0.00000000	          3.16903266	          4.94834121	          0.77802730	          2.45629333	          0.00126199	         -0.06279142	          0.00000000	          0.00000000	          0.00000000	         20.40594362	         45.31404576	          0.31376468	          2.41659878	         -0.00244452	         -0.01292558	          0.00000000	          0.00000000	          0.00000000	         10.67777385	         17.61347237	         -2.25943760	          2.37927108	         -0.00081626	         -0.05453365	          0.00000000	          0.00000000	          0.00000000	          3.01373099	          6.25731978	          1.69073343	          2.50479628	          0.00058599	         -0.02743572	          0.00000000	          0.00000000	          0.00000000	         10.31594765	         34.75836614	          4.27498364	          2.46516191	         -0.00217244	          0.02291495	          0.00000000	          0.00000000	          0.00000000	         -1.68934366	        226.47925869	         24.66634347	          2.45522607	         -0.00648117	         -0.28848580	          0.00000000	          0.00000000	          0.00000000	         -6.35779417	        132.37074181	          3.76154337	          2.57098005	         -0.00969324	         -0.27660738	          0.00000000	          0.00000000	          0.00000000	          0.90977364	         32.00107681	          2.67301115	          2.55540198	         -0.00228106	         -0.33706211	          0.00000000	          0.00000000	          0.00000000	          1.24749307	         96.59897090	          9.48997247	          2.50425363	         -0.00414944	         -0.31458822	          0.00000000	          0.00000000	          0.00000000	          7.35847648	         31.06999371	         -2.85097097	          2.63060521	         -0.00612792	         -0.28810400	          0.00000000	          0.00000000	          0.00000000	          0.12192665	          0.30526270	          0.00639989	          2.61488318	          0.00446319	         -0.34676098	          0.00000000	          0.00000000	          0.00000000	
          3.10000000	         32.12903082	         38.49459843	        -15.39574492	          2.33401866	         -0.00206157	         -0.09525663	          0.00000000	          0.00000000	          0.00000000	          4.30468345	          5.13225276	          1.31098425	          2.44665377	          0.00053350	         -0.06579915	          0.00000000	          0.00000000	          0.00000000	         24.64129029	         51.59725679	          0.40462022	          2.41013994	         -0.00339427	         -0.01362404	          0.00000000	          0.00000000	          0.00000000	         36.41960028	         49.29031572	        -12.38985274	          2.37042866	         -0.00285539	         -0.05308346	          0.00000000	          0.00000000	          0.00000000	          1.89926803	          2.96214777	          1.82081806	          2.49709996	          0.00116254	         -0.03320331	          0.00000000	          0.00000000	          0.00000000	          5.25300253	         18.83853749	          6.93465800	          2.46058775	         -0.00174314	          0.01942364	          0.00000000	          0.00000000	          0.00000000	         12.75249500	        321.49388660	         20.30711854	          2.45163520	         -0.01049895	         -0.29102266	          0.00000000	          0.00000000	          0.00000000	          3.73187561	         38.59094807	          2.22193607	          2.56706730	         -0.00534291	         -0.27875719	          0.00000000	          0.00000000	          0.00000000	          1.75512848	         15.40249430	          1.43431073	          2.55021435	         -0.00137089	         -0.34015819	          0.00000000	          0.00000000	          0.00000000	          8.95223839	        116.25024903	          9.20734565	          2.49982913	         -0.00584695	         -0.31743414	          0.00000000	          0.00000000	          0.00000000	          0.48565413	          1.41214296	         -0.09825968	          2.62529753	          0.00021654	         -0.29103545	          0.00000000	          0.00000000	          0.00000000	          0.02203180	          0.05931695	          0.00010298	          2.60810783	          0.00610905	         -0.35188064	          0.00000000	          0.00000000	          0.00000000	
          3.15000000	         36.65549523	         39.63549017	          9.20809824	          2.32021781	         -0.00293484	         -0.09508761	          0.00000000	          0.00000000	          0.00000000	          2.93899456	          3.80543098	          2.23916046	          2.43437443	          0.00117368	         -0.07313090	          0.00000000	          0.00000000	          0.00000000	         25.37384336	         34.81436131	         20.36174875	          2.40151453	         -0.00269172	         -0.01856284	          0.00000000	          0.00000000	          0.00000000	         33.38019689	         39.33107319	         15.85489993	          2.35931341	         -0.00294690	         -0.05535955	          0.00000000	          0.00000000	          0.00000000	          1.14628058	          1.76472620	          1.30765832	          2.48676556	          0.00248482	         -0.04402447	          0.00000000	          0.00000000	          0.00000000	          5.50658885	          9.64918171	          7.32810931	          2.45392811	         -0.00050698	          0.01095196	          0.00000000	          0.00000000	          0.00000000	         -9.03606877	        222.47846873	        -90.07614923	          2.44998266	         -0.01062155	         -0.29115765	          0.00000000	          0.00000000	          0.00000000	         -1.32133109	         16.61212425	          5.35106085	          2.56484782	         -0.00161049	         -0.28324905	          0.00000000	          0.00000000	          0.00000000	          2.31380056	          8.15445054	          1.77138405	          2.54583536	         -0.00018304	         -0.34446660	          0.00000000	          0.00000000	          0.00000000	         12.14677567	         91.81421930	         -9.24454527	          2.49675377	         -0.00540835	         -0.31962760	          0.00000000	          0.00000000	          0.00000000	          0.04871718	          0.37593886	          0.21835977	          2.62191670	          0.00424785	         -0.29796398	          0.00000000	          0.00000000	          0.00000000	          0.02298487	          0.04821636	          0.02365777	          2.60277333	          0.00674695	         -0.35916086	          0.00000000	          0.00000000	          0.00000000	
          3.20000000	         -0.45409573	         25.00714143	         29.24119904	          2.31409805	         -0.00206122	         -0.11556495	          0.00000000	          0.00000000	          0.00000000	         -0.14276744	          4.51257057	          5.38985257	          2.42915577	          0.00108566	         -0.09814488	          0.00000000	          0.00000000	          0.00000000	         -2.54441132	         37.95931384	         45.05531595	          2.39835349	         -0.00249730	         -0.04231406	          0.00000000	          0.00000000	          0.00000000	         -1.45076796	         32.97295433	         38.83989148	          2.35472789	         -0.00239964	         -0.07741337	          0.00000000	          0.00000000	          0.00000000	         -0.16695095	          3.15127062	          3.79387415	          2.48268015	          0.00188503	         -0.07117912	          0.00000000	          0.00000000	          0.00000000	         -1.36200394	         15.44487520	         18.47262143	          2.45195968	         -0.00088982	         -0.01494779	          0.00000000	          0.00000000	          0.00000000	         41.92457793	        288.58295817	        -81.69830204	          2.44989585	         -0.01043555	         -0.28859217	          0.00000000	          0.00000000	          0.00000000	          3.77127402	         31.13310568	          5.19962427	          2.56512271	         -0.00173025	         -0.28759587	          0.00000000	          0.00000000	          0.00000000	         10.62779190	         31.06675833	          2.66201380	          2.54290190	         -0.00161993	         -0.34779055	          0.00000000	          0.00000000	          0.00000000	         37.06019837	        148.11279129	        -15.31960873	          2.49514877	         -0.00607034	         -0.31994083	          0.00000000	          0.00000000	          0.00000000	          0.42386834	          1.82658887	          0.59798673	          2.62135639	          0.00300456	         -0.30568779	          0.00000000	          0.00000000	          0.00000000	          0.49050841	          1.10723926	          0.27923967	          2.59920113	          0.00372172	         -0.36605000	          0.00000000	          0.00000000	          0.00000000	
          3.25000000	         -1.32743105	          4.84297214	          5.39193245	          2.31936433	          0.00001114	         -0.15057412	          0.00000000	          0.00000000	          0.00000000	         -0.87462135	          3.23095323	          3.73325048	          2.43500177	          0.00137833	         -0.13636657	          0.00000000	          0.00000000	          0.00000000	         -8.41611576	         25.46827917	         28.90252680	          2.40558394	         -0.00208522	         -0.07976429	          0.00000000	          0.00000000	          0.00000000	         -3.77852210	         12.39120281	         13.91785944	          2.36101332	         -0.00114459	         -0.11360382	          0.00000000	          0.00000000	          0.00000000	         -1.10278491	          3.78241745	          4.42579687	          2.48930555	          0.00130864	         -0.11087368	          0.00000000	          0.00000000	          0.00000000	         -6.13446878	         17.52387731	         20.13987576	          2.46001871	         -0.00128668	         -0.05384871	          0.00000000	          0.00000000	          0.00000000	         46.71396164	        291.66081428	         25.58203570	          2.44907592	         -0.01108347	         -0.28794341	          0.00000000	          0.00000000	          0.00000000	         12.86715240	         95.81649333	         -4.83179487	          2.56481311	         -0.00427497	         -0.28885354	          0.00000000	          0.00000000	          0.00000000	          5.98541170	         98.58028942	         -2.17058950	          2.54177086	         -0.00442996	         -0.34873818	          0.00000000	          0.00000000	          0.00000000	         21.24647722	        195.91942406	          6.73894744	          2.49414679	         -0.00779703	         -0.32007125	          0.00000000	          0.00000000	          0.00000000	          1.30516740	         17.90122701	         -1.59903163	          2.62105213	         -0.00075392	         -0.30786026	          0.00000000	          0.00000000	          0.00000000	          0.01165931	         13.40287314	         -0.83436556	          2.59813627	         -0.00038590	         -0.36795045	          0.00000000	          0.00000000	          0.00000000	
          3.30000000	          0.00069890	          0.00514285	          0.00512779	          2.32507360	          0.00548493	         -0.17829532	          0.00000000	          0.00000000	          0.00000000	          0.31736990	          2.78752092	          2.94434230	          2.44098174	          0.00186242	         -0.16859155	          0.00000000	          0.00000000	          0.00000000	          0.04642648	          5.17070166	          5.41036945	          2.41332462	         -0.00011063	         -0.11082717	          0.00000000	          0.00000000	          0.00000000	          0.03483022	          0.53744189	          0.54984272	          2.36778789	          0.00264904	         -0.14293849	          0.00000000	          0.00000000	          0.00000000	          0.75890265	         12.90357223	         13.95196846	          2.49609662	         -0.00033600	         -0.14512557	          0.00000000	          0.00000000	          0.00000000	         -0.89920949	         18.56731253	         19.82228448	          2.46873967	         -0.00131316	         -0.08695094	          0.00000000	          0.00000000	          0.00000000	         10.94223741	        120.38060302	          5.67140118	          2.44879944	         -0.00935149	         -0.28832221	          0.00000000	          0.00000000	          0.00000000	          7.03833867	        101.18045839	          6.35989055	          2.56508509	         -0.00551295	         -0.28856963	          0.00000000	          0.00000000	          0.00000000	          5.50033797	         70.13967428	          3.97824506	          2.54237077	         -0.00486556	         -0.34856627	          0.00000000	          0.00000000	          0.00000000	          8.43144939	         99.16166735	          5.12218412	          2.49431512	         -0.00710996	         -0.32018143	          0.00000000	          0.00000000	          0.00000000	          0.04596702	         52.52669376	          6.85475535	          2.62178708	         -0.00307332	         -0.30734094	          0.00000000	          0.00000000	          0.00000000	          0.20367045	         20.45891604	          2.44323258	          2.59920207	         -0.00164676	         -0.36749314	          0.00000000	          0.00000000	          0.00000000	
          3.35000000	          0.00003594	          0.00004010	         -0.00000693	          2.32490233	          0.01231654	         -0.19068650	          0.00000000	          0.00000000	          0.00000000	         21.34002157	         24.17922894	          8.09263430	          2.43829834	         -0.00097512	         -0.18668388	          0.00000000	          0.00000000	          0.00000000	          2.47542305	          3.28923086	          1.04515769	          2.41428861	          0.00149461	         -0.12738508	          0.00000000	          0.00000000	          0.00000000	          0.01629137	          0.01891581	          0.00104270	          2.36830315	          0.00704707	         -0.15733858	          0.00000000	          0.00000000	          0.00000000	        134.28135349	        198.62677269	         83.93029329	          2.49443744	         -0.00564570	         -0.16544689	          0.00000000	          0.00000000	          0.00000000	          0.81833243	         11.55630850	          3.56758417	          2.47148066	         -0.00085604	         -0.10613642	          0.00000000	          0.00000000	          0.00000000	        -38.30444354	        107.30727475	        -56.88323877	          2.45120322	         -0.00662711	         -0.28497412	          0.00000000	          0.00000000	          0.00000000	        -37.39154493	        103.86412060	        -53.10871355	          2.56771917	         -0.00548381	         -0.28536529	          0.00000000	          0.00000000	          0.00000000	        -19.00360806	         53.63228659	        -27.80358246	          2.54498993	         -0.00366302	         -0.34525963	          0.00000000	          0.00000000	          0.00000000	        -27.96217107	         78.66352393	        -41.26358000	          2.49682495	         -0.00509832	         -0.31685035	          0.00000000	          0.00000000	          0.00000000	        -26.63348775	         65.90304885	        -30.51856589	          2.62467141	         -0.00379909	         -0.30426115	          0.00000000	          0.00000000	          0.00000000	         -5.05094590	         12.58297316	         -5.96745809	          2.60210083	         -0.00088804	         -0.36420430	          0.00000000	          0.00000000	          0.00000000	
          3.40000000	          0.00000115	          0.00000584	         -0.00000533	          2.32489315	          0.01513983	         -0.18647201	          0.00000000	          0.00000000	          0.00000000	        109.63113993	        222.49688171	        -65.67991459	          2.43305834	         -0.00647993	         -0.18993358	          0.00000000	          0.00000000	          0.00000000	         -1.13707605	         10.32045848	         -4.34442362	          2.41604822	          0.00008079	         -0.12947124	          0.00000000	          0.00000000	          0.00000000	          0.00084474	          0.01579565	         -0.01273556	          2.36940871	          0.00791417	         -0.15620142	          0.00000000	          0.00000000	          0.00000000	         -5.62057145	        545.02518712	         36.75702031	          2.49140588	         -0.01194504	         -0.17323019	          0.00000000	          0.00000000	          0.00000000	        -12.89758065	         15.88146782	          0.28518113	          2.47694354	         -0.00083268	         -0.11463486	          0.00000000	          0.00000000	          0.00000000	         -0.05260348	         -0.21865510	         -0.35246463	          2.44805046	         -0.00189795	         -0.32171497	          0.00000000	          0.00000000	          0.00000000	         -0.02520565	         -0.10345314	         -0.16467256	          2.56458423	         -0.00140573	         -0.32120354	          0.00000000	          0.00000000	          0.00000000	         -0.00000001	         -0.00000003	         -0.00000004	          2.54232306	          0.00270932	         -0.38081829	          0.00000000	          0.00000000	          0.00000000	         -0.00002226	         -0.00009583	         -0.00015351	          2.49392861	          0.00052233	         -0.35299675	          0.00000000	          0.00000000	          0.00000000	         -0.00129055	         -0.00488078	         -0.00765336	          2.62164516	          0.00046425	         -0.33943236	          0.00000000	          0.00000000	          0.00000000	         -0.00000000	         -0.00000000	         -0.00000000	          2.59958520	          0.00552032	         -0.39899419	          0.00000000	          0.00000000	          0.00000000	
          3.45000000	          0.00000173	          0.00000712	         -0.00000658	          2.32615896	          0.01494427	         -0.17075490	          0.00000000	          0.00000000	          0.00000000	        284.24864418	        410.34948145	        -79.36967192	          2.42897881	         -0.01131744	         -0.18658897	          0.00000000	          0.00000000	          0.00000000	         17.06969129	        166.84930567	        -56.50476433	          2.41942144	         -0.00514488	         -0.12435179	          0.00000000	          0.00000000	          0.00000000	          0.05359899	          0.25517018	         -0.21862966	          2.37197230	          0.00521672	         -0.14566662	          0.00000000	          0.00000000	          0.00000000	        139.17082802	        679.20667724	        267.26838809	          2.48967401	         -0.01653746	         -0.17763437	          0.00000000	          0.00000000	          0.00000000	        -40.78636436	         65.57959583	         20.50958454	          2.48362786	         -0.00320393	         -0.11942079	          0.00000000	          0.00000000	          0.00000000	         -0.00000000	         -0.00000000	         -0.00000000	          2.43019834	          0.01063505	         -0.40752176	          0.00000000	          0.00000000	          0.00000000	         -0.00000000	         -0.00000000	         -0.00000000	          2.54666697	          0.01061633	         -0.40347135	          0.00000000	          0.00000000	          0.00000000	         -0.00000000	         -0.00000000	         -0.00000000	          2.52625108	          0.01840786	         -0.46227246	          0.00000000	          0.00000000	          0.00000000	         -0.00000000	         -0.00000000	         -0.00000000	          2.47702037	          0.01474732	         -0.43662227	          0.00000000	          0.00000000	          0.00000000	         -0.00000000	         -0.00000000	         -0.00000000	          2.60408002	          0.01285226	         -0.41949953	          0.00000000	          0.00000000	          0.00000000	         -0.00000000	         -0.00000000	         -0.00000000	          2.58391325	          0.02115840	         -0.47826893	          0.00000000	          0.00000000	          0.00000000	
          3.50000000	         -0.00000004	          0.00000003	         -0.00000002	          2.35344856	          0.01832464	         -0.14728179	          0.00000000	          0.00000000	          0.00000000	          0.00470980	         -0.00350638	          0.00168220	          2.45440222	         -0.00763843	         -0.17361395	          0.00000000	          0.00000000	          0.00000000	          0.00097013	         -0.00070232	          0.00033110	          2.44978529	         -0.00298629	         -0.11029471	          0.00000000	          0.00000000	          0.00000000	          0.00013048	         -0.00009675	          0.00005203	          2.40095201	          0.00794057	         -0.12681494	          0.00000000	          0.00000000	          0.00000000	          2.54782389	         -1.98574176	          0.82894717	          2.51529658	         -0.01362952	         -0.16970743	          0.00000000	          0.00000000	          0.00000000	        -17.29699517	         13.56075966	         -6.12162553	          2.51399808	         -0.00214491	         -0.10964714	          0.00000000	          0.00000000	          0.00000000	         -0.00000000	         -0.00000000	         -0.00000000	          2.41902198	          0.03184772	         -0.48009688	          0.00000000	          0.00000000	          0.00000000	         -0.00000000	         -0.00000000	         -0.00000000	          2.53541887	          0.03046040	         -0.47505544	          0.00000000	          0.00000000	          0.00000000	         -0.00000000	         -0.00000000	         -0.00000000	          2.51593201	          0.04131387	         -0.53220685	          0.00000000	          0.00000000	          0.00000000	         -0.00000000	         -0.00000000	         -0.00000000	          2.46629995	          0.03690259	         -0.50783444	          0.00000000	          0.00000000	          0.00000000	         -0.00000000	         -0.00000000	         -0.00000000	          2.59295640	          0.03264255	         -0.49014456	          0.00000000	          0.00000000	          0.00000000	         -0.00000000	         -0.00000000	         -0.00000000	          2.57374435	          0.04379064	         -0.54733098	          0.00000000	          0.00000000	          0.00000000	
          3.55000000	         -0.00000000	          0.00000000	         -0.00000000	          2.42050166	          0.02251646	         -0.12006150	          0.00000000	          0.00000000	          0.00000000	         -2.18442245	          1.34900584	         -0.74572924	          2.52455858	          0.00057200	         -0.14882374	          0.00000000	          0.00000000	          0.00000000	         -0.00496362	          0.00305228	         -0.00166837	          2.52154454	          0.00612346	         -0.08569805	          0.00000000	          0.00000000	          0.00000000	         -0.00000669	          0.00000415	         -0.00000231	          2.47038830	          0.01459628	         -0.10089929	          0.00000000	          0.00000000	          0.00000000	        -43.63745699	         27.92450158	        -14.86645158	          2.58419947	         -0.00643562	         -0.14550784	          0.00000000	          0.00000000	          0.00000000	         -0.71283032	          0.46223699	         -0.25025331	          2.58326199	          0.00276645	         -0.08388870	          0.00000000	          0.00000000	          0.00000000	         -0.00000000	         -0.00000000	         -0.00000000	          2.41513340	          0.05342827	         -0.51563275	          0.00000000	          0.00000000	          0.00000000	         -0.00000000	         -0.00000000	         -0.00000000	          2.53154935	          0.05078469	         -0.51478424	          0.00000000	          0.00000000	          0.00000000	         -0.00000000	         -0.00000000	         -0.00000000	          2.51060732	          0.06323474	         -0.57008911	          0.00000000	          0.00000000	          0.00000000	         -0.00000000	         -0.00000000	         -0.00000000	          2.46165105	          0.05870617	         -0.54446794	          0.00000000	          0.00000000	          0.00000000	         -0.00000000	         -0.00000000	         -0.00000000	          2.58855729	          0.05265573	         -0.53168040	          0.00000000	          0.00000000	          0.00000000	         -0.00000000	         -0.00000000	         -0.00000000	          2.56789497	          0.06529537	         -0.58709282	          0.00000000	          0.00000000	          0.00000000	
          3.60000000	         -0.00000001	          0.00000001	          0.00000000	          2.49720345	          0.02157711	         -0.11066502	          0.00000000	          0.00000000	          0.00000000	         -1.62377766	          1.01971509	          0.04746524	          2.60476228	          0.00340456	         -0.13696106	          0.00000000	          0.00000000	          0.00000000	         -0.00244505	          0.00156062	          0.00008300	          2.60021548	          0.01001894	         -0.07433886	          0.00000000	          0.00000000	          0.00000000	         -0.00000412	          0.00000263	          0.00000024	          2.54801183	          0.01608530	         -0.09054902	          0.00000000	          0.00000000	          0.00000000	        -88.26222955	         56.92825713	          1.77200351	          2.66350807	         -0.00332744	         -0.13210174	          0.00000000	          0.00000000	          0.00000000	         -0.42196785	          0.27938615	          0.00860860	          2.66005972	          0.00496945	         -0.07005930	          0.00000000	          0.00000000	          0.00000000	         -0.00000000	         -0.00000000	         -0.00000000	          2.40481713	          0.06861824	         -0.53105950	          0.00000000	          0.00000000	          0.00000000	         -0.00000000	         -0.00000000	         -0.00000000	          2.52091230	          0.06393808	         -0.53501490	          0.00000000	          0.00000000	          0.00000000	         -0.00000000	         -0.00000000	         -0.00000000	          2.49865434	          0.07710818	         -0.58912580	          0.00000000	          0.00000000	          0.00000000	         -0.00000000	         -0.00000000	         -0.00000000	          2.45047998	          0.07326946	         -0.56163979	          0.00000000	          0.00000000	          0.00000000	         -0.00000000	         -0.00000000	         -0.00000000	          2.57725315	          0.06486591	         -0.55419579	          0.00000000	          0.00000000	          0.00000000	         -0.00000000	         -0.00000000	         -0.00000000	          2.55527509	          0.07817325	         -0.60846488	          0.00000000	          0.00000000	          0.00000000	
          3.65000000	         -0.00034744	          0.00023902	          0.00020478	          2.56838783	          0.01259565	         -0.13527317	          0.00000000	          0.00000000	          0.00000000	         -9.21286456	          6.04337923	          4.29696326	          2.68064660	          0.00103438	         -0.15636022	          0.00000000	          0.00000000	          0.00000000	         -0.25041652	          0.17204088	          0.12675814	          2.67113157	          0.00592855	         -0.09366361	          0.00000000	          0.00000000	          0.00000000	         -0.00847028	          0.00583321	          0.00466221	          2.61889337	          0.00946474	         -0.11254072	          0.00000000	          0.00000000	          0.00000000	        -89.58678371	         59.03284268	         38.78101215	          2.73919889	         -0.00378257	         -0.14848071	          0.00000000	          0.00000000	          0.00000000	         -6.51408999	          4.51051731	          3.07440337	          2.73019371	          0.00173173	         -0.08576081	          0.00000000	          0.00000000	          0.00000000	         -0.00000000	          0.00000000	         -0.00000000	          2.39052677	          0.07450394	         -0.53273806	          0.00000000	          0.00000000	          0.00000000	         -0.00000000	          0.00000000	         -0.00000000	          2.50603885	          0.06747201	         -0.53910320	          0.00000000	          0.00000000	          0.00000000	         -0.00000000	          0.00000000	         -0.00000000	          2.48375305	          0.08111185	         -0.59273504	          0.00000000	          0.00000000	          0.00000000	         -0.00000000	          0.00000000	         -0.00000000	          2.43588641	          0.07824013	         -0.56425713	          0.00000000	          0.00000000	          0.00000000	         -0.00000000	          0.00000000	         -0.00000000	          2.56197956	          0.06723887	         -0.55945813	          0.00000000	          0.00000000	          0.00000000	         -0.00000000	          0.00000000	         -0.00000000	          2.53997498	          0.08098812	         -0.61327392	          0.00000000	          0.00000000	          0.00000000	
          3.70000000	        -23.60240469	         21.41064792	         23.86473054	          2.62747186	         -0.00020650	         -0.18060905	          0.00000000	          0.00000000	          0.00000000	        -16.35528752	         14.14441821	         14.07905781	          2.74313126	         -0.00082785	         -0.19484662	          0.00000000	          0.00000000	          0.00000000	        -38.23307297	         34.99704501	         36.17362369	          2.72817763	         -0.00133243	         -0.13245605	          0.00000000	          0.00000000	          0.00000000	        -30.89851872	         28.21980644	         30.37306816	          2.67678293	         -0.00078082	         -0.15464978	          0.00000000	          0.00000000	          0.00000000	        -12.99335842	         11.03077171	         10.24009772	          2.80174543	         -0.00156080	         -0.18340444	          0.00000000	          0.00000000	          0.00000000	        -32.29674484	         28.98930511	         28.03141671	          2.78708439	         -0.00163453	         -0.12078223	          0.00000000	          0.00000000	          0.00000000	         -0.00000000	          0.00000000	         -0.00000000	          2.37773081	          0.06545763	         -0.50979862	          0.00000000	          0.00000000	          0.00000000	         -0.00000000	          0.00000000	         -0.00000000	          2.49296043	          0.05743359	         -0.51657656	          0.00000000	          0.00000000	          0.00000000	         -0.00000000	          0.00000000	         -0.00000000	          2.47075719	          0.07066297	         -0.57065209	          0.00000000	          0.00000000	          0.00000000	         -0.00000000	          0.00000000	         -0.00000000	          2.42299438	          0.06848586	         -0.54175662	          0.00000000	          0.00000000	          0.00000000	         -0.00000000	          0.00000000	         -0.00000000	          2.54874206	          0.05651917	         -0.53726946	          0.00000000	          0.00000000	          0.00000000	         -0.00000000	          0.00000000	         -0.00000000	          2.52681910	          0.06984378	         -0.59154388	          0.00000000	          0.00000000	          0.00000000	
          3.75000000	         66.44892642	        535.56909468	        178.62934201	          2.65074866	         -0.01051093	         -0.20634861	          0.00000000	          0.00000000	          0.00000000	         15.56599610	        155.29388132	        -26.65902602	          2.76643151	         -0.00461288	         -0.21407373	          0.00000000	          0.00000000	          0.00000000	        126.89885755	        348.18845555	        -33.69516054	          2.74864174	         -0.00824339	         -0.15285271	          0.00000000	          0.00000000	          0.00000000	        112.37518452	        445.85433451	         54.93268675	          2.69857108	         -0.00951339	         -0.17778604	          0.00000000	          0.00000000	          0.00000000	         -1.54601742	         45.30765590	        -29.33001454	          2.82441487	         -0.00192805	         -0.19902509	          0.00000000	          0.00000000	          0.00000000	         32.53305173	        114.43128560	        -64.69605014	          2.80660710	         -0.00439819	         -0.13742163	          0.00000000	          0.00000000	          0.00000000	         -0.00000000	          0.00000000	         -0.00000000	          2.36093893	          0.04541418	         -0.44713294	          0.00000000	          0.00000000	          0.00000000	         -0.00000000	          0.00000000	         -0.00000000	          2.47571948	          0.03660749	         -0.45695864	          0.00000000	          0.00000000	          0.00000000	         -0.00000000	          0.00000000	         -0.00000000	          2.45174043	          0.04807268	         -0.51188053	          0.00000000	          0.00000000	          0.00000000	         -0.00000000	          0.00000000	         -0.00000000	          2.40504097	          0.04712199	         -0.48104649	          0.00000000	          0.00000000	          0.00000000	         -0.00000000	          0.00000000	         -0.00000000	          2.53068270	          0.03470751	         -0.47948232	          0.00000000	          0.00000000	          0.00000000	         -0.00000000	          0.00000000	         -0.00000000	          2.50697587	          0.04625404	         -0.53462945	          0.00000000	          0.00000000	          0.00000000	
          3.80000000	         17.35802865	        134.76384826	         51.69650524	          2.64954269	         -0.01244878	         -0.21088712	          0.00000000	          0.00000000	          0.00000000	         17.87623172	        200.95109065	          5.73960892	          2.76579264	         -0.00864169	         -0.21394058	          0.00000000	          0.00000000	          0.00000000	         61.48173382	        203.93128475	         17.12017419	          2.74518258	         -0.01098289	         -0.15335582	          0.00000000	          0.00000000	          0.00000000	         38.10824207	        172.03785028	         40.81638204	          2.69615382	         -0.01180371	         -0.18034987	          0.00000000	          0.00000000	          0.00000000	         -1.21729105	        116.67309668	        -33.76316908	          2.82344196	         -0.00546318	         -0.19608086	          0.00000000	          0.00000000	          0.00000000	         16.71087541	         76.98369496	        -16.33315906	          2.80254114	         -0.00555865	         -0.13525628	          0.00000000	          0.00000000	          0.00000000	         -0.00000000	         -0.00000000	         -0.00000000	          2.35959304	          0.03320798	         -0.37861054	          0.00000000	          0.00000000	          0.00000000	         -0.00000000	          0.00000001	         -0.00000001	          2.47285793	          0.02187270	         -0.39405261	          0.00000000	          0.00000000	          0.00000000	         -0.00000000	         -0.00000000	         -0.00000000	          2.44623296	          0.03177449	         -0.44897201	          0.00000000	          0.00000000	          0.00000000	         -0.00000000	         -0.00000000	         -0.00000000	          2.40154559	          0.03283779	         -0.41530140	          0.00000000	          0.00000000	          0.00000000	         -0.00000012	          0.00000043	         -0.00000052	          2.52611940	          0.01810719	         -0.41952842	          0.00000000	          0.00000000	          0.00000000	         -0.00000000	          0.00000000	         -0.00000000	          2.49975597	          0.02807411	         -0.47470198	          0.00000000	          0.00000000	          0.00000000	
          3.85000000	          0.10311061	          0.99028537	         -0.15434722	          2.65030252	         -0.00587251	         -0.21299492	          0.00000000	          0.00000000	          0.00000000	         17.89344624	        137.87936333	         11.13084490	          2.76674336	         -0.00792540	         -0.21544893	          0.00000000	          0.00000000	          0.00000000	          0.67664437	        103.34743960	          3.77949675	          2.74553541	         -0.00811033	         -0.15489071	          0.00000000	          0.00000000	          0.00000000	          2.12763585	         41.21010504	         -2.56201504	          2.69669181	         -0.00698598	         -0.18217514	          0.00000000	          0.00000000	          0.00000000	         -0.56005213	        139.50824155	         17.74558169	          2.82489471	         -0.00643809	         -0.19720950	          0.00000000	          0.00000000	          0.00000000	         -7.11090012	         46.74013076	          4.44757053	          2.80368622	         -0.00362159	         -0.13675308	          0.00000000	          0.00000000	          0.00000000	         -0.00000000	         -0.00000000	         -0.00000000	          2.38113481	          0.03476384	         -0.34133719	          0.00000000	          0.00000000	          0.00000000	         -0.00000003	          0.00000004	         -0.00000003	          2.49155955	          0.01952183	         -0.36274865	          0.00000000	          0.00000000	          0.00000000	         -0.00000000	          0.00000000	         -0.00000000	          2.46282840	          0.02933481	         -0.41666112	          0.00000000	          0.00000000	          0.00000000	         -0.00000000	         -0.00000000	         -0.00000000	          2.42056811	          0.03241386	         -0.38044870	          0.00000000	          0.00000000	          0.00000000	         -0.00002467	          0.00003370	         -0.00002472	          2.54253655	          0.01360785	         -0.39110303	          0.00000000	          0.00000000	          0.00000000	         -0.00000000	          0.00000000	         -0.00000000	          2.51405816	          0.02347312	         -0.44528971	          0.00000000	          0.00000000	          0.00000000	
          3.90000000	          0.14768758	          1.58914155	         -0.83932430	          2.65201910	          0.00099209	         -0.20947871	          0.00000000	          0.00000000	          0.00000000	         27.52904588	        140.03447472	         13.43693495	          2.76724706	         -0.00693643	         -0.21671899	          0.00000000	          0.00000000	          0.00000000	        -14.26426725	         99.12479371	         -0.43971164	          2.74870474	         -0.00581674	         -0.15533186	          0.00000000	          0.00000000	          0.00000000	         -0.74541528	         20.76662321	         -5.65872982	          2.69921839	         -0.00233817	         -0.18058841	          0.00000000	          0.00000000	          0.00000000	         -1.31986609	        193.72160988	         63.14524702	          2.82642536	         -0.00756171	         -0.20086109	          0.00000000	          0.00000000	          0.00000000	        -16.37764305	         42.66023463	         10.05096749	          2.80841618	         -0.00279464	         -0.13985880	          0.00000000	          0.00000000	          0.00000000	         -0.00000000	         -0.00000000	         -0.00000000	          2.40833338	          0.03977558	         -0.32490845	          0.00000000	          0.00000000	          0.00000000	         -0.00000001	          0.00000001	         -0.00000000	          2.51495496	          0.02078375	         -0.35266508	          0.00000000	          0.00000000	          0.00000000	         -0.00000000	          0.00000000	         -0.00000000	          2.48437945	          0.03140752	         -0.40492302	          0.00000000	          0.00000000	          0.00000000	         -0.00000000	         -0.00000000	         -0.00000000	          2.44490949	          0.03599931	         -0.36628396	          0.00000000	          0.00000000	          0.00000000	         -0.00005537	          0.00005640	          0.00000609	          2.56320492	          0.01309048	         -0.38393522	          0.00000000	          0.00000000	          0.00000000	         -0.00000000	          0.00000000	          0.00000000	          2.53287249	          0.02375846	         -0.43648263	          0.00000000	          0.00000000	          0.00000000	
          3.95000000	          0.04307288	          0.11924762	         -0.08801398	          2.65196213	          0.00520531	         -0.20144624	          0.00000000	          0.00000000	          0.00000000	         64.03039204	        125.09089981	          4.22356325	          2.76506918	         -0.00657980	         -0.21669713	          0.00000000	          0.00000000	          0.00000000	         13.24921635	        118.66959558	         -7.26190202	          2.75072959	         -0.00570590	         -0.15417886	          0.00000000	          0.00000000	          0.00000000	          1.61957557	          7.22905707	         -2.93823754	          2.70033527	         -0.00016297	         -0.17592075	          0.00000000	          0.00000000	          0.00000000	         56.91986409	        198.06093137	         65.84924340	          2.82535557	         -0.00849784	         -0.20477036	          0.00000000	          0.00000000	          0.00000000	         -7.65223331	         52.16825586	         12.19407674	          2.81197947	         -0.00314246	         -0.14277948	          0.00000000	          0.00000000	          0.00000000	         -0.00000000	         -0.00000000	         -0.00000000	          2.44509310	          0.04098756	         -0.31288782	          0.00000000	          0.00000000	          0.00000000	         -0.00000023	          0.00000020	         -0.00000004	          2.54651462	          0.01861731	         -0.34885044	          0.00000000	          0.00000000	          0.00000000	         -0.00000000	          0.00000000	         -0.00000000	          2.51344591	          0.03036007	         -0.39857068	          0.00000000	          0.00000000	          0.00000000	         -0.00000000	         -0.00000000	         -0.00000000	          2.47777769	          0.03613177	         -0.35698076	          0.00000000	          0.00000000	          0.00000000	         -0.00556839	          0.00497372	         -0.00040483	          2.59107465	          0.00943917	         -0.38377550	          0.00000000	          0.00000000	          0.00000000	         -0.00000001	          0.00000001	         -0.00000000	          2.55822726	          0.02121490	         -0.43380437	          0.00000000	          0.00000000	          0.00000000	
