D:\Personal\AI_projectstuff\for_comparison\opencap-processing-grf\OpenCapData_ab7eb7cf-817d-4035-a30b-ee68773906cb\OpenSimData\Dynamics\Suhasno_1\GRF_resultant_Suhasno_1_Suhasno_1_window_6.mot
version=1
nRows=25
nColumns=19
inDegrees=yes
endheader 
time	ground_force_right_vx	ground_force_right_vy	ground_force_right_vz	ground_force_right_px	ground_force_right_py	ground_force_right_pz	ground_torque_right_x	ground_torque_right_y	ground_torque_right_z	ground_force_left_vx	ground_force_left_vy	ground_force_left_vz	ground_force_left_px	ground_force_left_py	ground_force_left_pz	ground_torque_left_x	ground_torque_left_y	ground_torque_left_z	
          6.00000000	         27.83410210	         32.17221752	         -5.36272892	          3.55306814	          0.00000000	          0.02912580	          0.00000000	          0.24472713	          0.00000000	         14.31321504	        512.44171092	         42.80111110	          3.65504667	          0.00000000	         -0.20611656	          0.00000000	          1.46797314	          0.00000000	
          6.05133333	         17.59312774	         24.66805314	         -2.98193981	          3.54156181	          0.00000000	          0.02577090	          0.00000000	          0.00473639	          0.00000000	         49.97009870	        624.14351359	         54.55116633	          3.63851743	          0.00000000	         -0.20426461	          0.00000000	          3.31029323	          0.00000000	
          6.10266666	          9.80172514	         10.55599476	         -1.67324301	          3.58400329	          0.00000000	          0.02648216	          0.00000000	          0.02458894	          0.00000000	         34.93435584	        490.94411114	         44.26947212	          3.63393262	          0.00000000	         -0.20682436	          0.00000000	          2.73545104	          0.00000000	
          6.15400000	          8.20133813	         16.31924485	         -0.00151428	          3.61859740	          0.00000000	          0.02705107	          0.00000000	          0.04584795	          0.00000000	         20.87218428	        624.15686804	         43.35344152	          3.63013757	          0.00000000	         -0.20985762	          0.00000000	          1.88223138	          0.00000000	
          6.20533333	         -8.80153202	         11.51211354	          3.24498569	          3.62739003	          0.00000000	          0.02429398	          0.00000000	          0.00962552	          0.00000000	         50.85771966	        552.22941764	         40.13797520	          3.62061558	          0.00000000	         -0.21254348	          0.00000000	          1.53992557	          0.00000000	
          6.25666666	         -1.72497475	          1.94646411	          0.79156877	          3.63777576	          0.00000000	          0.01594330	          0.00000000	         -0.00095532	          0.00000000	         58.50007967	        462.21642769	         17.83131262	          3.61702398	          0.00000000	         -0.21792939	          0.00000000	          2.77312315	          0.00000000	
          6.30799999	         -1.94738544	          2.07919653	          1.04603596	          3.64361776	          0.00000000	          0.00326242	          0.00000000	         -0.00125125	          0.00000000	         61.33727764	        578.14966355	         40.12641446	          3.62038098	          0.00000000	         -0.22272220	          0.00000000	          3.48528550	          0.00000000	
          6.35933332	        -15.25260551	         13.88084089	          6.51649078	          3.64941779	          0.00000000	         -0.01017004	          0.00000000	         -0.01868128	          0.00000000	         33.18642454	        544.49263330	         49.89451980	          3.62013538	          0.00000000	         -0.22493748	          0.00000000	          2.17165386	          0.00000000	
          6.41066666	        -35.99953862	         34.41321704	         15.13307959	          3.65771269	          0.00000000	         -0.02179834	          0.00000000	         -0.17599888	          0.00000000	         20.82757335	        491.21307304	         46.16428801	          3.61486489	          0.00000000	         -0.22645669	          0.00000000	          1.64706568	          0.00000000	
          6.46199999	        -17.19610147	         77.17378175	         19.36779675	          3.66319856	          0.00000000	         -0.02666439	          0.00000000	         -1.06128348	          0.00000000	         35.06156952	        527.37677014	         24.66073520	          3.61429413	          0.00000000	         -0.22836022	          0.00000000	          1.68087638	          0.00000000	
          6.51333332	         45.23305099	        179.14337871	          6.64170918	          3.67118538	          0.00000000	         -0.02380716	          0.00000000	         -0.06774711	          0.00000000	        -20.57759245	        391.82239100	         30.55719045	          3.61362421	          0.00000000	         -0.22938917	          0.00000000	          0.27344271	          0.00000000	
          6.56466665	        -20.58108947	        295.19808984	        -65.36578682	          3.66128980	          0.00000000	         -0.01506784	          0.00000000	         -3.43648739	          0.00000000	          4.98872150	        290.20256335	         57.34050534	          3.61976815	          0.00000000	         -0.23236669	          0.00000000	         -0.10274491	          0.00000000	
          6.61599998	        -10.50172328	        355.62793910	        -59.61522544	          3.64585018	          0.00000000	         -0.00756995	          0.00000000	         -3.63193769	          0.00000000	         27.25052864	        226.40888628	         50.29378079	          3.62548770	          0.00000000	         -0.23565689	          0.00000000	          0.15769120	          0.00000000	
          6.66733332	         31.43179379	        355.91611244	        -54.78338021	          3.63430702	          0.00000000	         -0.00221465	          0.00000000	         -1.39770461	          0.00000000	         -0.33534149	        170.91052521	         34.98389209	          3.63314964	          0.00000000	         -0.23881753	          0.00000000	          0.10761381	          0.00000000	
          6.71866665	         39.59902159	        407.99956198	        -60.28108257	          3.63001518	          0.00000000	          0.00126320	          0.00000000	         -1.74311313	          0.00000000	        -17.26509009	        160.14176486	         33.46486333	          3.63948405	          0.00000000	         -0.24015460	          0.00000000	          0.37705649	          0.00000000	
          6.76999998	         51.11589376	        420.99017890	        -58.06168336	          3.62790705	          0.00000000	          0.00302913	          0.00000000	         -0.60951580	          0.00000000	         -9.25790977	        137.92205061	         45.15575039	          3.63551644	          0.00000000	         -0.23891034	          0.00000000	          0.31675791	          0.00000000	
          6.82133331	         31.07380240	        401.28418769	        -26.85954796	          3.62752432	          0.00000000	          0.00498322	          0.00000000	         -0.21414972	          0.00000000	         12.10994537	        133.88204400	          9.01608674	          3.63082132	          0.00000000	         -0.23871283	          0.00000000	         -0.19592030	          0.00000000	
          6.87266664	         25.53373088	        422.57810722	        -21.15549053	          3.62966990	          0.00000000	          0.00642073	          0.00000000	          0.13346633	          0.00000000	         19.94839684	        161.87410557	          8.07140672	          3.63023682	          0.00000000	         -0.23719787	          0.00000000	         -0.47397896	          0.00000000	
          6.92399998	         28.57672634	        383.47106068	        -32.77320766	          3.63406485	          0.00000000	          0.00771769	          0.00000000	          1.08775042	          0.00000000	          2.86228574	        172.13250355	         19.71720080	          3.63475322	          0.00000000	         -0.23648422	          0.00000000	         -0.61328478	          0.00000000	
          6.97533331	         30.39990063	        373.64848052	        -40.05002571	          3.63844467	          0.00000000	          0.00902801	          0.00000000	          1.36661308	          0.00000000	          3.99622206	        187.67905431	         34.72767274	          3.64152450	          0.00000000	         -0.23744506	          0.00000000	         -0.56661835	          0.00000000	
          7.02666664	         31.94879319	        357.40187107	        -25.52768354	          3.64499192	          0.00000000	          0.00999030	          0.00000000	          1.37538737	          0.00000000	         26.27286313	        216.13960451	         25.54105845	          3.64559443	          0.00000000	         -0.23721852	          0.00000000	         -1.12632621	          0.00000000	
          7.07799997	         23.05650471	        291.48973988	        -29.63870176	          3.65427215	          0.00000000	          0.01113445	          0.00000000	          1.14450412	          0.00000000	         24.36212993	        203.54567405	         30.94562281	          3.65177264	          0.00000000	         -0.23686049	          0.00000000	         -1.32316267	          0.00000000	
          7.12933330	         28.93604632	        338.57200072	        -18.70252162	          3.66350888	          0.00000000	          0.01212531	          0.00000000	          1.31853369	          0.00000000	         13.13037113	        257.54042745	         30.95656930	          3.65609432	          0.00000000	         -0.23626774	          0.00000000	         -1.47043820	          0.00000000	
          7.18066664	         16.48578295	        327.29517534	          8.13915916	          3.67021212	          0.00000000	          0.01313788	          0.00000000	          0.63734164	          0.00000000	         54.38651142	        290.78161001	         14.03565484	          3.65850449	          0.00000000	         -0.23506354	          0.00000000	         -1.06488216	          0.00000000	
          7.23199997	         28.30478457	        207.27400347	        -12.15540315	          3.68544776	          0.00000000	          0.01637642	          0.00000000	          0.31693194	          0.00000000	         36.30199149	        252.37562066	         27.63663557	          3.66703050	          0.00000000	         -0.23306597	          0.00000000	         -0.39995384	          0.00000000	
