D:\Personal\AI_projectstuff\for_comparison\opencap-processing-grf\OpenCapData_ab7eb7cf-817d-4035-a30b-ee68773906cb\OpenSimData\Dynamics\Suhasno_1\GRF_resultant_Suhasno_1_Suhasno_1_window_5.mot
version=1
nRows=20
nColumns=19
inDegrees=yes
endheader 
time	ground_force_right_vx	ground_force_right_vy	ground_force_right_vz	ground_force_right_px	ground_force_right_py	ground_force_right_pz	ground_torque_right_x	ground_torque_right_y	ground_torque_right_z	ground_force_left_vx	ground_force_left_vy	ground_force_left_vz	ground_force_left_px	ground_force_left_py	ground_force_left_pz	ground_torque_left_x	ground_torque_left_y	ground_torque_left_z	
          5.00000000	         -0.30395403	          0.19620350	          0.05885662	          3.39648645	          0.00000000	          0.05110551	          0.00000000	          0.00001913	          0.00000000	         23.49262164	        296.34066470	         20.12322869	          3.24740567	          0.00000000	         -0.22427308	          0.00000000	         -2.23222064	          0.00000000	
          5.05000000	         -0.33856842	          0.21758480	          0.08492536	          3.42541856	          0.00000000	          0.01856683	          0.00000000	         -0.00000475	          0.00000000	        102.84265150	        562.99450829	         51.00970615	          3.25310999	          0.00000000	         -0.23368861	          0.00000000	          1.22869249	          0.00000000	
          5.10000000	        -24.27902972	         16.95411879	          5.59992097	          3.35323960	          0.00000000	         -0.00111103	          0.00000000	         -0.00277274	          0.00000000	        118.02536903	        557.04171039	         57.40723607	          3.23842114	          0.00000000	         -0.23077856	          0.00000000	          2.31880429	          0.00000000	
          5.15000000	       -169.90313489	        170.71007199	         71.34306157	          3.38955845	          0.00000000	         -0.00750103	          0.00000000	         -0.02475123	          0.00000000	        239.00490396	        360.64644571	        -27.09767712	          3.23960985	          0.00000000	         -0.22816679	          0.00000000	          0.48657110	          0.00000000	
          5.20000000	         20.32613890	        374.31094948	          8.50984725	          3.41801216	          0.00000000	         -0.00847156	          0.00000000	         -0.28621435	          0.00000000	         51.88437109	        322.34191906	          2.73857017	          3.24629269	          0.00000000	         -0.22440763	          0.00000000	          0.15933749	          0.00000000	
          5.25000000	         18.61291078	        486.91032631	       -115.87736742	          3.43802310	          0.00000000	         -0.00482682	          0.00000000	         -0.61291191	          0.00000000	         -4.70189088	        163.42977419	         47.96387836	          3.26819453	          0.00000000	         -0.21924397	          0.00000000	          0.00069383	          0.00000000	
          5.30000000	         -9.56425367	        447.91427264	        -67.14983366	          3.44657636	          0.00000000	         -0.00126600	          0.00000000	         -6.00901131	          0.00000000	          9.78314719	         25.01201245	         27.42138639	          3.28791796	          0.00000000	         -0.23287583	          0.00000000	         -0.00154310	          0.00000000	
          5.35000000	         45.41084510	        629.75182853	        -44.80053238	          3.45347257	          0.00000000	          0.00183789	          0.00000000	         -8.94320530	          0.00000000	          6.46257710	         14.11807028	         15.90323565	          3.27977072	          0.00000000	         -0.27049338	          0.00000000	         -0.00021643	          0.00000000	
          5.40000000	         31.08419458	        708.97651135	        -22.21542287	          3.45587666	          0.00000000	          0.00623786	          0.00000000	         -2.53377390	          0.00000000	          2.48301071	         18.03908973	         20.07748370	          3.27530955	          0.00000000	         -0.30439245	          0.00000000	         -0.00001761	          0.00000000	
          5.45000000	          0.56306917	        441.60878236	        -27.93002831	          3.44126022	          0.00000000	          0.01017269	          0.00000000	         -1.11953162	          0.00000000	         -0.68487269	          1.01348668	          0.70450576	          3.28516007	          0.00000000	         -0.32828199	          0.00000000	          0.00000000	          0.00000000	
          5.50000000	         49.00636461	        514.22126667	        -29.65206499	          3.43722522	          0.00000000	          0.01357440	          0.00000000	         -2.07306858	          0.00000000	         -0.01340623	          0.01340068	          0.00062545	          3.31083980	          0.00000000	         -0.33424696	          0.00000000	          0.00000000	          0.00000000	
          5.55000000	         16.75902915	        459.22417345	        -33.48208550	          3.44149679	          0.00000000	          0.01772019	          0.00000000	          0.09525592	          0.00000000	         -0.00056898	          0.00042317	         -0.00007307	          3.35667623	          0.00000000	         -0.32970813	          0.00000000	          0.00000000	          0.00000000	
          5.60000000	         24.72699037	        510.29509209	        -12.47019223	          3.45187201	          0.00000000	          0.02163275	          0.00000000	          1.94616653	          0.00000000	         -0.00038327	          0.00022496	         -0.00003205	          3.42927257	          0.00000000	         -0.32324082	          0.00000000	          0.00000000	          0.00000000	
          5.65000000	         25.60838148	        567.94423866	        -18.94409643	          3.46131199	          0.00000000	          0.02304881	          0.00000000	          1.91534490	          0.00000000	         -0.00021839	          0.00012990	         -0.00003571	          3.50938626	          0.00000000	         -0.31120696	          0.00000000	          0.00000000	          0.00000000	
          5.70000000	         32.72574355	        528.49147210	        -26.88669711	          3.45606988	          0.00000000	          0.02126930	          0.00000000	          2.26690715	          0.00000000	         -0.00015791	          0.00010129	         -0.00003588	          3.57288138	          0.00000000	         -0.29116878	          0.00000000	          0.00000004	          0.00000000	
          5.75000000	         65.85195087	        549.54086199	        -53.92460634	          3.45237993	          0.00000000	          0.02055957	          0.00000000	          3.08778139	          0.00000000	         -0.12707614	          0.09322064	         -0.03606353	          3.46730900	          0.00000000	         -0.26243689	          0.00000000	          0.00006486	          0.00000000	
          5.80000000	        166.49206731	        524.94847528	        -19.15471304	          3.45919909	          0.00000000	          0.02265276	          0.00000000	          0.92104144	          0.00000000	        -81.28962899	         82.23894542	        -46.47920976	          3.49625011	          0.00000000	         -0.25356907	          0.00000000	          0.02079862	          0.00000000	
          5.85000000	         71.84635945	        380.65185973	         -3.07511939	          3.47828385	          0.00000000	          0.02468008	          0.00000000	          0.98476035	          0.00000000	         28.75904830	        327.57178839	         25.60882333	          3.54070747	          0.00000000	         -0.25387696	          0.00000000	          0.18530036	          0.00000000	
          5.90000000	        -23.70947861	         92.38470385	        -15.42314058	          3.52029676	          0.00000000	          0.02226144	          0.00000000	          0.57697770	          0.00000000	         50.25371887	        398.71866562	         63.01028220	          3.59308196	          0.00000000	         -0.25965466	          0.00000000	         -0.81165088	          0.00000000	
          5.95000000	        -54.42474009	         57.33745853	          3.18229171	          3.55007794	          0.00000000	          0.01491496	          0.00000000	          0.11748358	          0.00000000	         90.16489130	        555.77646412	         45.19468382	          3.61460884	          0.00000000	         -0.26007493	          0.00000000	          0.13175416	          0.00000000	
