D:\Personal\AI_projectstuff\for_comparison\opencap-processing-grf\OpenCapData_ab7eb7cf-817d-4035-a30b-ee68773906cb\OpenSimData\Dynamics\Suhasno_1\GRF_Suhasno_1_Suhasno_1_window_0.mot
version=1
nRows=20
nColumns=109
inDegrees=yes
endheader 
time	ground_force_SmoothSphereHalfSpaceForce_s1_r_vx	ground_force_SmoothSphereHalfSpaceForce_s1_r_vy	ground_force_SmoothSphereHalfSpaceForce_s1_r_vz	ground_force_SmoothSphereHalfSpaceForce_s1_r_px	ground_force_SmoothSphereHalfSpaceForce_s1_r_py	ground_force_SmoothSphereHalfSpaceForce_s1_r_pz	ground_torque_SmoothSphereHalfSpaceForce_s1_r_x	ground_torque_SmoothSphereHalfSpaceForce_s1_r_y	ground_torque_SmoothSphereHalfSpaceForce_s1_r_z	ground_force_SmoothSphereHalfSpaceForce_s2_r_vx	ground_force_SmoothSphereHalfSpaceForce_s2_r_vy	ground_force_SmoothSphereHalfSpaceForce_s2_r_vz	ground_force_SmoothSphereHalfSpaceForce_s2_r_px	ground_force_SmoothSphereHalfSpaceForce_s2_r_py	ground_force_SmoothSphereHalfSpaceForce_s2_r_pz	ground_torque_SmoothSphereHalfSpaceForce_s2_r_x	ground_torque_SmoothSphereHalfSpaceForce_s2_r_y	ground_torque_SmoothSphereHalfSpaceForce_s2_r_z	ground_force_SmoothSphereHalfSpaceForce_s3_r_vx	ground_force_SmoothSphereHalfSpaceForce_s3_r_vy	ground_force_SmoothSphereHalfSpaceForce_s3_r_vz	ground_force_SmoothSphereHalfSpaceForce_s3_r_px	ground_force_SmoothSphereHalfSpaceForce_s3_r_py	ground_force_SmoothSphereHalfSpaceForce_s3_r_pz	ground_torque_SmoothSphereHalfSpaceForce_s3_r_x	ground_torque_SmoothSphereHalfSpaceForce_s3_r_y	ground_torque_SmoothSphereHalfSpaceForce_s3_r_z	ground_force_SmoothSphereHalfSpaceForce_s4_r_vx	ground_force_SmoothSphereHalfSpaceForce_s4_r_vy	ground_force_SmoothSphereHalfSpaceForce_s4_r_vz	ground_force_SmoothSphereHalfSpaceForce_s4_r_px	ground_force_SmoothSphereHalfSpaceForce_s4_r_py	ground_force_SmoothSphereHalfSpaceForce_s4_r_pz	ground_torque_SmoothSphereHalfSpaceForce_s4_r_x	ground_torque_SmoothSphereHalfSpaceForce_s4_r_y	ground_torque_SmoothSphereHalfSpaceForce_s4_r_z	ground_force_SmoothSphereHalfSpaceForce_s5_r_vx	ground_force_SmoothSphereHalfSpaceForce_s5_r_vy	ground_force_SmoothSphereHalfSpaceForce_s5_r_vz	ground_force_SmoothSphereHalfSpaceForce_s5_r_px	ground_force_SmoothSphereHalfSpaceForce_s5_r_py	ground_force_SmoothSphereHalfSpaceForce_s5_r_pz	ground_torque_SmoothSphereHalfSpaceForce_s5_r_x	ground_torque_SmoothSphereHalfSpaceForce_s5_r_y	ground_torque_SmoothSphereHalfSpaceForce_s5_r_z	ground_force_SmoothSphereHalfSpaceForce_s6_r_vx	ground_force_SmoothSphereHalfSpaceForce_s6_r_vy	ground_force_SmoothSphereHalfSpaceForce_s6_r_vz	ground_force_SmoothSphereHalfSpaceForce_s6_r_px	ground_force_SmoothSphereHalfSpaceForce_s6_r_py	ground_force_SmoothSphereHalfSpaceForce_s6_r_pz	ground_torque_SmoothSphereHalfSpaceForce_s6_r_x	ground_torque_SmoothSphereHalfSpaceForce_s6_r_y	ground_torque_SmoothSphereHalfSpaceForce_s6_r_z	ground_force_SmoothSphereHalfSpaceForce_s1_l_vx	ground_force_SmoothSphereHalfSpaceForce_s1_l_vy	ground_force_SmoothSphereHalfSpaceForce_s1_l_vz	ground_force_SmoothSphereHalfSpaceForce_s1_l_px	ground_force_SmoothSphereHalfSpaceForce_s1_l_py	ground_force_SmoothSphereHalfSpaceForce_s1_l_pz	ground_torque_SmoothSphereHalfSpaceForce_s1_l_x	ground_torque_SmoothSphereHalfSpaceForce_s1_l_y	ground_torque_SmoothSphereHalfSpaceForce_s1_l_z	ground_force_SmoothSphereHalfSpaceForce_s2_l_vx	ground_force_SmoothSphereHalfSpaceForce_s2_l_vy	ground_force_SmoothSphereHalfSpaceForce_s2_l_vz	ground_force_SmoothSphereHalfSpaceForce_s2_l_px	ground_force_SmoothSphereHalfSpaceForce_s2_l_py	ground_force_SmoothSphereHalfSpaceForce_s2_l_pz	ground_torque_SmoothSphereHalfSpaceForce_s2_l_x	ground_torque_SmoothSphereHalfSpaceForce_s2_l_y	ground_torque_SmoothSphereHalfSpaceForce_s2_l_z	ground_force_SmoothSphereHalfSpaceForce_s3_l_vx	ground_force_SmoothSphereHalfSpaceForce_s3_l_vy	ground_force_SmoothSphereHalfSpaceForce_s3_l_vz	ground_force_SmoothSphereHalfSpaceForce_s3_l_px	ground_force_SmoothSphereHalfSpaceForce_s3_l_py	ground_force_SmoothSphereHalfSpaceForce_s3_l_pz	ground_torque_SmoothSphereHalfSpaceForce_s3_l_x	ground_torque_SmoothSphereHalfSpaceForce_s3_l_y	ground_torque_SmoothSphereHalfSpaceForce_s3_l_z	ground_force_SmoothSphereHalfSpaceForce_s4_l_vx	ground_force_SmoothSphereHalfSpaceForce_s4_l_vy	ground_force_SmoothSphereHalfSpaceForce_s4_l_vz	ground_force_SmoothSphereHalfSpaceForce_s4_l_px	ground_force_SmoothSphereHalfSpaceForce_s4_l_py	ground_force_SmoothSphereHalfSpaceForce_s4_l_pz	ground_torque_SmoothSphereHalfSpaceForce_s4_l_x	ground_torque_SmoothSphereHalfSpaceForce_s4_l_y	ground_torque_SmoothSphereHalfSpaceForce_s4_l_z	ground_force_SmoothSphereHalfSpaceForce_s5_l_vx	ground_force_SmoothSphereHalfSpaceForce_s5_l_vy	ground_force_SmoothSphereHalfSpaceForce_s5_l_vz	ground_force_SmoothSphereHalfSpaceForce_s5_l_px	ground_force_SmoothSphereHalfSpaceForce_s5_l_py	ground_force_SmoothSphereHalfSpaceForce_s5_l_pz	ground_torque_SmoothSphereHalfSpaceForce_s5_l_x	ground_torque_SmoothSphereHalfSpaceForce_s5_l_y	ground_torque_SmoothSphereHalfSpaceForce_s5_l_z	ground_force_SmoothSphereHalfSpaceForce_s6_l_vx	ground_force_SmoothSphereHalfSpaceForce_s6_l_vy	ground_force_SmoothSphereHalfSpaceForce_s6_l_vz	ground_force_SmoothSphereHalfSpaceForce_s6_l_px	ground_force_SmoothSphereHalfSpaceForce_s6_l_py	ground_force_SmoothSphereHalfSpaceForce_s6_l_pz	ground_torque_SmoothSphereHalfSpaceForce_s6_l_x	ground_torque_SmoothSphereHalfSpaceForce_s6_l_y	ground_torque_SmoothSphereHalfSpaceForce_s6_l_z	
          0.00000000	         -0.92266449	         -1.87992939	         -1.84974371	          0.81937637	         -0.01441869	         -0.02784911	          0.00000000	          0.00000000	          0.00000000	         10.06057304	         19.18810003	         17.88715715	          0.93281445	         -0.00375417	         -0.01177983	          0.00000000	          0.00000000	          0.00000000	         17.82020158	         31.95255529	         29.66271313	          0.90201727	         -0.00439466	          0.04449721	          0.00000000	          0.00000000	          0.00000000	         19.77707391	         37.70222628	         36.09183974	          0.85920761	         -0.00948134	          0.00987022	          0.00000000	          0.00000000	          0.00000000	          0.98239002	          1.86490482	          1.60152486	          0.98536224	          0.00046811	          0.01393519	          0.00000000	          0.00000000	          0.00000000	          1.57610361	          2.70937978	          2.29409406	          0.95497698	         -0.00073612	          0.07056950	          0.00000000	          0.00000000	          0.00000000	         -0.00000000	         -0.00000000	         -0.00000000	          0.57628061	         -0.00655722	         -0.19866168	          0.00000000	          0.00000000	          0.00000000	         -0.00000000	         -0.00000000	         -0.00000000	          0.69278273	         -0.00800570	         -0.19912172	          0.00000000	          0.00000000	          0.00000000	         -0.00000000	         -0.00000000	         -0.00000000	          0.66997311	         -0.01030037	         -0.25892031	          0.00000000	          0.00000000	          0.00000000	         -0.00000000	         -0.00000000	         -0.00000000	          0.62185298	         -0.00848767	         -0.23052133	          0.00000000	          0.00000000	          0.00000000	         -0.00000000	         -0.00000000	         -0.00000000	          0.74882658	         -0.01084631	         -0.21701814	          0.00000000	          0.00000000	          0.00000000	         -0.00000000	         -0.00000000	         -0.00000000	          0.72622931	         -0.01375925	         -0.27695087	          0.00000000	          0.00000000	          0.00000000	
          0.05000000	          0.08421710	        255.70570914	         19.18169281	          0.81341312	         -0.01001125	         -0.04102633	          0.00000000	          0.00000000	          0.00000000	          0.14612531	         37.47239622	         -3.68199267	          0.92726513	         -0.00205066	         -0.02190606	          0.00000000	          0.00000000	          0.00000000	          5.65320186	         69.12505509	         -3.60691787	          0.89529947	         -0.00330406	          0.03367383	          0.00000000	          0.00000000	          0.00000000	          7.07716670	        163.46843675	          2.23369823	          0.85283104	         -0.00673586	         -0.00216633	          0.00000000	          0.00000000	          0.00000000	          0.14407535	          4.88027926	         -0.87860654	          0.97970339	          0.00152496	          0.00563158	          0.00000000	          0.00000000	          0.00000000	          0.86478864	          8.06755484	         -1.08760676	          0.94786826	          0.00058577	          0.06148411	          0.00000000	          0.00000000	          0.00000000	          0.10454297	          0.32031309	         -0.27501379	          0.56407869	          0.00386613	         -0.20580015	          0.00000000	          0.00000000	          0.00000000	          0.71944658	          1.72498374	         -0.67955823	          0.68032002	          0.00168194	         -0.21288666	          0.00000000	          0.00000000	          0.00000000	         15.02005254	         20.96706669	        -11.46753728	          0.65399796	         -0.00194061	         -0.27095447	          0.00000000	          0.00000000	          0.00000000	          1.63726304	          3.10086830	         -2.28672213	          0.60766404	          0.00086928	         -0.24002263	          0.00000000	          0.00000000	          0.00000000	          2.58888725	          6.45778678	          0.34886283	          0.73582717	         -0.00067679	         -0.23473777	          0.00000000	          0.00000000	          0.00000000	         29.46758437	         40.87095960	         -4.02842956	          0.70976757	         -0.00371388	         -0.29322290	          0.00000000	          0.00000000	          0.00000000	
          0.10000000	         -7.80138192	        173.48257110	         10.26798283	          0.81459264	         -0.00936777	         -0.04147525	          0.00000000	          0.00000000	          0.00000000	         -2.41806209	         64.89935840	         -6.79781618	          0.92862479	         -0.00367352	         -0.02030168	          0.00000000	          0.00000000	          0.00000000	          4.13285594	         99.47761892	         -5.76509055	          0.89573978	         -0.00506712	          0.03472576	          0.00000000	          0.00000000	          0.00000000	          0.07596275	        143.03719347	          0.40553544	          0.85361337	         -0.00728779	         -0.00189164	          0.00000000	          0.00000000	          0.00000000	         -1.15222139	         19.88369127	         -5.22595013	          0.98088336	         -0.00115779	          0.00827503	          0.00000000	          0.00000000	          0.00000000	          0.95813906	         33.13760446	         -7.04592406	          0.94810131	         -0.00204651	          0.06358043	          0.00000000	          0.00000000	          0.00000000	         -0.00376268	          0.00564147	         -0.00349677	          0.56744716	          0.00801868	         -0.19811048	          0.00000000	          0.00000000	          0.00000000	         -0.39608922	          0.61221586	         -0.10784417	          0.68293808	          0.00380585	         -0.21123310	          0.00000000	          0.00000000	          0.00000000	         -3.57671785	          9.56427730	         -3.01609314	          0.65326095	         -0.00052910	         -0.26745865	          0.00000000	          0.00000000	          0.00000000	         -0.27934458	          0.51343400	         -0.25833377	          0.60888649	          0.00364134	         -0.23434475	          0.00000000	          0.00000000	          0.00000000	         -3.47867717	          6.41353339	          0.58618171	          0.73720495	          0.00057427	         -0.23619462	          0.00000000	          0.00000000	          0.00000000	        -12.36036857	         45.64523249	         -2.01151128	          0.70781458	         -0.00275354	         -0.29301379	          0.00000000	          0.00000000	          0.00000000	
          0.15000000	        -16.06285547	        107.21063009	         23.44538282	          0.81660258	         -0.00722513	         -0.04247544	          0.00000000	          0.00000000	          0.00000000	         -4.00885150	         63.45046704	        -14.87826634	          0.93030149	         -0.00391807	         -0.01777402	          0.00000000	          0.00000000	          0.00000000	         13.68123681	         88.77060945	         -8.55042625	          0.89570296	         -0.00514298	          0.03620887	          0.00000000	          0.00000000	          0.00000000	          0.80929922	        101.31912671	          6.84615158	          0.85455203	         -0.00623694	         -0.00169901	          0.00000000	          0.00000000	          0.00000000	          0.50270743	         35.06949623	        -17.68052496	          0.98190615	         -0.00227255	          0.01259187	          0.00000000	          0.00000000	          0.00000000	          9.33172936	         39.64824266	        -14.44130360	          0.94738156	         -0.00265548	          0.06685028	          0.00000000	          0.00000000	          0.00000000	         -0.00002118	          0.00003155	         -0.00002063	          0.57994466	          0.01271817	         -0.19036144	          0.00000000	          0.00000000	          0.00000000	         -0.57066980	          0.81786384	         -0.20806282	          0.69344518	          0.00364041	         -0.20958013	          0.00000000	          0.00000000	          0.00000000	         -2.66940027	          7.31292690	         -3.26419642	          0.66003100	         -0.00001098	         -0.26386986	          0.00000000	          0.00000000	          0.00000000	         -0.02684885	          0.04378205	         -0.02887295	          0.61842246	          0.00629555	         -0.22858766	          0.00000000	          0.00000000	          0.00000000	        -19.09585674	         32.77454526	          5.08373574	          0.74570359	         -0.00170786	         -0.23761435	          0.00000000	          0.00000000	          0.00000000	        -20.90992041	         80.66630119	         -2.14732328	          0.71275256	         -0.00403729	         -0.29265101	          0.00000000	          0.00000000	          0.00000000	
          0.20000000	        -21.83167453	         92.71481950	         25.71866237	          0.81931777	         -0.00553417	         -0.04501374	          0.00000000	          0.00000000	          0.00000000	         -9.03184862	         55.57478618	         -0.76964082	          0.93215708	         -0.00361276	         -0.01613692	          0.00000000	          0.00000000	          0.00000000	         -1.90576218	         74.40866553	          5.99487841	          0.89555685	         -0.00458623	          0.03653037	          0.00000000	          0.00000000	          0.00000000	        -10.70160983	         84.29220483	         15.44648651	          0.85578309	         -0.00509852	         -0.00286749	          0.00000000	          0.00000000	          0.00000000	         -3.25497968	         33.29003584	         -5.88723425	          0.98272436	         -0.00239615	          0.01623151	          0.00000000	          0.00000000	          0.00000000	          1.24116252	         30.31395619	         -2.45540040	          0.94619381	         -0.00230451	          0.06916539	          0.00000000	          0.00000000	          0.00000000	          0.00000000	          0.00000002	         -0.00000001	          0.58844111	          0.01877300	         -0.18221478	          0.00000000	          0.00000000	          0.00000000	          0.42334354	          0.86463234	         -0.57062406	          0.69847559	          0.00340534	         -0.20521703	          0.00000000	          0.00000000	          0.00000000	          1.87295800	          3.27439790	         -2.28412722	          0.66235219	          0.00107690	         -0.25804340	          0.00000000	          0.00000000	          0.00000000	          0.00031575	          0.00071410	         -0.00053291	          0.62377101	          0.00993833	         -0.22153880	          0.00000000	          0.00000000	          0.00000000	         31.66867373	         80.13070731	        -23.90861913	          0.74879044	         -0.00406176	         -0.23574646	          0.00000000	          0.00000000	          0.00000000	         25.75106611	         59.03904725	        -19.12354988	          0.71366056	         -0.00418355	         -0.28961985	          0.00000000	          0.00000000	          0.00000000	
          0.25000000	         22.49150020	        152.13250973	        -33.80011646	          0.81982366	         -0.00618595	         -0.04458134	          0.00000000	          0.00000000	          0.00000000	          3.09730969	         67.35804292	         13.95085036	          0.93279319	         -0.00379902	         -0.01635997	          0.00000000	          0.00000000	          0.00000000	        -22.26901664	        135.17102581	          9.90370266	          0.89657687	         -0.00555447	          0.03649137	          0.00000000	          0.00000000	          0.00000000	         -2.05682010	        146.67432442	        -11.82059780	          0.85655649	         -0.00593363	         -0.00266201	          0.00000000	          0.00000000	          0.00000000	         -3.95862486	         32.00170257	          9.76696714	          0.98358758	         -0.00224397	          0.01588071	          0.00000000	          0.00000000	          0.00000000	        -14.63382601	         45.34482929	          7.76896589	          0.94735844	         -0.00264646	          0.06901555	          0.00000000	          0.00000000	          0.00000000	         -0.00000000	         -0.00000000	         -0.00000000	          0.59032898	          0.02647599	         -0.17881768	          0.00000000	          0.00000000	          0.00000000	          0.07330022	          0.12484545	         -0.03870759	          0.69665424	          0.00509526	         -0.19997765	          0.00000000	          0.00000000	          0.00000000	          0.06750540	          0.16642759	         -0.03064446	          0.66086557	          0.00436839	         -0.25321551	          0.00000000	          0.00000000	          0.00000000	          0.00000030	          0.00000069	         -0.00000003	          0.62400085	          0.01551362	         -0.21744791	          0.00000000	          0.00000000	          0.00000000	         39.06862718	         71.41850338	        -33.32622778	          0.74604721	         -0.00453099	         -0.23022176	          0.00000000	          0.00000000	          0.00000000	          8.27231794	         25.01603613	         -8.57394182	          0.71206098	         -0.00241753	         -0.28466052	          0.00000000	          0.00000000	          0.00000000	
          0.30000000	         38.98868971	        186.64229104	        -39.18495124	          0.81708595	         -0.00776941	         -0.04129079	          0.00000000	          0.00000000	          0.00000000	          4.94839746	         30.98653435	          4.58751151	          0.93071953	         -0.00293190	         -0.01730845	          0.00000000	          0.00000000	          0.00000000	         -6.52587543	        141.85637628	          7.51973316	          0.89697170	         -0.00689196	          0.03668755	          0.00000000	          0.00000000	          0.00000000	         12.84387409	        169.56872354	        -14.09218543	          0.85545308	         -0.00747088	         -0.00086318	          0.00000000	          0.00000000	          0.00000000	          0.47111214	          5.98438510	          1.91989608	          0.98258346	         -0.00050935	          0.01315136	          0.00000000	          0.00000000	          0.00000000	         -4.74318088	         39.43250575	          8.57686413	          0.94862927	         -0.00293580	          0.06755790	          0.00000000	          0.00000000	          0.00000000	         -0.00000000	         -0.00000000	          0.00000000	          0.60663411	          0.03387420	         -0.18520064	          0.00000000	          0.00000000	          0.00000000	         -0.00016837	          0.00015359	          0.00005445	          0.71135899	          0.01025544	         -0.20476247	          0.00000000	          0.00000000	          0.00000000	         -0.00010320	          0.00009417	          0.00003333	          0.67652640	          0.01049706	         -0.25864817	          0.00000000	          0.00000000	          0.00000000	         -0.00000000	          0.00000000	          0.00000000	          0.64001995	          0.02231689	         -0.22338291	          0.00000000	          0.00000000	          0.00000000	         -3.81354330	          3.52562121	          0.90769843	          0.75976287	         -0.00099706	         -0.23375375	          0.00000000	          0.00000000	          0.00000000	         -1.46468145	          1.36494566	          0.33504677	          0.72664570	          0.00140264	         -0.28867850	          0.00000000	          0.00000000	          0.00000000	
          0.35000000	         16.18121376	        145.55072404	         -1.04508289	          0.81394351	         -0.00765525	         -0.03948825	          0.00000000	          0.00000000	          0.00000000	          1.71286392	         13.11633442	         -1.26796585	          0.92751787	         -0.00103311	         -0.01697596	          0.00000000	          0.00000000	          0.00000000	         19.10616419	        112.79524549	         -7.77212676	          0.89496304	         -0.00634674	          0.03728688	          0.00000000	          0.00000000	          0.00000000	         18.93696795	        134.01745744	         -4.92743027	          0.85291242	         -0.00718981	          0.00035322	          0.00000000	          0.00000000	          0.00000000	          0.49070620	          2.64387155	         -0.19598841	          0.97965980	          0.00176994	          0.01271386	          0.00000000	          0.00000000	          0.00000000	          6.30130111	         29.66448776	         -1.52511917	          0.94685301	         -0.00217154	          0.06746862	          0.00000000	          0.00000000	          0.00000000	         -0.00000000	         -0.00000000	          0.00000000	          0.66425007	          0.03545917	         -0.18941457	          0.00000000	          0.00000000	          0.00000000	         -0.00001643	          0.00000983	          0.00000233	          0.76964975	          0.01444445	         -0.21598115	          0.00000000	          0.00000000	          0.00000000	         -0.00001840	          0.00001137	          0.00000184	          0.73176306	          0.01443374	         -0.26776734	          0.00000000	          0.00000000	          0.00000000	         -0.00000000	          0.00000000	          0.00000000	          0.69635421	          0.02505671	         -0.22995177	          0.00000000	          0.00000000	          0.00000000	         -0.83774688	          0.51642040	          0.15500262	          0.81624619	          0.00351538	         -0.24721126	          0.00000000	          0.00000000	          0.00000000	         -0.39919651	          0.25533773	          0.05702019	          0.77926387	          0.00464040	         -0.29978269	          0.00000000	          0.00000000	          0.00000000	
          0.40000000	         -6.08216618	        114.71193302	          2.62995798	          0.81366799	         -0.00654881	         -0.03959216	          0.00000000	          0.00000000	          0.00000000	         -0.54479614	         15.54803723	         -2.32713060	          0.92714784	         -0.00090827	         -0.01558362	          0.00000000	          0.00000000	          0.00000000	          7.58302558	        113.34265084	        -11.57227462	          0.89368455	         -0.00586593	          0.03825974	          0.00000000	          0.00000000	          0.00000000	          1.16139583	        118.50353675	         -4.42018642	          0.85210958	         -0.00638070	          0.00076767	          0.00000000	          0.00000000	          0.00000000	          0.05031112	          4.70985688	         -1.02217972	          0.97897624	          0.00129653	          0.01468785	          0.00000000	          0.00000000	          0.00000000	          4.23600564	         39.60524127	         -6.68178793	          0.94535701	         -0.00243886	          0.06900584	          0.00000000	          0.00000000	          0.00000000	         -0.00000000	          0.00000000	          0.00000000	          0.75800056	          0.03014918	         -0.19412685	          0.00000000	          0.00000000	          0.00000000	         -0.00027570	          0.00015767	          0.00009038	          0.86132785	          0.01253707	         -0.23491994	          0.00000000	          0.00000000	          0.00000000	         -0.00018133	          0.00010692	          0.00005220	          0.81762457	          0.01278161	         -0.28189861	          0.00000000	          0.00000000	          0.00000000	         -0.00000001	          0.00000001	          0.00000000	          0.78600257	          0.02156514	         -0.23915939	          0.00000000	          0.00000000	          0.00000000	         -3.02660131	          1.80482039	          1.20796075	          0.90440672	          0.00298465	         -0.27185124	          0.00000000	          0.00000000	          0.00000000	         -1.34307566	          0.82790149	          0.48485699	          0.86114359	          0.00381595	         -0.31941221	          0.00000000	          0.00000000	          0.00000000	
          0.45000000	         25.57810767	        144.59107557	        -23.48943364	          0.81292886	         -0.00648279	         -0.03864388	          0.00000000	          0.00000000	          0.00000000	          2.55724298	         17.21503052	          0.35703587	          0.92650111	         -0.00126888	         -0.01468656	          0.00000000	          0.00000000	          0.00000000	          6.07095651	        127.68441302	         -3.70195037	          0.89299888	         -0.00614575	          0.03916210	          0.00000000	          0.00000000	          0.00000000	         15.49982900	        141.62127203	        -13.89708406	          0.85139557	         -0.00648301	          0.00169341	          0.00000000	          0.00000000	          0.00000000	          0.41387940	          4.53522761	          0.37374535	          0.97837852	          0.00075140	          0.01557572	          0.00000000	          0.00000000	          0.00000000	         -0.16244575	         42.92087243	          1.38111889	          0.94473094	         -0.00288103	          0.06990409	          0.00000000	          0.00000000	          0.00000000	         -0.00000001	          0.00000001	          0.00000000	          0.84467041	          0.02183502	         -0.21418528	          0.00000000	          0.00000000	          0.00000000	         -0.00438148	          0.00289757	          0.00203292	          0.94691979	          0.00955178	         -0.26441378	          0.00000000	          0.00000000	          0.00000000	         -0.00056830	          0.00037507	          0.00026417	          0.90049296	          0.01132313	         -0.30856365	          0.00000000	          0.00000000	          0.00000000	         -0.00000254	          0.00000168	          0.00000118	          0.87069845	          0.01669503	         -0.26238951	          0.00000000	          0.00000000	          0.00000000	         -1.13728030	          0.74787724	          0.52138017	          0.98836227	          0.00305192	         -0.30534786	          0.00000000	          0.00000000	          0.00000000	         -0.13796065	          0.09059084	          0.06324425	          0.94217110	          0.00512506	         -0.34990897	          0.00000000	          0.00000000	          0.00000000	
          0.50000000	         52.38173090	        260.90782808	        -34.52967566	          0.81026388	         -0.00850176	         -0.03696655	          0.00000000	          0.00000000	          0.00000000	          4.64430281	         26.03914519	          2.49773114	          0.92394304	         -0.00166711	         -0.01525140	          0.00000000	          0.00000000	          0.00000000	          9.50113108	        173.44125143	          5.06772825	          0.89183387	         -0.00712634	          0.03921878	          0.00000000	          0.00000000	          0.00000000	         27.67448772	        222.62357994	        -12.17675518	          0.84952038	         -0.00800820	          0.00259022	          0.00000000	          0.00000000	          0.00000000	          0.46668776	          4.06119270	          0.70044440	          0.97627816	          0.00117680	          0.01405230	          0.00000000	          0.00000000	          0.00000000	          0.01545791	         45.56664285	          4.92508604	          0.94391952	         -0.00293784	          0.06902235	          0.00000000	          0.00000000	          0.00000000	         -0.00125490	          0.00083187	          0.00050536	          0.91381583	          0.01132888	         -0.24076183	          0.00000000	          0.00000000	          0.00000000	         -0.00030057	          0.00018794	          0.00006869	          1.02078968	          0.01115464	         -0.28699844	          0.00000000	          0.00000000	          0.00000000	         -0.00029440	          0.00017928	          0.00008022	          0.97634081	          0.01182467	         -0.33325549	          0.00000000	          0.00000000	          0.00000000	         -0.00068234	          0.00043240	          0.00022894	          0.94322754	          0.01159711	         -0.28810577	          0.00000000	          0.00000000	          0.00000000	          0.00000000	         -0.00000000	         -0.00000000	          1.06549406	          0.01075109	         -0.32639589	          0.00000000	          0.00000000	          0.00000000	          0.00000368	         -0.00000217	         -0.00000074	          1.02118742	          0.01160820	         -0.37298444	          0.00000000	          0.00000000	          0.00000000	
          0.55000000	         21.26389631	        187.44687330	         -8.26136183	          0.80845085	         -0.00937016	         -0.03647450	          0.00000000	          0.00000000	          0.00000000	          3.26587879	         31.35361724	         -2.25081542	          0.92228797	         -0.00219910	         -0.01605971	          0.00000000	          0.00000000	          0.00000000	         17.50573440	        124.78225060	         -9.09219747	          0.89069006	         -0.00713774	          0.03890595	          0.00000000	          0.00000000	          0.00000000	         20.31397169	        158.75179281	         -9.26382982	          0.84805594	         -0.00843479	          0.00270103	          0.00000000	          0.00000000	          0.00000000	          0.58782846	          4.71295914	         -0.25383631	          0.97486938	          0.00098734	          0.01264813	          0.00000000	          0.00000000	          0.00000000	          5.24204139	         34.69009564	         -1.84129854	          0.94302338	         -0.00260950	          0.06806105	          0.00000000	          0.00000000	          0.00000000	         -0.76210058	          0.49524611	          0.12469565	          0.98151079	          0.00449019	         -0.25999073	          0.00000000	          0.00000000	          0.00000000	         -0.00000033	          0.00000021	         -0.00000000	          1.09044801	          0.01684210	         -0.29321352	          0.00000000	          0.00000000	          0.00000000	         -0.00001625	          0.00000997	          0.00000076	          1.05203176	          0.01420913	         -0.34433762	          0.00000000	          0.00000000	          0.00000000	         -0.00555663	          0.00349932	          0.00058090	          1.01508496	          0.00920838	         -0.30347078	          0.00000000	          0.00000000	          0.00000000	          0.00000000	         -0.00000000	          0.00000000	          1.13830140	          0.02219514	         -0.32700874	          0.00000000	          0.00000000	          0.00000000	         -0.00000001	          0.00000000	         -0.00000000	          1.10000651	          0.01970568	         -0.37844046	          0.00000000	          0.00000000	          0.00000000	
          0.60000000	         11.37757873	        129.42993984	         -0.93972804	          0.80836816	         -0.00777201	         -0.03684907	          0.00000000	          0.00000000	          0.00000000	          3.78683195	         48.26301866	         -4.38112300	          0.92259548	         -0.00280309	         -0.01599943	          0.00000000	          0.00000000	          0.00000000	         16.59836623	        116.29395747	         -8.35310393	          0.89024924	         -0.00623640	          0.03898951	          0.00000000	          0.00000000	          0.00000000	         14.81280505	        126.35854933	         -4.87182386	          0.84777045	         -0.00712983	          0.00255391	          0.00000000	          0.00000000	          0.00000000	          1.05898513	         12.50830196	         -1.72251429	          0.97522160	         -0.00040336	          0.01288087	          0.00000000	          0.00000000	          0.00000000	          5.74900954	         40.03908753	         -4.60798044	          0.94275724	         -0.00253123	          0.06823847	          0.00000000	          0.00000000	          0.00000000	         -5.05314421	          3.42542850	          0.00838925	          1.04847800	          0.00189313	         -0.26646043	          0.00000000	          0.00000000	          0.00000000	         -0.00000001	          0.00000001	         -0.00000000	          1.15626985	          0.02073568	         -0.28974343	          0.00000000	          0.00000000	          0.00000000	         -0.00000495	          0.00000326	         -0.00000033	          1.12376367	          0.01570395	         -0.34414276	          0.00000000	          0.00000000	          0.00000000	         -0.01174391	          0.00783952	         -0.00037426	          1.08461181	          0.00855360	         -0.30675540	          0.00000000	          0.00000000	          0.00000000	         -0.00000000	          0.00000000	         -0.00000000	          1.20545798	          0.02887749	         -0.31906792	          0.00000000	          0.00000000	          0.00000000	         -0.00000000	          0.00000000	         -0.00000000	          1.17308584	          0.02396676	         -0.37376795	          0.00000000	          0.00000000	          0.00000000	
          0.65000000	         17.29726459	         91.14587089	         -4.85014528	          0.80845254	         -0.00596294	         -0.03689264	          0.00000000	          0.00000000	          0.00000000	         18.06819502	        101.71348738	         -3.55475050	          0.92302524	         -0.00457455	         -0.01575653	          0.00000000	          0.00000000	          0.00000000	         25.67271914	        141.41968371	         -5.86276754	          0.89013747	         -0.00644140	          0.03921315	          0.00000000	          0.00000000	          0.00000000	         21.53279259	        115.87208059	         -5.51776197	          0.84773924	         -0.00626357	          0.00264189	          0.00000000	          0.00000000	          0.00000000	          5.54038482	         70.33183918	        -11.59934541	          0.97584311	         -0.00324122	          0.01343599	          0.00000000	          0.00000000	          0.00000000	          5.26256463	         61.85370363	        -10.05227879	          0.94293875	         -0.00343517	          0.06869594	          0.00000000	          0.00000000	          0.00000000	        -48.72147262	         40.85986698	         -9.06804718	          1.10098035	         -0.00177863	         -0.26399080	          0.00000000	          0.00000000	          0.00000000	         -0.00000012	          0.00000010	         -0.00000004	          1.20830235	          0.01917471	         -0.28151697	          0.00000000	          0.00000000	          0.00000000	         -0.00027977	          0.00022829	         -0.00007525	          1.18014452	          0.01230247	         -0.33751195	          0.00000000	          0.00000000	          0.00000000	         -0.48885392	          0.40379960	         -0.11118081	          1.13918188	          0.00495255	         -0.30228170	          0.00000000	          0.00000000	          0.00000000	         -0.00000000	          0.00000000	         -0.00000000	          1.25862288	          0.02789700	         -0.30810540	          0.00000000	          0.00000000	          0.00000000	         -0.00000002	          0.00000001	         -0.00000001	          1.23062045	          0.02112800	         -0.36440013	          0.00000000	          0.00000000	          0.00000000	
          0.70000000	          1.90815644	         22.13240620	         -0.51882423	          0.80888935	         -0.00298400	         -0.03669215	          0.00000000	          0.00000000	          0.00000000	          9.53875642	        101.26300683	          2.20253998	          0.92343968	         -0.00558395	         -0.01589476	          0.00000000	          0.00000000	          0.00000000	          6.82311791	         92.11497364	          0.71488626	          0.89055681	         -0.00600643	          0.03919803	          0.00000000	          0.00000000	          0.00000000	          3.91287566	         49.20714353	         -0.41745670	          0.84816758	         -0.00449378	          0.00273992	          0.00000000	          0.00000000	          0.00000000	          1.50576770	        108.02748157	         -5.46831239	          0.97660633	         -0.00531232	          0.01338469	          0.00000000	          0.00000000	          0.00000000	         -0.90770080	         47.66241203	         -2.78237348	          0.94389244	         -0.00345848	          0.06863471	          0.00000000	          0.00000000	          0.00000000	         18.26398447	        242.18027245	          1.31413789	          1.12110080	         -0.00717808	         -0.26130475	          0.00000000	          0.00000000	          0.00000000	         -0.00000660	          0.00013020	         -0.00004068	          1.22966827	          0.01288901	         -0.27485833	          0.00000000	          0.00000000	          0.00000000	         -0.09433066	          0.44769549	         -0.11017360	          1.20433194	          0.00497177	         -0.33164347	          0.00000000	          0.00000000	          0.00000000	         -2.54843195	         35.58413774	         -4.15401790	          1.16141101	         -0.00143814	         -0.29804824	          0.00000000	          0.00000000	          0.00000000	         -0.00000000	          0.00000002	         -0.00000001	          1.28151435	          0.02080031	         -0.29944413	          0.00000000	          0.00000000	          0.00000000	         -0.00004297	          0.00013170	         -0.00005319	          1.25635717	          0.01297158	         -0.35652714	          0.00000000	          0.00000000	          0.00000000	
          0.75000000	         -0.02876801	          0.19864344	         -0.00860495	          0.81164672	          0.00276367	         -0.03665287	          0.00000000	          0.00000000	          0.00000000	         -4.26433358	         41.09696152	         -1.09084110	          0.92559091	         -0.00390437	         -0.01615361	          0.00000000	          0.00000000	          0.00000000	         -2.41423701	         19.85095003	         -0.63714003	          0.89293872	         -0.00287157	          0.03904403	          0.00000000	          0.00000000	          0.00000000	         -0.28726488	          2.14450879	         -0.08139817	          0.85074709	          0.00001106	          0.00268717	          0.00000000	          0.00000000	          0.00000000	         -5.56905911	         87.21523344	          2.45383636	          0.97882446	         -0.00528382	          0.01300503	          0.00000000	          0.00000000	          0.00000000	         -1.82506245	         19.38174976	          0.46614004	          0.94667612	         -0.00185354	          0.06828546	          0.00000000	          0.00000000	          0.00000000	         26.49045621	        287.49096795	         35.95960264	          1.12138744	         -0.01028904	         -0.26222321	          0.00000000	          0.00000000	          0.00000000	         -0.00117683	          0.05483484	         -0.00766120	          1.23224734	          0.00689518	         -0.27272293	          0.00000000	          0.00000000	          0.00000000	         -1.76780370	         15.90213413	         -1.24217323	          1.20787238	         -0.00062933	         -0.33013896	          0.00000000	          0.00000000	          0.00000000	         -1.59865675	        138.84795136	          3.70192246	          1.16334036	         -0.00576763	         -0.29778956	          0.00000000	          0.00000000	          0.00000000	         -0.00000747	          0.00006971	         -0.00001850	          1.28556899	          0.01334352	         -0.29581273	          0.00000000	          0.00000000	          0.00000000	         -0.02976537	          0.15035505	         -0.03071205	          1.26139258	          0.00589912	         -0.35352177	          0.00000000	          0.00000000	          0.00000000	
          0.80000000	         -0.00000002	         -0.00000010	         -0.00000004	          0.81453376	          0.01135784	         -0.03911042	          0.00000000	          0.00000000	          0.00000000	          1.20578932	          3.89568717	          2.43574905	          0.92709002	         -0.00017472	         -0.01960562	          0.00000000	          0.00000000	          0.00000000	          0.12415513	          0.60068524	          0.34719812	          0.89525332	          0.00232631	          0.03587966	          0.00000000	          0.00000000	          0.00000000	          0.00022080	          0.00101165	          0.00052141	          0.85337884	          0.00697522	         -0.00011023	          0.00000000	          0.00000000	          0.00000000	         18.28281432	         54.87825309	         40.48764050	          0.98001234	         -0.00405506	          0.00899964	          0.00000000	          0.00000000	          0.00000000	          0.78589803	          3.60292011	          2.49352705	          0.94904771	          0.00059233	          0.06459917	          0.00000000	          0.00000000	          0.00000000	         16.87299830	        224.25872371	         11.13695836	          1.12175080	         -0.01033629	         -0.26285375	          0.00000000	          0.00000000	          0.00000000	         -0.02050691	          1.03574539	         -0.27032964	          1.23470782	          0.00355133	         -0.26996675	          0.00000000	          0.00000000	          0.00000000	         -6.67292211	         49.79546549	         -9.49972127	          1.21103792	         -0.00287753	         -0.32820442	          0.00000000	          0.00000000	          0.00000000	         -4.56633665	        141.84192597	         -9.48744863	          1.16511420	         -0.00686626	         -0.29717919	          0.00000000	          0.00000000	          0.00000000	         -0.00108800	          0.00990670	         -0.00394137	          1.28930737	          0.00854999	         -0.29148620	          0.00000000	          0.00000000	          0.00000000	         -0.64774797	          2.91352707	         -0.95771153	          1.26584275	          0.00221697	         -0.35001390	          0.00000000	          0.00000000	          0.00000000	
          0.85000000	          0.00000000	         -0.00000000	         -0.00000000	          0.81811150	          0.02103371	         -0.04622396	          0.00000000	          0.00000000	          0.00000000	         -0.00409597	          0.20128154	          0.19093563	          0.92869000	          0.00425495	         -0.03113631	          0.00000000	          0.00000000	          0.00000000	         -0.00079561	          0.00268750	          0.00239006	          0.89969766	          0.00821777	          0.02555443	          0.00000000	          0.00000000	          0.00000000	         -0.00000012	          0.00000050	          0.00000044	          0.85748271	          0.01482884	         -0.00877144	          0.00000000	          0.00000000	          0.00000000	         -0.28232347	         29.23293855	         29.04893347	          0.98141542	         -0.00249694	         -0.00476300	          0.00000000	          0.00000000	          0.00000000	         -0.16113633	          0.74428760	          0.71235387	          0.95355019	          0.00320056	          0.05207178	          0.00000000	          0.00000000	          0.00000000	         39.26511921	        230.40644278	         16.51100854	          1.12147989	         -0.00974681	         -0.26355949	          0.00000000	          0.00000000	          0.00000000	          0.64761752	          5.42313022	         -0.54608493	          1.23589025	          0.00113274	         -0.26782096	          0.00000000	          0.00000000	          0.00000000	          5.07705719	         89.12867766	         -5.68886316	          1.21289757	         -0.00431303	         -0.32672702	          0.00000000	          0.00000000	          0.00000000	         18.64110974	        166.21794648	          0.97927635	          1.16592055	         -0.00724496	         -0.29682773	          0.00000000	          0.00000000	          0.00000000	          0.01711622	          0.35173301	         -0.05156563	          1.29142706	          0.00489104	         -0.28807353	          0.00000000	          0.00000000	          0.00000000	         -0.07416398	         12.46835256	         -1.38690691	          1.26861808	         -0.00036823	         -0.34728181	          0.00000000	          0.00000000	          0.00000000	
          0.90000000	         -0.00000000	          0.00000000	          0.00000000	          0.83392692	          0.02956354	         -0.05601383	          0.00000000	          0.00000000	          0.00000000	         -0.00402939	          0.00500781	          0.00342531	          0.94212277	          0.00824097	         -0.04850391	          0.00000000	          0.00000000	          0.00000000	         -0.00000680	          0.00000721	          0.00000396	          0.91830982	          0.01386324	          0.01000861	          0.00000000	          0.00000000	          0.00000000	         -0.00000000	          0.00000000	          0.00000000	          0.87485911	          0.02198848	         -0.02134663	          0.00000000	          0.00000000	          0.00000000	         -9.47757798	         13.31170406	         11.03217302	          0.99470774	         -0.00113058	         -0.02603611	          0.00000000	          0.00000000	          0.00000000	         -0.07212861	          0.08455686	          0.06100774	          0.97196270	          0.00560548	          0.03259558	          0.00000000	          0.00000000	          0.00000000	         46.58099182	        247.82197859	         32.86273110	          1.12052777	         -0.00984839	         -0.26534239	          0.00000000	          0.00000000	          0.00000000	          3.10356386	         19.01510007	          0.34555266	          1.23570142	         -0.00105145	         -0.26795652	          0.00000000	          0.00000000	          0.00000000	         15.84433829	        134.08331966	          5.59739479	          1.21311313	         -0.00588106	         -0.32723283	          0.00000000	          0.00000000	          0.00000000	         29.90874681	        196.91116711	         17.41896819	          1.16555997	         -0.00805095	         -0.29799148	          0.00000000	          0.00000000	          0.00000000	          0.20347742	          3.09225641	          0.17835470	          1.29177927	          0.00207369	         -0.28763669	          0.00000000	          0.00000000	          0.00000000	          1.58079220	         38.36645960	          3.00035193	          1.26929433	         -0.00228778	         -0.34725922	          0.00000000	          0.00000000	          0.00000000	
          0.95000000	          0.00000000	         -0.00000000	         -0.00000000	          0.87388303	          0.03786422	         -0.06790777	          0.00000000	          0.00000000	          0.00000000	         -0.00004431	          0.00003606	          0.00001438	          0.97881479	          0.01252633	         -0.06628234	          0.00000000	          0.00000000	          0.00000000	         -0.00000000	          0.00000000	          0.00000000	          0.96054728	          0.02038398	         -0.00681352	          0.00000000	          0.00000000	          0.00000000	          0.00000000	         -0.00000000	         -0.00000000	          0.91613376	          0.02948510	         -0.03564600	          0.00000000	          0.00000000	          0.00000000	         -2.89308012	          2.41284945	          1.17937563	          1.03069054	          0.00111395	         -0.04695213	          0.00000000	          0.00000000	          0.00000000	         -0.00094260	          0.00075358	          0.00034205	          1.01323999	          0.00954491	          0.01261014	          0.00000000	          0.00000000	          0.00000000	         28.14277987	        166.32237401	         21.56762420	          1.11967261	         -0.00915737	         -0.26734358	          0.00000000	          0.00000000	          0.00000000	          3.90099617	         25.67628564	          3.94138411	          1.23528335	         -0.00189812	         -0.26951610	          0.00000000	          0.00000000	          0.00000000	         20.58181436	        117.68858136	         17.50098068	          1.21265442	         -0.00635502	         -0.32889360	          0.00000000	          0.00000000	          0.00000000	         25.53043192	        147.74472374	         20.52548941	          1.16489956	         -0.00792353	         -0.29982772	          0.00000000	          0.00000000	          0.00000000	          0.54412796	          4.90532769	          1.05622172	          1.29163016	          0.00086478	         -0.28921084	          0.00000000	          0.00000000	          0.00000000	          5.79781888	         40.53982974	          8.47134699	          1.26902611	         -0.00279932	         -0.34897591	          0.00000000	          0.00000000	          0.00000000	
