D:\Personal\AI_projectstuff\for_comparison\opencap-processing-grf\OpenCapData_ab7eb7cf-817d-4035-a30b-ee68773906cb\OpenSimData\Dynamics\Suhasno_1\GRF_Suhasno_1_Suhasno_1_window_6.mot
version=1
nRows=25
nColumns=109
inDegrees=yes
endheader 
time	ground_force_SmoothSphereHalfSpaceForce_s1_r_vx	ground_force_SmoothSphereHalfSpaceForce_s1_r_vy	ground_force_SmoothSphereHalfSpaceForce_s1_r_vz	ground_force_SmoothSphereHalfSpaceForce_s1_r_px	ground_force_SmoothSphereHalfSpaceForce_s1_r_py	ground_force_SmoothSphereHalfSpaceForce_s1_r_pz	ground_torque_SmoothSphereHalfSpaceForce_s1_r_x	ground_torque_SmoothSphereHalfSpaceForce_s1_r_y	ground_torque_SmoothSphereHalfSpaceForce_s1_r_z	ground_force_SmoothSphereHalfSpaceForce_s2_r_vx	ground_force_SmoothSphereHalfSpaceForce_s2_r_vy	ground_force_SmoothSphereHalfSpaceForce_s2_r_vz	ground_force_SmoothSphereHalfSpaceForce_s2_r_px	ground_force_SmoothSphereHalfSpaceForce_s2_r_py	ground_force_SmoothSphereHalfSpaceForce_s2_r_pz	ground_torque_SmoothSphereHalfSpaceForce_s2_r_x	ground_torque_SmoothSphereHalfSpaceForce_s2_r_y	ground_torque_SmoothSphereHalfSpaceForce_s2_r_z	ground_force_SmoothSphereHalfSpaceForce_s3_r_vx	ground_force_SmoothSphereHalfSpaceForce_s3_r_vy	ground_force_SmoothSphereHalfSpaceForce_s3_r_vz	ground_force_SmoothSphereHalfSpaceForce_s3_r_px	ground_force_SmoothSphereHalfSpaceForce_s3_r_py	ground_force_SmoothSphereHalfSpaceForce_s3_r_pz	ground_torque_SmoothSphereHalfSpaceForce_s3_r_x	ground_torque_SmoothSphereHalfSpaceForce_s3_r_y	ground_torque_SmoothSphereHalfSpaceForce_s3_r_z	ground_force_SmoothSphereHalfSpaceForce_s4_r_vx	ground_force_SmoothSphereHalfSpaceForce_s4_r_vy	ground_force_SmoothSphereHalfSpaceForce_s4_r_vz	ground_force_SmoothSphereHalfSpaceForce_s4_r_px	ground_force_SmoothSphereHalfSpaceForce_s4_r_py	ground_force_SmoothSphereHalfSpaceForce_s4_r_pz	ground_torque_SmoothSphereHalfSpaceForce_s4_r_x	ground_torque_SmoothSphereHalfSpaceForce_s4_r_y	ground_torque_SmoothSphereHalfSpaceForce_s4_r_z	ground_force_SmoothSphereHalfSpaceForce_s5_r_vx	ground_force_SmoothSphereHalfSpaceForce_s5_r_vy	ground_force_SmoothSphereHalfSpaceForce_s5_r_vz	ground_force_SmoothSphereHalfSpaceForce_s5_r_px	ground_force_SmoothSphereHalfSpaceForce_s5_r_py	ground_force_SmoothSphereHalfSpaceForce_s5_r_pz	ground_torque_SmoothSphereHalfSpaceForce_s5_r_x	ground_torque_SmoothSphereHalfSpaceForce_s5_r_y	ground_torque_SmoothSphereHalfSpaceForce_s5_r_z	ground_force_SmoothSphereHalfSpaceForce_s6_r_vx	ground_force_SmoothSphereHalfSpaceForce_s6_r_vy	ground_force_SmoothSphereHalfSpaceForce_s6_r_vz	ground_force_SmoothSphereHalfSpaceForce_s6_r_px	ground_force_SmoothSphereHalfSpaceForce_s6_r_py	ground_force_SmoothSphereHalfSpaceForce_s6_r_pz	ground_torque_SmoothSphereHalfSpaceForce_s6_r_x	ground_torque_SmoothSphereHalfSpaceForce_s6_r_y	ground_torque_SmoothSphereHalfSpaceForce_s6_r_z	ground_force_SmoothSphereHalfSpaceForce_s1_l_vx	ground_force_SmoothSphereHalfSpaceForce_s1_l_vy	ground_force_SmoothSphereHalfSpaceForce_s1_l_vz	ground_force_SmoothSphereHalfSpaceForce_s1_l_px	ground_force_SmoothSphereHalfSpaceForce_s1_l_py	ground_force_SmoothSphereHalfSpaceForce_s1_l_pz	ground_torque_SmoothSphereHalfSpaceForce_s1_l_x	ground_torque_SmoothSphereHalfSpaceForce_s1_l_y	ground_torque_SmoothSphereHalfSpaceForce_s1_l_z	ground_force_SmoothSphereHalfSpaceForce_s2_l_vx	ground_force_SmoothSphereHalfSpaceForce_s2_l_vy	ground_force_SmoothSphereHalfSpaceForce_s2_l_vz	ground_force_SmoothSphereHalfSpaceForce_s2_l_px	ground_force_SmoothSphereHalfSpaceForce_s2_l_py	ground_force_SmoothSphereHalfSpaceForce_s2_l_pz	ground_torque_SmoothSphereHalfSpaceForce_s2_l_x	ground_torque_SmoothSphereHalfSpaceForce_s2_l_y	ground_torque_SmoothSphereHalfSpaceForce_s2_l_z	ground_force_SmoothSphereHalfSpaceForce_s3_l_vx	ground_force_SmoothSphereHalfSpaceForce_s3_l_vy	ground_force_SmoothSphereHalfSpaceForce_s3_l_vz	ground_force_SmoothSphereHalfSpaceForce_s3_l_px	ground_force_SmoothSphereHalfSpaceForce_s3_l_py	ground_force_SmoothSphereHalfSpaceForce_s3_l_pz	ground_torque_SmoothSphereHalfSpaceForce_s3_l_x	ground_torque_SmoothSphereHalfSpaceForce_s3_l_y	ground_torque_SmoothSphereHalfSpaceForce_s3_l_z	ground_force_SmoothSphereHalfSpaceForce_s4_l_vx	ground_force_SmoothSphereHalfSpaceForce_s4_l_vy	ground_force_SmoothSphereHalfSpaceForce_s4_l_vz	ground_force_SmoothSphereHalfSpaceForce_s4_l_px	ground_force_SmoothSphereHalfSpaceForce_s4_l_py	ground_force_SmoothSphereHalfSpaceForce_s4_l_pz	ground_torque_SmoothSphereHalfSpaceForce_s4_l_x	ground_torque_SmoothSphereHalfSpaceForce_s4_l_y	ground_torque_SmoothSphereHalfSpaceForce_s4_l_z	ground_force_SmoothSphereHalfSpaceForce_s5_l_vx	ground_force_SmoothSphereHalfSpaceForce_s5_l_vy	ground_force_SmoothSphereHalfSpaceForce_s5_l_vz	ground_force_SmoothSphereHalfSpaceForce_s5_l_px	ground_force_SmoothSphereHalfSpaceForce_s5_l_py	ground_force_SmoothSphereHalfSpaceForce_s5_l_pz	ground_torque_SmoothSphereHalfSpaceForce_s5_l_x	ground_torque_SmoothSphereHalfSpaceForce_s5_l_y	ground_torque_SmoothSphereHalfSpaceForce_s5_l_z	ground_force_SmoothSphereHalfSpaceForce_s6_l_vx	ground_force_SmoothSphereHalfSpaceForce_s6_l_vy	ground_force_SmoothSphereHalfSpaceForce_s6_l_vz	ground_force_SmoothSphereHalfSpaceForce_s6_l_px	ground_force_SmoothSphereHalfSpaceForce_s6_l_py	ground_force_SmoothSphereHalfSpaceForce_s6_l_pz	ground_torque_SmoothSphereHalfSpaceForce_s6_l_x	ground_torque_SmoothSphereHalfSpaceForce_s6_l_y	ground_torque_SmoothSphereHalfSpaceForce_s6_l_z	
          6.00000000	         12.99173819	         14.76806202	         -1.00973306	          3.49471392	         -0.00109861	          0.01537952	          0.00000000	          0.00000000	          0.00000000	          3.87150588	          4.44783285	         -1.02072618	          3.61107698	          0.00086701	          0.01032669	          0.00000000	          0.00000000	          0.00000000	          2.09065669	          2.34905257	         -0.43285183	          3.59117420	          0.00181609	          0.07129790	          0.00000000	          0.00000000	          0.00000000	          4.73846018	          5.29809711	         -0.67713812	          3.54175513	          0.00037590	          0.04513203	          0.00000000	          0.00000000	          0.00000000	          2.60526178	          3.42727905	         -1.49064425	          3.66821307	          0.00111886	          0.02606671	          0.00000000	          0.00000000	          0.00000000	          1.53647938	          1.88189393	         -0.73163548	          3.64860177	          0.00172596	          0.08730748	          0.00000000	          0.00000000	          0.00000000	         16.11589356	         62.85011586	         11.70876637	          3.55147093	         -0.00330830	         -0.17488493	          0.00000000	          0.00000000	          0.00000000	         24.09102462	         95.01595375	         -8.86390193	          3.66797000	         -0.00482457	         -0.17522998	          0.00000000	          0.00000000	          0.00000000	         10.49058053	         94.96358964	         -3.71231553	          3.64534179	         -0.00464061	         -0.23527198	          0.00000000	          0.00000000	          0.00000000	         14.04343741	         78.31805200	          6.00258639	          3.59713775	         -0.00396115	         -0.20681644	          0.00000000	          0.00000000	          0.00000000	        -21.88930700	        104.51533154	         18.98448755	          3.72417728	         -0.00677013	         -0.19347083	          0.00000000	          0.00000000	          0.00000000	        -28.53841408	         76.77866813	         18.68148825	          3.70177942	         -0.00701510	         -0.25375852	          0.00000000	          0.00000000	          0.00000000	
          6.05133333	          8.37849914	         11.70379990	         -1.39898784	          3.48570122	         -0.00070023	          0.01560814	          0.00000000	          0.00000000	          0.00000000	          3.15319011	          4.41075109	         -0.52643898	          3.60211136	          0.00106705	          0.01142072	          0.00000000	          0.00000000	          0.00000000	          0.90418393	          1.26307535	         -0.14506876	          3.58170776	          0.00289261	          0.07214612	          0.00000000	          0.00000000	          0.00000000	          2.83225551	          3.95620468	         -0.46312814	          3.53250081	          0.00113979	          0.04565877	          0.00000000	          0.00000000	          0.00000000	          1.90338154	          2.73009724	         -0.36954634	          3.65929970	          0.00190129	          0.02775650	          0.00000000	          0.00000000	          0.00000000	          0.42161750	          0.60412489	         -0.07876976	          3.63916536	          0.00376766	          0.08872521	          0.00000000	          0.00000000	          0.00000000	         18.84077986	        109.85473185	         24.21480703	          3.54859225	         -0.00505448	         -0.17746963	          0.00000000	          0.00000000	          0.00000000	         20.04527133	        114.22877099	         -0.26108652	          3.66509863	         -0.00560818	         -0.17494236	          0.00000000	          0.00000000	          0.00000000	          7.82563143	        131.60014443	          4.95830419	          3.64394751	         -0.00595454	         -0.23551762	          0.00000000	          0.00000000	          0.00000000	         13.59179977	        121.24381744	         15.92914400	          3.59504403	         -0.00551163	         -0.20826218	          0.00000000	          0.00000000	          0.00000000	         -2.21777518	         86.46035815	          4.42656382	          3.72267058	         -0.00525384	         -0.19262873	          0.00000000	          0.00000000	          0.00000000	         -8.11560852	         60.75569073	          5.28343381	          3.70171931	         -0.00426876	         -0.25340432	          0.00000000	          0.00000000	          0.00000000	
          6.10266666	          1.75853448	          1.87856217	         -0.18072247	          3.47544547	          0.00142683	          0.01626260	          0.00000000	          0.00000000	          0.00000000	          3.22164558	          3.47064355	         -0.55918365	          3.59192525	          0.00132557	          0.01255199	          0.00000000	          0.00000000	          0.00000000	          0.33625180	          0.35985317	         -0.05135984	          3.57139961	          0.00418159	          0.07307705	          0.00000000	          0.00000000	          0.00000000	          0.81750780	          0.87372177	         -0.10390510	          3.52221495	          0.00288750	          0.04644316	          0.00000000	          0.00000000	          0.00000000	          3.36332131	          3.64560123	         -0.71957285	          3.64910673	          0.00153386	          0.02913805	          0.00000000	          0.00000000	          0.00000000	          0.30446417	          0.32761286	         -0.05849909	          3.62885115	          0.00449705	          0.08989247	          0.00000000	          0.00000000	          0.00000000	         10.46096632	         86.39460943	         19.09745979	          3.54666645	         -0.00534311	         -0.18052823	          0.00000000	          0.00000000	          0.00000000	         10.68193734	         82.93107361	          2.99079065	          3.66310448	         -0.00528736	         -0.17567827	          0.00000000	          0.00000000	          0.00000000	          3.73859588	        117.96061595	          7.72055518	          3.64317375	         -0.00630627	         -0.23663584	          0.00000000	          0.00000000	          0.00000000	          7.53831550	        102.51469373	         14.87226920	          3.59372997	         -0.00585451	         -0.21037389	          0.00000000	          0.00000000	          0.00000000	          3.75354858	         57.37535792	         -1.02890957	          3.72122839	         -0.00408322	         -0.19248545	          0.00000000	          0.00000000	          0.00000000	         -1.23900779	         43.76776049	          0.61730686	          3.70136103	         -0.00313080	         -0.25362602	          0.00000000	          0.00000000	          0.00000000	
          6.15400000	          0.10189470	          0.21811885	          0.06842544	          3.46763497	          0.00467066	          0.01437876	          0.00000000	          0.00000000	          0.00000000	          2.33865395	          4.84429612	          0.38061029	          3.58394070	          0.00109724	          0.01257658	          0.00000000	          0.00000000	          0.00000000	          0.09661913	          0.16726269	          0.02156240	          3.56288845	          0.00528636	          0.07260840	          0.00000000	          0.00000000	          0.00000000	          0.08856151	          0.16866677	          0.03778240	          3.51403978	          0.00511870	          0.04524258	          0.00000000	          0.00000000	          0.00000000	          5.27720518	         10.42216259	         -0.51058454	          3.64083497	         -0.00010350	          0.03009557	          0.00000000	          0.00000000	          0.00000000	          0.29840365	          0.49873783	          0.00068973	          3.62006841	          0.00425247	          0.09033975	          0.00000000	          0.00000000	          0.00000000	          7.47167035	        111.13116063	         16.08651694	          3.54545601	         -0.00533502	         -0.18327524	          0.00000000	          0.00000000	          0.00000000	          7.09052861	         96.07229634	          3.07676397	          3.66180948	         -0.00496553	         -0.17674286	          0.00000000	          0.00000000	          0.00000000	          2.14667845	        163.54002834	          7.58983868	          3.64277895	         -0.00681236	         -0.23790991	          0.00000000	          0.00000000	          0.00000000	          5.30692073	        138.24855692	         13.35356402	          3.59295388	         -0.00612915	         -0.21239935	          0.00000000	          0.00000000	          0.00000000	          0.96997896	         59.82658410	          1.18407145	          3.72023320	         -0.00357077	         -0.19286113	          0.00000000	          0.00000000	          0.00000000	         -2.11359281	         55.33824172	          2.06268645	          3.70119432	         -0.00320152	         -0.25428983	          0.00000000	          0.00000000	          0.00000000	
          6.20533333	         -0.02517281	          0.03210188	          0.01422246	          3.47068734	          0.00676895	          0.00917092	          0.00000000	          0.00000000	          0.00000000	         -2.33710452	          2.96532587	          0.94505385	          3.58672189	          0.00135617	          0.00954324	          0.00000000	          0.00000000	          0.00000000	         -0.02611240	          0.03582207	          0.01254999	          3.56495486	          0.00657396	          0.06899496	          0.00000000	          0.00000000	          0.00000000	         -0.02146146	          0.02833138	          0.01132658	          3.51657989	          0.00685113	          0.04080369	          0.00000000	          0.00000000	          0.00000000	         -6.26692426	          8.27131664	          2.20832508	          3.64322360	         -0.00051396	          0.02809611	          0.00000000	          0.00000000	          0.00000000	         -0.12475656	          0.17921569	          0.05350772	          3.62175152	          0.00488257	          0.08775321	          0.00000000	          0.00000000	          0.00000000	         13.13236713	        118.78107716	         15.75095353	          3.54402802	         -0.00598158	         -0.18560045	          0.00000000	          0.00000000	          0.00000000	          7.78109298	         64.93271524	          3.15278797	          3.66028216	         -0.00453027	         -0.17799135	          0.00000000	          0.00000000	          0.00000000	         10.01179748	        150.25430095	          8.25574134	          3.64192443	         -0.00738928	         -0.23920827	          0.00000000	          0.00000000	          0.00000000	         12.00033768	        137.92616197	         13.02055969	          3.59183265	         -0.00677591	         -0.21421824	          0.00000000	          0.00000000	          0.00000000	          4.13460393	         31.94321261	         -0.27070261	          3.71882623	         -0.00277267	         -0.19366314	          0.00000000	          0.00000000	          0.00000000	          3.79752047	         48.39194971	          0.22863527	          3.70036548	         -0.00334148	         -0.25526197	          0.00000000	          0.00000000	          0.00000000	
          6.25666666	         -0.01421454	          0.01559066	          0.00495281	          3.48238178	          0.00772748	          0.00347435	          0.00000000	          0.00000000	          0.00000000	         -0.54185736	          0.60705210	          0.23381797	          3.59860913	          0.00347432	          0.00391640	          0.00000000	          0.00000000	          0.00000000	         -0.00389497	          0.00430309	          0.00156570	          3.57664164	          0.00873986	          0.06327748	          0.00000000	          0.00000000	          0.00000000	         -0.00631026	          0.00694277	          0.00236323	          3.52826367	          0.00840863	          0.03509367	          0.00000000	          0.00000000	          0.00000000	         -1.14827983	          1.30094173	          0.54424214	          3.65514204	          0.00219577	          0.02248003	          0.00000000	          0.00000000	          0.00000000	         -0.01041778	          0.01163375	          0.00462693	          3.63345584	          0.00759466	          0.08205877	          0.00000000	          0.00000000	          0.00000000	         17.09020241	         96.62854842	         16.89627723	          3.54191728	         -0.00565042	         -0.18824431	          0.00000000	          0.00000000	          0.00000000	          7.35814580	         37.69912300	         -0.84476870	          3.65797483	         -0.00300007	         -0.17908479	          0.00000000	          0.00000000	          0.00000000	         11.91586148	        143.31490732	         -0.81357107	          3.64063526	         -0.00708268	         -0.24032106	          0.00000000	          0.00000000	          0.00000000	         15.56087908	        122.85358024	         10.57932509	          3.59016323	         -0.00649879	         -0.21610529	          0.00000000	          0.00000000	          0.00000000	          2.72190653	         13.76434186	         -2.05062447	          3.71664664	         -0.00112835	         -0.19396360	          0.00000000	          0.00000000	          0.00000000	          3.85308436	         47.95592685	         -5.93532545	          3.69917131	         -0.00306384	         -0.25573849	          0.00000000	          0.00000000	          0.00000000	
          6.30799999	         -0.10841129	          0.11398896	          0.05235599	          3.50090938	          0.00606162	         -0.00475747	          0.00000000	          0.00000000	          0.00000000	         -0.76404060	          0.81428425	          0.40423777	          3.61735520	          0.00376998	         -0.00560216	          0.00000000	          0.00000000	          0.00000000	         -0.00933876	          0.00984567	          0.00475024	          3.59568508	          0.00843535	          0.05406823	          0.00000000	          0.00000000	          0.00000000	         -0.02803228	          0.02950366	          0.01387906	          3.54705666	          0.00739573	          0.02638886	          0.00000000	          0.00000000	          0.00000000	         -1.02527042	          1.09854670	          0.56429986	          3.67411935	          0.00333946	          0.01234051	          0.00000000	          0.00000000	          0.00000000	         -0.01229208	          0.01302729	          0.00651304	          3.65272165	          0.00811039	          0.07223710	          0.00000000	          0.00000000	          0.00000000	         17.81287375	        100.89561122	         23.09192274	          3.53991549	         -0.00532614	         -0.19154922	          0.00000000	          0.00000000	          0.00000000	          7.75002594	         39.15932690	         -0.06448169	          3.65574842	         -0.00251156	         -0.18004298	          0.00000000	          0.00000000	          0.00000000	         14.97802285	        197.40001813	          3.03862295	          3.63975131	         -0.00772818	         -0.24130024	          0.00000000	          0.00000000	          0.00000000	         18.42478871	        150.32847621	         18.61636024	          3.58876044	         -0.00669312	         -0.21826029	          0.00000000	          0.00000000	          0.00000000	          1.78274558	         14.66284821	         -1.02556819	          3.71474781	         -0.00086032	         -0.19378862	          0.00000000	          0.00000000	          0.00000000	          0.58882080	         75.70338289	         -3.53044161	          3.69861390	         -0.00388875	         -0.25575249	          0.00000000	          0.00000000	          0.00000000	
          6.35933332	         -2.50324745	          2.25754025	          0.96271719	          3.53078967	          0.00265392	         -0.01737616	          0.00000000	          0.00000000	          0.00000000	         -5.80549821	          5.29125360	          2.48928678	          3.64727463	          0.00125973	         -0.01957364	          0.00000000	          0.00000000	          0.00000000	         -0.19495599	          0.17569631	          0.08029292	          3.62615019	          0.00558197	          0.04039505	          0.00000000	          0.00000000	          0.00000000	         -0.67092496	          0.60463321	          0.26679839	          3.57724497	          0.00425053	          0.01325869	          0.00000000	          0.00000000	          0.00000000	         -5.89241841	          5.38409677	          2.63751896	          3.70424082	          0.00119953	         -0.00228592	          0.00000000	          0.00000000	          0.00000000	         -0.18556049	          0.16762075	          0.07987655	          3.68338774	          0.00561727	          0.05791037	          0.00000000	          0.00000000	          0.00000000	          9.53376897	         91.81544215	         18.11086681	          3.53843464	         -0.00523156	         -0.19466627	          0.00000000	          0.00000000	          0.00000000	          4.12687242	         33.79778421	          1.66144792	          3.65404818	         -0.00248713	         -0.18107471	          0.00000000	          0.00000000	          0.00000000	          7.64733316	        187.80588545	         11.35999996	          3.63918532	         -0.00844903	         -0.24234567	          0.00000000	          0.00000000	          0.00000000	          9.90529614	        141.86211793	         18.43894189	          3.58777104	         -0.00702749	         -0.22035289	          0.00000000	          0.00000000	          0.00000000	          1.14138526	         12.90550922	         -0.11509217	          3.71335457	         -0.00091609	         -0.19387720	          0.00000000	          0.00000000	          0.00000000	          0.83176859	         76.30589435	          0.43835539	          3.69832839	         -0.00451740	         -0.25599681	          0.00000000	          0.00000000	          0.00000000	
          6.41066666	         -9.87785368	          9.22332356	          3.08372615	          3.56474985	          0.00001523	         -0.02907166	          0.00000000	          0.00000000	          0.00000000	        -11.47331261	         11.11111582	          5.26174008	          3.68116292	         -0.00049591	         -0.03439162	          0.00000000	          0.00000000	          0.00000000	         -1.20163039	          1.12344235	          0.48357369	          3.66152325	          0.00334671	          0.02620898	          0.00000000	          0.00000000	          0.00000000	         -3.77827389	          3.52593860	          1.34703884	          3.61195499	          0.00179501	          0.00035264	          0.00000000	          0.00000000	          0.00000000	         -8.84983719	          8.65780881	          4.58140298	          3.73857043	         -0.00021379	         -0.01862308	          0.00000000	          0.00000000	          0.00000000	         -0.81863086	          0.77158791	          0.37559784	          3.71920525	          0.00373298	          0.04219790	          0.00000000	          0.00000000	          0.00000000	          6.49494961	         92.75046828	         16.15739644	          3.53724843	         -0.00507092	         -0.19716702	          0.00000000	          0.00000000	          0.00000000	          1.97969807	         22.27718509	          1.42299145	          3.65262637	         -0.00177350	         -0.18214078	          0.00000000	          0.00000000	          0.00000000	          3.55783982	        169.20992974	         12.44331992	          3.63866189	         -0.00813971	         -0.24346036	          0.00000000	          0.00000000	          0.00000000	          5.90183990	        135.79554125	         16.93787347	          3.58694349	         -0.00680714	         -0.22216958	          0.00000000	          0.00000000	          0.00000000	          0.73134940	          6.82624718	         -0.14621407	          3.71206165	         -0.00006147	         -0.19418930	          0.00000000	          0.00000000	          0.00000000	          2.16189655	         64.35370150	         -0.65107919	          3.69791646	         -0.00410101	         -0.25640788	          0.00000000	          0.00000000	          0.00000000	
          6.46199999	         -5.01426054	         25.37216973	          0.50430001	          3.58120762	         -0.00158745	         -0.03330018	          0.00000000	          0.00000000	          0.00000000	         -3.59731881	         21.14955833	          7.52195167	          3.69735667	         -0.00132404	         -0.04281173	          0.00000000	          0.00000000	          0.00000000	         -1.45316254	          4.17136898	          1.23765343	          3.67983555	          0.00156311	          0.01864459	          0.00000000	          0.00000000	          0.00000000	         -2.41690916	          8.68430179	          1.34445309	          3.62940280	          0.00007011	         -0.00549696	          0.00000000	          0.00000000	          0.00000000	         -3.57773622	         15.07530247	          7.55355935	          3.75532744	         -0.00082536	         -0.02907968	          0.00000000	          0.00000000	          0.00000000	         -1.13671420	          2.72108045	          1.20587920	          3.73808316	          0.00224302	          0.03257651	          0.00000000	          0.00000000	          0.00000000	          9.59491558	         98.34640069	         12.60412446	          3.53605635	         -0.00521385	         -0.19902551	          0.00000000	          0.00000000	          0.00000000	          2.31512912	         20.18997956	          0.22456623	          3.65120047	         -0.00142714	         -0.18272142	          0.00000000	          0.00000000	          0.00000000	          9.42276988	        186.27670913	          3.74469162	          3.63804197	         -0.00807858	         -0.24409812	          0.00000000	          0.00000000	          0.00000000	         10.53631298	        146.08052483	         10.95715668	          3.58606208	         -0.00685887	         -0.22342608	          0.00000000	          0.00000000	          0.00000000	          0.62316130	          6.17572061	         -0.29286096	          3.71072992	          0.00038177	         -0.19406122	          0.00000000	          0.00000000	          0.00000000	          2.56928068	         70.30743532	         -2.57694284	          3.69739177	         -0.00401830	         -0.25636018	          0.00000000	          0.00000000	          0.00000000	
          6.51333332	         12.31174074	         44.78770655	          1.09329480	          3.58095411	         -0.00271264	         -0.03260009	          0.00000000	          0.00000000	          0.00000000	         12.65517515	         45.43502871	          2.78489534	          3.69691175	         -0.00263653	         -0.04422555	          0.00000000	          0.00000000	          0.00000000	          3.90271126	         15.19997074	          0.76836433	          3.68055000	         -0.00069769	          0.01769754	          0.00000000	          0.00000000	          0.00000000	          7.23746598	         27.29324078	          1.00917106	          3.62966787	         -0.00164938	         -0.00559580	          0.00000000	          0.00000000	          0.00000000	          7.60639422	         37.81841453	          0.87303407	          3.75526160	         -0.00224159	         -0.03146137	          0.00000000	          0.00000000	          0.00000000	          1.51956364	          8.60901740	          0.11294959	          3.73916977	          0.00013309	          0.03062732	          0.00000000	          0.00000000	          0.00000000	         -4.19578906	         73.73988293	          6.53766088	          3.53578234	         -0.00477424	         -0.20025898	          0.00000000	          0.00000000	          0.00000000	         -0.67409287	         12.13329524	          0.98509554	          3.65081586	         -0.00092135	         -0.18325131	          0.00000000	          0.00000000	          0.00000000	         -8.12105939	        136.97137752	         11.76878729	          3.63804915	         -0.00759446	         -0.24470130	          0.00000000	          0.00000000	          0.00000000	         -6.34415743	        108.98693350	          9.53269188	          3.58594060	         -0.00639798	         -0.22435023	          0.00000000	          0.00000000	          0.00000000	         -0.01879386	          4.44575839	          0.11647405	          3.71038135	          0.00077088	         -0.19413618	          0.00000000	          0.00000000	          0.00000000	         -1.22369984	         55.54514341	          1.61648081	          3.69748035	         -0.00378154	         -0.25648340	          0.00000000	          0.00000000	          0.00000000	
          6.56466665	         -1.33783630	         73.10584833	        -32.61701276	          3.57938504	         -0.00384277	         -0.02905010	          0.00000000	          0.00000000	          0.00000000	          1.16414068	         53.64793733	         -6.22880729	          3.69511150	         -0.00337532	         -0.04275638	          0.00000000	          0.00000000	          0.00000000	         -7.45812135	         47.78507853	         -7.77205940	          3.67987092	         -0.00269462	          0.01955801	          0.00000000	          0.00000000	          0.00000000	         -5.55176020	         59.98663564	        -18.44522447	          3.62857751	         -0.00325143	         -0.00286828	          0.00000000	          0.00000000	          0.00000000	         -2.41867024	         39.70597435	          0.45734176	          3.75383589	         -0.00279478	         -0.03091813	          0.00000000	          0.00000000	          0.00000000	         -4.97884207	         20.96661566	         -0.76002466	          3.73883746	         -0.00136030	          0.03155847	          0.00000000	          0.00000000	          0.00000000	         -0.10401076	         45.37565101	          8.11972982	          3.53626546	         -0.00346134	         -0.20142851	          0.00000000	          0.00000000	          0.00000000	         -0.08380216	          7.16046132	          1.50919605	          3.65136839	         -0.00004468	         -0.18451782	          0.00000000	          0.00000000	          0.00000000	          1.65228959	        107.82459310	         23.25442946	          3.63842845	         -0.00631928	         -0.24609937	          0.00000000	          0.00000000	          0.00000000	          0.57106287	         77.71151783	         15.33104046	          3.58636642	         -0.00509010	         -0.22563733	          0.00000000	          0.00000000	          0.00000000	          0.18439598	          3.99805695	          0.69424556	          3.71086345	          0.00122595	         -0.19526712	          0.00000000	          0.00000000	          0.00000000	          2.76878598	         48.13228313	          8.43186400	          3.69789762	         -0.00320126	         -0.25763695	          0.00000000	          0.00000000	          0.00000000	
          6.61599998	          1.78654926	        109.17913599	        -38.35547673	          3.57879122	         -0.00516731	         -0.02323469	          0.00000000	          0.00000000	          0.00000000	          2.96555230	         41.78157664	         -1.44332083	          3.69395102	         -0.00300430	         -0.04057990	          0.00000000	          0.00000000	          0.00000000	         -7.61621188	         70.23273221	         -4.80631150	          3.68075090	         -0.00389686	          0.02218779	          0.00000000	          0.00000000	          0.00000000	         -4.64455840	         90.14042839	        -19.15659578	          3.62878269	         -0.00456933	          0.00138659	          0.00000000	          0.00000000	          0.00000000	          0.56394878	         20.32165280	          2.30438605	          3.75306577	         -0.00178229	         -0.03051356	          0.00000000	          0.00000000	          0.00000000	         -3.55700334	         23.97241307	          1.84209335	          3.74004889	         -0.00174436	          0.03247108	          0.00000000	          0.00000000	          0.00000000	          3.26373231	         28.41867286	          6.64152441	          3.53601640	         -0.00223362	         -0.20313738	          0.00000000	          0.00000000	          0.00000000	          0.72510470	          6.38166181	          1.39371655	          3.65121795	          0.00027561	         -0.18626232	          0.00000000	          0.00000000	          0.00000000	          9.90148697	         86.64925215	         20.10751030	          3.63804230	         -0.00526583	         -0.24807481	          0.00000000	          0.00000000	          0.00000000	          6.61340246	         57.71715513	         13.46864616	          3.58604147	         -0.00392350	         -0.22748599	          0.00000000	          0.00000000	          0.00000000	          0.70002465	          4.63735340	          0.81251312	          3.71064951	          0.00101565	         -0.19688729	          0.00000000	          0.00000000	          0.00000000	          6.04677756	         42.60479093	          7.86987026	          3.69755325	         -0.00291111	         -0.25936384	          0.00000000	          0.00000000	          0.00000000	
          6.66733332	         13.61330035	        127.25161963	        -28.49599248	          3.57736982	         -0.00610806	         -0.01889062	          0.00000000	          0.00000000	          0.00000000	          3.29966544	         23.23578339	         -2.09344574	          3.69191774	         -0.00195637	         -0.03866879	          0.00000000	          0.00000000	          0.00000000	          4.14525824	         75.40947505	         -7.29081194	          3.68028475	         -0.00433743	          0.02425344	          0.00000000	          0.00000000	          0.00000000	          8.04159375	        102.74388750	        -16.56268663	          3.62788754	         -0.00531358	          0.00460873	          0.00000000	          0.00000000	          0.00000000	          0.96767989	          6.32287864	         -0.03117051	          3.75116882	         -0.00010638	         -0.02986336	          0.00000000	          0.00000000	          0.00000000	          1.36429612	         20.95246824	         -0.30927290	          3.73967306	         -0.00155916	          0.03334988	          0.00000000	          0.00000000	          0.00000000	         -0.16144321	         15.20794692	          3.26794769	          3.53584549	         -0.00122739	         -0.20488503	          0.00000000	          0.00000000	          0.00000000	         -0.07533763	          6.51187974	          1.32838875	          3.65108741	          0.00026115	         -0.18780336	          0.00000000	          0.00000000	          0.00000000	         -0.60931440	         66.26107682	         14.34930168	          3.63782519	         -0.00433873	         -0.24990561	          0.00000000	          0.00000000	          0.00000000	         -0.38342096	         38.99767864	          8.42903329	          3.58584473	         -0.00292418	         -0.22928470	          0.00000000	          0.00000000	          0.00000000	          0.15127503	          6.00501266	          0.99602426	          3.71047182	          0.00052877	         -0.19822668	          0.00000000	          0.00000000	          0.00000000	          0.74289967	         37.92693043	          6.61319642	          3.69737060	         -0.00263981	         -0.26087417	          0.00000000	          0.00000000	          0.00000000	
          6.71866665	         18.38993978	        151.49791992	        -34.08069920	          3.57558725	         -0.00678160	         -0.01551117	          0.00000000	          0.00000000	          0.00000000	          2.76682893	         17.47104821	         -1.17081208	          3.68962621	         -0.00124900	         -0.03681903	          0.00000000	          0.00000000	          0.00000000	          5.52530318	         88.70759313	         -6.77472075	          3.67910599	         -0.00468801	          0.02610339	          0.00000000	          0.00000000	          0.00000000	         10.88251486	        122.47024187	        -18.58692794	          3.62644180	         -0.00586356	          0.00723148	          0.00000000	          0.00000000	          0.00000000	          0.67800383	          4.38779792	          0.09181553	          3.74891527	          0.00096132	         -0.02886704	          0.00000000	          0.00000000	          0.00000000	          1.35643100	         23.46496094	          0.24026186	          3.73851869	         -0.00161267	          0.03439368	          0.00000000	          0.00000000	          0.00000000	         -1.04668326	         11.54919429	          3.28223982	          3.53677222	         -0.00066019	         -0.20693233	          0.00000000	          0.00000000	          0.00000000	         -0.63810235	          8.13551334	          1.63452602	          3.65196001	         -0.00003590	         -0.18928119	          0.00000000	          0.00000000	          0.00000000	         -7.26855672	         60.28096140	         13.10049483	          3.63888330	         -0.00376996	         -0.25165457	          0.00000000	          0.00000000	          0.00000000	         -3.51872270	         32.91957785	          8.28499844	          3.58684282	         -0.00232656	         -0.23119368	          0.00000000	          0.00000000	          0.00000000	         -0.56621450	          8.83221419	          1.24083115	          3.71133145	         -0.00013043	         -0.19934614	          0.00000000	          0.00000000	          0.00000000	         -4.22681057	         38.42430379	          5.92177307	          3.69847184	         -0.00257389	         -0.26217335	          0.00000000	          0.00000000	          0.00000000	
          6.76999998	         20.50186248	        159.28077943	        -26.09999646	          3.57396488	         -0.00731673	         -0.01307796	          0.00000000	          0.00000000	          0.00000000	          2.48446447	         17.51794610	         -1.89469276	          3.68766601	         -0.00123179	         -0.03555677	          0.00000000	          0.00000000	          0.00000000	          9.90048649	         89.73499265	        -10.20633019	          3.67790663	         -0.00498487	          0.02741643	          0.00000000	          0.00000000	          0.00000000	         14.97508842	        126.32812254	        -17.59180562	          3.62505476	         -0.00629156	          0.00911225	          0.00000000	          0.00000000	          0.00000000	          0.58531979	          4.09057609	         -0.31149490	          3.74699616	          0.00115772	         -0.02824025	          0.00000000	          0.00000000	          0.00000000	          2.66867212	         24.03776207	         -1.95736342	          3.73735680	         -0.00175432	          0.03508172	          0.00000000	          0.00000000	          0.00000000	         -0.84738726	         14.24511655	          5.50355915	          3.53755849	         -0.00086613	         -0.21000750	          0.00000000	          0.00000000	          0.00000000	         -0.43904309	          8.99445108	          2.90251451	          3.65261373	         -0.00029081	         -0.19150573	          0.00000000	          0.00000000	          0.00000000	         -4.05677772	         47.09796405	         15.84450685	          3.64000286	         -0.00329327	         -0.25413255	          0.00000000	          0.00000000	          0.00000000	         -2.24253402	         30.32576450	         10.98137783	          3.58780993	         -0.00216973	         -0.23398208	          0.00000000	          0.00000000	          0.00000000	         -0.12929852	          9.01021186	          2.32638808	          3.71198878	         -0.00034576	         -0.20106680	          0.00000000	          0.00000000	          0.00000000	         -1.54286915	         28.24854256	          7.59740396	          3.69961087	         -0.00220174	         -0.26407091	          0.00000000	          0.00000000	          0.00000000	
          6.82133331	         11.98693173	        148.42147355	        -11.35198527	          3.57278019	         -0.00730338	         -0.01173597	          0.00000000	          0.00000000	          0.00000000	          1.37087664	         16.48337175	         -0.94798874	          3.68638765	         -0.00117845	         -0.03464086	          0.00000000	          0.00000000	          0.00000000	          6.39574705	         87.71676309	         -5.11935711	          3.67686949	         -0.00493363	          0.02836875	          0.00000000	          0.00000000	          0.00000000	          9.23947690	        120.73259108	         -8.15524991	          3.62395133	         -0.00625954	          0.01026270	          0.00000000	          0.00000000	          0.00000000	          0.33513340	          3.98984051	         -0.18018309	          3.74573639	          0.00121444	         -0.02755588	          0.00000000	          0.00000000	          0.00000000	          1.74563668	         23.94014770	         -1.10478383	          3.73634276	         -0.00171561	          0.03579970	          0.00000000	          0.00000000	          0.00000000	          1.33270084	         18.02683809	          0.45786493	          3.53726213	         -0.00123737	         -0.21182084	          0.00000000	          0.00000000	          0.00000000	          0.65336650	         10.01454309	          0.79420682	          3.65230043	         -0.00040390	         -0.19325317	          0.00000000	          0.00000000	          0.00000000	          4.01801238	         42.44597769	          3.22311763	          3.63975205	         -0.00285339	         -0.25598873	          0.00000000	          0.00000000	          0.00000000	          2.58160521	         30.30286240	          1.52379587	          3.58753824	         -0.00212074	         -0.23582033	          0.00000000	          0.00000000	          0.00000000	          0.79776376	          9.26254105	          0.87362957	          3.71161589	         -0.00029394	         -0.20272166	          0.00000000	          0.00000000	          0.00000000	          2.72649668	         23.82928168	          2.14347193	          3.69930155	         -0.00172929	         -0.26578215	          0.00000000	          0.00000000	          0.00000000	
          6.87266664	          9.01824373	        148.10758119	         -6.61845998	          3.57208785	         -0.00712971	         -0.01100286	          0.00000000	          0.00000000	          0.00000000	          1.04597424	         18.92124434	         -1.01901702	          3.68574600	         -0.00128954	         -0.03395376	          0.00000000	          0.00000000	          0.00000000	          6.01955211	         96.12966292	         -5.08043826	          3.67622434	         -0.00507331	          0.02904848	          0.00000000	          0.00000000	          0.00000000	          7.77882149	        125.47171078	         -6.10933807	          3.62328221	         -0.00624188	          0.01096915	          0.00000000	          0.00000000	          0.00000000	          0.19894504	          4.82383625	         -0.33410010	          3.74513175	          0.00096635	         -0.02688117	          0.00000000	          0.00000000	          0.00000000	          1.47219426	         29.12407173	         -1.99413709	          3.73573699	         -0.00196787	          0.03647347	          0.00000000	          0.00000000	          0.00000000	          2.39908340	         22.74300451	         -0.55557444	          3.53624177	         -0.00156720	         -0.21152542	          0.00000000	          0.00000000	          0.00000000	          1.34082317	         14.63659329	          0.93066315	          3.65141053	         -0.00087320	         -0.19376088	          0.00000000	          0.00000000	          0.00000000	          6.74449552	         48.00992707	          2.64575212	          3.63841237	         -0.00299988	         -0.25645194	          0.00000000	          0.00000000	          0.00000000	          4.41337922	         35.45647011	          0.51877674	          3.58634451	         -0.00234882	         -0.23589871	          0.00000000	          0.00000000	          0.00000000	          1.21339891	         13.50291262	          1.57315233	          3.71064969	         -0.00075734	         -0.20364027	          0.00000000	          0.00000000	          0.00000000	          3.83721662	         27.52519796	          2.95863682	          3.69788708	         -0.00188519	         -0.26663659	          0.00000000	          0.00000000	          0.00000000	
          6.92399998	          7.51458259	        122.68821817	         -3.96542766	          3.57165268	         -0.00669365	         -0.01061446	          0.00000000	          0.00000000	          0.00000000	          0.74157921	         20.66141470	         -2.62035992	          3.68554928	         -0.00148590	         -0.03298477	          0.00000000	          0.00000000	          0.00000000	          8.61261085	         91.73765533	        -11.00964431	          3.67561365	         -0.00515125	          0.02998154	          0.00000000	          0.00000000	          0.00000000	          8.77808907	        110.58309722	         -8.34594424	          3.62274603	         -0.00605606	          0.01162577	          0.00000000	          0.00000000	          0.00000000	          0.15914630	          5.84298344	         -1.09057627	          3.74496273	          0.00052987	         -0.02557034	          0.00000000	          0.00000000	          0.00000000	          2.77071833	         31.95769181	         -5.74125526	          3.73515462	         -0.00222384	          0.03775405	          0.00000000	          0.00000000	          0.00000000	         -0.10764249	         20.97953411	          0.42147223	          3.53585483	         -0.00158115	         -0.21127549	          0.00000000	          0.00000000	          0.00000000	         -0.39113170	         18.76087778	          2.38912064	          3.65119635	         -0.00130899	         -0.19462062	          0.00000000	          0.00000000	          0.00000000	          1.89962450	         48.87689096	          5.65223085	          3.63756638	         -0.00317269	         -0.25721090	          0.00000000	          0.00000000	          0.00000000	          0.64295555	         34.41887421	          2.30477423	          3.58570882	         -0.00243236	         -0.23614447	          0.00000000	          0.00000000	          0.00000000	         -0.38040149	         18.92532641	          3.59020213	          3.71035869	         -0.00129209	         -0.20509455	          0.00000000	          0.00000000	          0.00000000	          1.19888138	         30.17100008	          5.35940073	          3.69696871	         -0.00211107	         -0.26797964	          0.00000000	          0.00000000	          0.00000000	
          6.97533331	          6.95973304	        108.56516004	         -4.01784163	          3.57131280	         -0.00599282	         -0.01039384	          0.00000000	          0.00000000	          0.00000000	          0.88442974	         24.24776210	         -3.70019589	          3.68558163	         -0.00167518	         -0.03159327	          0.00000000	          0.00000000	          0.00000000	          9.86446842	         93.03001499	        -13.35723639	          3.67486651	         -0.00507817	          0.03130408	          0.00000000	          0.00000000	          0.00000000	          9.06633941	        103.93373800	         -9.29424458	          3.62217798	         -0.00565682	          0.01238920	          0.00000000	          0.00000000	          0.00000000	          0.19171825	          7.99848157	         -1.82627339	          3.74499165	          0.00002007	         -0.02351881	          0.00000000	          0.00000000	          0.00000000	          3.43321176	         35.87332381	         -7.85423384	          3.73440878	         -0.00239427	          0.03973620	          0.00000000	          0.00000000	          0.00000000	          0.12427176	         17.60133468	          1.75108051	          3.53614454	         -0.00128592	         -0.21185244	          0.00000000	          0.00000000	          0.00000000	         -0.10295587	         22.98898156	          4.30491358	          3.65164073	         -0.00158887	         -0.19630859	          0.00000000	          0.00000000	          0.00000000	          2.35422197	         52.91763436	          9.34363973	          3.63737527	         -0.00327622	         -0.25877715	          0.00000000	          0.00000000	          0.00000000	          0.91605223	         33.61167604	          4.61340459	          3.58573889	         -0.00232837	         -0.23720669	          0.00000000	          0.00000000	          0.00000000	         -0.43223798	         25.88019137	          6.44720388	          3.71073309	         -0.00174909	         -0.20738761	          0.00000000	          0.00000000	          0.00000000	          1.13686995	         34.67923630	          8.26743045	          3.69671690	         -0.00231672	         -0.27014721	          0.00000000	          0.00000000	          0.00000000	
          7.02666664	          6.60009077	         89.77048849	          0.46249224	          3.57097821	         -0.00532655	         -0.01044138	          0.00000000	          0.00000000	          0.00000000	          1.47245849	         30.56924203	         -3.26710396	          3.68561384	         -0.00206423	         -0.03037755	          0.00000000	          0.00000000	          0.00000000	         10.66901816	         91.75453646	         -9.02029570	          3.67405857	         -0.00508246	          0.03244959	          0.00000000	          0.00000000	          0.00000000	          9.03998717	         93.18920435	         -4.26255779	          3.62158044	         -0.00530913	          0.01292950	          0.00000000	          0.00000000	          0.00000000	          0.34846945	         12.99962087	         -2.44777555	          3.74501860	         -0.00069694	         -0.02157673	          0.00000000	          0.00000000	          0.00000000	          3.81876915	         39.11877887	         -6.99244279	          3.73359995	         -0.00260882	          0.04160161	          0.00000000	          0.00000000	          0.00000000	          1.65826608	         16.50435876	         -0.65174206	          3.53584069	         -0.00115785	         -0.21207293	          0.00000000	          0.00000000	          0.00000000	          2.59890012	         31.49149598	          3.60190525	          3.65150149	         -0.00207840	         -0.19791174	          0.00000000	          0.00000000	          0.00000000	          9.85771956	         59.23592275	          5.65120519	          3.63646026	         -0.00356123	         -0.26021887	          0.00000000	          0.00000000	          0.00000000	          4.79383216	         35.25662496	          0.93771776	          3.58510612	         -0.00239767	         -0.23802585	          0.00000000	          0.00000000	          0.00000000	          2.03645596	         36.08152139	          8.20511050	          3.71052875	         -0.00233340	         -0.20977034	          0.00000000	          0.00000000	          0.00000000	          5.32768924	         37.56968068	          7.79686180	          3.69574054	         -0.00253421	         -0.27236153	          0.00000000	          0.00000000	          0.00000000	
          7.07799997	          3.50065792	         57.76590024	         -0.92379913	          3.57074289	         -0.00417143	         -0.01063089	          0.00000000	          0.00000000	          0.00000000	          1.13851149	         29.91579924	         -3.88183796	          3.68570554	         -0.00216058	         -0.02930612	          0.00000000	          0.00000000	          0.00000000	          8.33414272	         78.75131507	         -9.37043572	          3.67331998	         -0.00476487	          0.03343685	          0.00000000	          0.00000000	          0.00000000	          5.91814044	         69.38268709	         -4.61944640	          3.62106771	         -0.00455419	          0.01331931	          0.00000000	          0.00000000	          0.00000000	          0.51554983	         17.91208539	         -3.62764975	          3.74509531	         -0.00122328	         -0.01979102	          0.00000000	          0.00000000	          0.00000000	          3.64950231	         37.76195285	         -7.21553280	          3.73286604	         -0.00260652	          0.04329068	          0.00000000	          0.00000000	          0.00000000	          0.77531315	         10.33745283	         -0.81815776	          3.53521247	         -0.00066252	         -0.21116599	          0.00000000	          0.00000000	          0.00000000	          1.83834134	         33.90770381	          4.89319863	          3.65108238	         -0.00236177	         -0.19916754	          0.00000000	          0.00000000	          0.00000000	          9.45146600	         54.04553967	          6.15170570	          3.63485577	         -0.00353086	         -0.26120335	          0.00000000	          0.00000000	          0.00000000	          3.55676309	         27.66922889	          0.42280676	          3.58395431	         -0.00212163	         -0.23804538	          0.00000000	          0.00000000	          0.00000000	          2.45920591	         42.33431940	         11.67291963	          3.70994849	         -0.00276032	         -0.21219519	          0.00000000	          0.00000000	          0.00000000	          6.28104044	         35.25142945	          8.62314986	          3.69398735	         -0.00248013	         -0.27449637	          0.00000000	          0.00000000	          0.00000000	
          7.12933330	          3.89629440	         50.18025396	          1.71665519	          3.57052614	         -0.00328656	         -0.01080810	          0.00000000	          0.00000000	          0.00000000	          2.50981397	         40.83415452	         -2.59559197	          3.68573724	         -0.00251604	         -0.02828313	          0.00000000	          0.00000000	          0.00000000	         11.32168081	         95.34104781	         -4.99687563	          3.67258837	         -0.00487376	          0.03434341	          0.00000000	          0.00000000	          0.00000000	          7.23822406	         72.42373799	         -0.59842127	          3.62057010	         -0.00415253	          0.01367430	          0.00000000	          0.00000000	          0.00000000	          0.40620312	         31.55404634	         -5.05410731	          3.74512945	         -0.00197091	         -0.01805721	          0.00000000	          0.00000000	          0.00000000	          3.56382994	         48.23876011	         -7.17418063	          3.73215378	         -0.00291790	          0.04490750	          0.00000000	          0.00000000	          0.00000000	          0.19539809	          8.94078061	         -0.88482772	          3.53512073	         -0.00025362	         -0.20991193	          0.00000000	          0.00000000	          0.00000000	          0.45452570	         48.63439290	          4.65977485	          3.65114610	         -0.00286734	         -0.20031313	          0.00000000	          0.00000000	          0.00000000	          7.44013860	         65.65617780	          4.40274464	          3.63362282	         -0.00371456	         -0.26201625	          0.00000000	          0.00000000	          0.00000000	          2.08150452	         29.45560717	         -0.52465953	          3.58325358	         -0.00199489	         -0.23780253	          0.00000000	          0.00000000	          0.00000000	         -0.83872128	         62.55867186	         14.66086431	          3.70980484	         -0.00345855	         -0.21462646	          0.00000000	          0.00000000	          0.00000000	          3.79752550	         42.29479711	          8.64267274	          3.69257109	         -0.00266883	         -0.27657009	          0.00000000	          0.00000000	          0.00000000	
          7.18066664	          1.91245019	         35.74150371	          2.48733209	          3.57027427	         -0.00269926	         -0.01126591	          0.00000000	          0.00000000	          0.00000000	          2.05205950	         42.75532272	          1.28287812	          3.68561102	         -0.00288670	         -0.02795845	          0.00000000	          0.00000000	          0.00000000	          7.03764601	         97.00502912	          3.54457751	          3.67195701	         -0.00526521	          0.03455676	          0.00000000	          0.00000000	          0.00000000	          4.08868201	         64.11703285	          3.42794279	          3.62011318	         -0.00405017	          0.01354472	          0.00000000	          0.00000000	          0.00000000	          0.00488269	         37.58039509	         -1.23919302	          3.74506097	         -0.00255957	         -0.01719564	          0.00000000	          0.00000000	          0.00000000	          1.39006254	         50.09589185	         -1.36437832	          3.73158245	         -0.00324556	          0.04567690	          0.00000000	          0.00000000	          0.00000000	          1.32683887	          7.10453830	         -0.65534411	          3.53445686	         -0.00002907	         -0.20867787	          0.00000000	          0.00000000	          0.00000000	         11.48734496	         62.01357919	          0.99593763	          3.65050725	         -0.00363309	         -0.20082296	          0.00000000	          0.00000000	          0.00000000	         17.56978011	         72.35404858	         -0.05805757	          3.63205174	         -0.00417732	         -0.26226742	          0.00000000	          0.00000000	          0.00000000	          6.28213221	         29.02055870	         -1.38083111	          3.58210896	         -0.00210000	         -0.23729442	          0.00000000	          0.00000000	          0.00000000	          9.96291363	         77.89177425	         10.32218017	          3.70908171	         -0.00429734	         -0.21613499	          0.00000000	          0.00000000	          0.00000000	          7.75750164	         42.39711098	          4.81176983	          3.69094239	         -0.00286773	         -0.27777345	          0.00000000	          0.00000000	          0.00000000	
          7.23199997	          0.96637992	          8.19973235	         -0.02432141	          3.56995284	         -0.00076102	         -0.01141541	          0.00000000	          0.00000000	          0.00000000	          2.92166422	         25.74052434	         -1.50379000	          3.68533341	         -0.00214250	         -0.02757212	          0.00000000	          0.00000000	          0.00000000	         10.20923183	         67.99195715	         -3.41860983	          3.67127781	         -0.00460032	          0.03484173	          0.00000000	          0.00000000	          0.00000000	          4.14490802	         30.68276254	         -0.80067283	          3.61960100	         -0.00274462	          0.01360670	          0.00000000	          0.00000000	          0.00000000	          3.72081376	         32.00656153	         -2.87681750	          3.74479414	         -0.00233989	         -0.01646012	          0.00000000	          0.00000000	          0.00000000	          6.34178682	         42.65246556	         -3.53119158	          3.73096596	         -0.00296358	          0.04633904	          0.00000000	          0.00000000	          0.00000000	          0.33081798	          2.52691652	          0.07169906	          3.53349799	          0.00146389	         -0.20814863	          0.00000000	          0.00000000	          0.00000000	          8.14291745	         56.95992669	          5.04607982	          3.64937866	         -0.00367826	         -0.20127468	          0.00000000	          0.00000000	          0.00000000	          9.66385486	         55.69670970	          4.41901287	          3.63041169	         -0.00380942	         -0.26257230	          0.00000000	          0.00000000	          0.00000000	          2.02141026	         13.20881243	          0.70366734	          3.58079557	         -0.00114952	         -0.23717282	          0.00000000	          0.00000000	          0.00000000	         10.76556743	         87.26629838	         12.53693720	          3.70791985	         -0.00473346	         -0.21716622	          0.00000000	          0.00000000	          0.00000000	          5.37742351	         36.71695693	          4.85923928	          3.68935478	         -0.00259891	         -0.27859603	          0.00000000	          0.00000000	          0.00000000	
