D:\Personal\AI_projectstuff\for_comparison\opencap-processing-grf\OpenCapData_ab7eb7cf-817d-4035-a30b-ee68773906cb\OpenSimData\Dynamics\Suhasno_1\GRF_Suhasno_1_Suhasno_1_window_2.mot
version=1
nRows=20
nColumns=109
inDegrees=yes
endheader 
time	ground_force_SmoothSphereHalfSpaceForce_s1_r_vx	ground_force_SmoothSphereHalfSpaceForce_s1_r_vy	ground_force_SmoothSphereHalfSpaceForce_s1_r_vz	ground_force_SmoothSphereHalfSpaceForce_s1_r_px	ground_force_SmoothSphereHalfSpaceForce_s1_r_py	ground_force_SmoothSphereHalfSpaceForce_s1_r_pz	ground_torque_SmoothSphereHalfSpaceForce_s1_r_x	ground_torque_SmoothSphereHalfSpaceForce_s1_r_y	ground_torque_SmoothSphereHalfSpaceForce_s1_r_z	ground_force_SmoothSphereHalfSpaceForce_s2_r_vx	ground_force_SmoothSphereHalfSpaceForce_s2_r_vy	ground_force_SmoothSphereHalfSpaceForce_s2_r_vz	ground_force_SmoothSphereHalfSpaceForce_s2_r_px	ground_force_SmoothSphereHalfSpaceForce_s2_r_py	ground_force_SmoothSphereHalfSpaceForce_s2_r_pz	ground_torque_SmoothSphereHalfSpaceForce_s2_r_x	ground_torque_SmoothSphereHalfSpaceForce_s2_r_y	ground_torque_SmoothSphereHalfSpaceForce_s2_r_z	ground_force_SmoothSphereHalfSpaceForce_s3_r_vx	ground_force_SmoothSphereHalfSpaceForce_s3_r_vy	ground_force_SmoothSphereHalfSpaceForce_s3_r_vz	ground_force_SmoothSphereHalfSpaceForce_s3_r_px	ground_force_SmoothSphereHalfSpaceForce_s3_r_py	ground_force_SmoothSphereHalfSpaceForce_s3_r_pz	ground_torque_SmoothSphereHalfSpaceForce_s3_r_x	ground_torque_SmoothSphereHalfSpaceForce_s3_r_y	ground_torque_SmoothSphereHalfSpaceForce_s3_r_z	ground_force_SmoothSphereHalfSpaceForce_s4_r_vx	ground_force_SmoothSphereHalfSpaceForce_s4_r_vy	ground_force_SmoothSphereHalfSpaceForce_s4_r_vz	ground_force_SmoothSphereHalfSpaceForce_s4_r_px	ground_force_SmoothSphereHalfSpaceForce_s4_r_py	ground_force_SmoothSphereHalfSpaceForce_s4_r_pz	ground_torque_SmoothSphereHalfSpaceForce_s4_r_x	ground_torque_SmoothSphereHalfSpaceForce_s4_r_y	ground_torque_SmoothSphereHalfSpaceForce_s4_r_z	ground_force_SmoothSphereHalfSpaceForce_s5_r_vx	ground_force_SmoothSphereHalfSpaceForce_s5_r_vy	ground_force_SmoothSphereHalfSpaceForce_s5_r_vz	ground_force_SmoothSphereHalfSpaceForce_s5_r_px	ground_force_SmoothSphereHalfSpaceForce_s5_r_py	ground_force_SmoothSphereHalfSpaceForce_s5_r_pz	ground_torque_SmoothSphereHalfSpaceForce_s5_r_x	ground_torque_SmoothSphereHalfSpaceForce_s5_r_y	ground_torque_SmoothSphereHalfSpaceForce_s5_r_z	ground_force_SmoothSphereHalfSpaceForce_s6_r_vx	ground_force_SmoothSphereHalfSpaceForce_s6_r_vy	ground_force_SmoothSphereHalfSpaceForce_s6_r_vz	ground_force_SmoothSphereHalfSpaceForce_s6_r_px	ground_force_SmoothSphereHalfSpaceForce_s6_r_py	ground_force_SmoothSphereHalfSpaceForce_s6_r_pz	ground_torque_SmoothSphereHalfSpaceForce_s6_r_x	ground_torque_SmoothSphereHalfSpaceForce_s6_r_y	ground_torque_SmoothSphereHalfSpaceForce_s6_r_z	ground_force_SmoothSphereHalfSpaceForce_s1_l_vx	ground_force_SmoothSphereHalfSpaceForce_s1_l_vy	ground_force_SmoothSphereHalfSpaceForce_s1_l_vz	ground_force_SmoothSphereHalfSpaceForce_s1_l_px	ground_force_SmoothSphereHalfSpaceForce_s1_l_py	ground_force_SmoothSphereHalfSpaceForce_s1_l_pz	ground_torque_SmoothSphereHalfSpaceForce_s1_l_x	ground_torque_SmoothSphereHalfSpaceForce_s1_l_y	ground_torque_SmoothSphereHalfSpaceForce_s1_l_z	ground_force_SmoothSphereHalfSpaceForce_s2_l_vx	ground_force_SmoothSphereHalfSpaceForce_s2_l_vy	ground_force_SmoothSphereHalfSpaceForce_s2_l_vz	ground_force_SmoothSphereHalfSpaceForce_s2_l_px	ground_force_SmoothSphereHalfSpaceForce_s2_l_py	ground_force_SmoothSphereHalfSpaceForce_s2_l_pz	ground_torque_SmoothSphereHalfSpaceForce_s2_l_x	ground_torque_SmoothSphereHalfSpaceForce_s2_l_y	ground_torque_SmoothSphereHalfSpaceForce_s2_l_z	ground_force_SmoothSphereHalfSpaceForce_s3_l_vx	ground_force_SmoothSphereHalfSpaceForce_s3_l_vy	ground_force_SmoothSphereHalfSpaceForce_s3_l_vz	ground_force_SmoothSphereHalfSpaceForce_s3_l_px	ground_force_SmoothSphereHalfSpaceForce_s3_l_py	ground_force_SmoothSphereHalfSpaceForce_s3_l_pz	ground_torque_SmoothSphereHalfSpaceForce_s3_l_x	ground_torque_SmoothSphereHalfSpaceForce_s3_l_y	ground_torque_SmoothSphereHalfSpaceForce_s3_l_z	ground_force_SmoothSphereHalfSpaceForce_s4_l_vx	ground_force_SmoothSphereHalfSpaceForce_s4_l_vy	ground_force_SmoothSphereHalfSpaceForce_s4_l_vz	ground_force_SmoothSphereHalfSpaceForce_s4_l_px	ground_force_SmoothSphereHalfSpaceForce_s4_l_py	ground_force_SmoothSphereHalfSpaceForce_s4_l_pz	ground_torque_SmoothSphereHalfSpaceForce_s4_l_x	ground_torque_SmoothSphereHalfSpaceForce_s4_l_y	ground_torque_SmoothSphereHalfSpaceForce_s4_l_z	ground_force_SmoothSphereHalfSpaceForce_s5_l_vx	ground_force_SmoothSphereHalfSpaceForce_s5_l_vy	ground_force_SmoothSphereHalfSpaceForce_s5_l_vz	ground_force_SmoothSphereHalfSpaceForce_s5_l_px	ground_force_SmoothSphereHalfSpaceForce_s5_l_py	ground_force_SmoothSphereHalfSpaceForce_s5_l_pz	ground_torque_SmoothSphereHalfSpaceForce_s5_l_x	ground_torque_SmoothSphereHalfSpaceForce_s5_l_y	ground_torque_SmoothSphereHalfSpaceForce_s5_l_z	ground_force_SmoothSphereHalfSpaceForce_s6_l_vx	ground_force_SmoothSphereHalfSpaceForce_s6_l_vy	ground_force_SmoothSphereHalfSpaceForce_s6_l_vz	ground_force_SmoothSphereHalfSpaceForce_s6_l_px	ground_force_SmoothSphereHalfSpaceForce_s6_l_py	ground_force_SmoothSphereHalfSpaceForce_s6_l_pz	ground_torque_SmoothSphereHalfSpaceForce_s6_l_x	ground_torque_SmoothSphereHalfSpaceForce_s6_l_y	ground_torque_SmoothSphereHalfSpaceForce_s6_l_z	
          2.00000000	         -0.00000000	         -0.00000000	          0.00000000	          1.51408007	          0.03210572	         -0.20868853	          0.00000000	          0.00000000	          0.00000000	          0.01149818	          0.01879532	         -0.02304018	          1.60521858	          0.00709155	         -0.15603602	          0.00000000	          0.00000000	          0.00000000	          0.00000217	          0.00000401	         -0.00000506	          1.55882493	          0.01335790	         -0.11351811	          0.00000000	          0.00000000	          0.00000000	         -0.00000000	         -0.00000000	          0.00000000	          1.53462867	          0.02304499	         -0.16014831	          0.00000000	          0.00000000	          0.00000000	          0.00000000	         -0.00000000	          0.00000000	          1.63888103	         -0.00627728	         -0.11602622	          0.00000000	          0.00000000	          0.00000000	          0.00000000	         -0.00000000	          0.00000000	          1.59160577	         -0.00111463	         -0.07365941	          0.00000000	          0.00000000	          0.00000000	         26.42674650	        172.23454288	         23.84563957	          1.84621662	         -0.00899866	         -0.22633711	          0.00000000	          0.00000000	          0.00000000	          3.14121515	         18.96007933	         -0.64964525	          1.95982960	         -0.00132686	         -0.20540831	          0.00000000	          0.00000000	          0.00000000	         10.77745415	        118.58087303	         -1.08626654	          1.94970557	         -0.00647082	         -0.26792931	          0.00000000	          0.00000000	          0.00000000	         18.00841860	        150.15862634	          9.95253283	          1.89707000	         -0.00792415	         -0.24905496	          0.00000000	          0.00000000	          0.00000000	         -0.64962256	          5.69720734	          0.66133778	          2.01864403	          0.00036372	         -0.21271730	          0.00000000	          0.00000000	          0.00000000	         -7.94365018	         60.69570190	          9.17414516	          2.00886588	         -0.00497178	         -0.27538330	          0.00000000	          0.00000000	          0.00000000	
          2.05000000	         -0.00000000	         -0.00000000	          0.00000000	          1.50789646	          0.04256968	         -0.15036947	          0.00000000	          0.00000000	          0.00000000	          0.00029729	          0.00082677	         -0.00111457	          1.59204218	          0.01011180	         -0.10254909	          0.00000000	          0.00000000	          0.00000000	          0.00000000	          0.00000000	         -0.00000000	          1.55143485	          0.02055164	         -0.05746809	          0.00000000	          0.00000000	          0.00000000	         -0.00000000	         -0.00000000	          0.00000000	          1.52804629	          0.03203394	         -0.10286408	          0.00000000	          0.00000000	          0.00000000	          0.61723679	          1.00506760	         -1.15712202	          1.63662866	          0.00397384	         -0.06080629	          0.00000000	          0.00000000	          0.00000000	          0.00000000	          0.00000000	         -0.00000000	          1.60451774	          0.02249088	         -0.01916645	          0.00000000	          0.00000000	          0.00000000	          7.01887660	        137.70989894	         -8.82181317	          1.84621896	         -0.00764751	         -0.22594885	          0.00000000	          0.00000000	          0.00000000	         -0.19510173	         44.47591085	          3.74600945	          1.96032599	         -0.00245705	         -0.20466104	          0.00000000	          0.00000000	          0.00000000	         13.88628900	        130.01800806	         11.01413158	          1.94981967	         -0.00632531	         -0.26748600	          0.00000000	          0.00000000	          0.00000000	         11.37386353	        138.03431842	          1.31956571	          1.89711454	         -0.00712580	         -0.24864987	          0.00000000	          0.00000000	          0.00000000	         -2.08007568	         15.56614856	          4.31062061	          2.01962495	         -0.00068504	         -0.21253922	          0.00000000	          0.00000000	          0.00000000	         -0.02942073	         63.97716833	         17.67111472	          2.00928310	         -0.00379595	         -0.27571235	          0.00000000	          0.00000000	          0.00000000	
          2.10000000	          0.00000000	         -0.00000000	          0.00000000	          1.51450391	          0.05240309	         -0.08999278	          0.00000000	          0.00000000	          0.00000000	          0.00000000	          0.00001232	         -0.00001626	          1.59117847	          0.01385014	         -0.04807570	          0.00000000	          0.00000000	          0.00000000	         -0.00000000	          0.00000000	         -0.00000000	          1.55843895	          0.02755744	         -0.00018231	          0.00000000	          0.00000000	          0.00000000	         -0.00000000	         -0.00000000	         -0.00000000	          1.53511935	          0.04058029	         -0.04392030	          0.00000000	          0.00000000	          0.00000000	          1.10540703	          6.25150298	         -7.69216708	          1.63045039	          0.00050662	         -0.00860101	          0.00000000	          0.00000000	          0.00000000	          0.00000003	          0.00000025	         -0.00000031	          1.60427723	          0.01808637	          0.03846582	          0.00000000	          0.00000000	          0.00000000	          5.85142296	        139.20520938	         -0.04073418	          1.84664309	         -0.00690247	         -0.22451336	          0.00000000	          0.00000000	          0.00000000	          1.49179107	         75.18548213	          7.08897556	          1.96128322	         -0.00399990	         -0.20438160	          0.00000000	          0.00000000	          0.00000000	         10.69999075	        135.05345938	         12.13505673	          1.94976703	         -0.00656248	         -0.26729680	          0.00000000	          0.00000000	          0.00000000	          8.70016102	        139.27224623	          6.14949756	          1.89726822	         -0.00682200	         -0.24783406	          0.00000000	          0.00000000	          0.00000000	         -2.54325400	         39.57862611	          8.54152822	          2.02078306	         -0.00244704	         -0.21319031	          0.00000000	          0.00000000	          0.00000000	          0.36808236	         56.87110713	         11.81797596	          2.00936476	         -0.00368766	         -0.27643567	          0.00000000	          0.00000000	          0.00000000	
          2.15000000	         -0.00000000	         -0.00000000	         -0.00000000	          1.53288289	          0.05903805	         -0.04409651	          0.00000000	          0.00000000	          0.00000000	         -0.00000009	          0.00000014	         -0.00000015	          1.60583453	          0.01793286	         -0.00535555	          0.00000000	          0.00000000	          0.00000000	         -0.00000000	         -0.00000000	         -0.00000000	          1.57864910	          0.03338364	          0.04387106	          0.00000000	          0.00000000	          0.00000000	         -0.00000000	         -0.00000000	         -0.00000000	          1.55459444	          0.04687482	          0.00110987	          0.00000000	          0.00000000	          0.00000000	         -1.34119599	          2.25059332	         -2.23758725	          1.64125160	          0.00164156	          0.03198491	          0.00000000	          0.00000000	          0.00000000	         -0.00000004	          0.00000006	         -0.00000006	          1.61813555	          0.01894783	          0.08101685	          0.00000000	          0.00000000	          0.00000000	         29.14952867	        173.57645413	         30.13093579	          1.84511288	         -0.00731266	         -0.22527199	          0.00000000	          0.00000000	          0.00000000	         14.31282826	         67.70208495	         -1.68245864	          1.95963491	         -0.00425025	         -0.20457078	          0.00000000	          0.00000000	          0.00000000	         11.45193842	        117.19363901	         -0.51708328	          1.94840511	         -0.00633657	         -0.26760801	          0.00000000	          0.00000000	          0.00000000	         18.90017979	        146.16928827	         12.60338664	          1.89583107	         -0.00690118	         -0.24837551	          0.00000000	          0.00000000	          0.00000000	          5.01583486	         25.58248989	         -3.16480244	          2.01922980	         -0.00217636	         -0.21318416	          0.00000000	          0.00000000	          0.00000000	          2.83717937	         32.68231503	         -3.40793158	          2.00801878	         -0.00268928	         -0.27650691	          0.00000000	          0.00000000	          0.00000000	
          2.20000000	         -0.00000000	         -0.00000000	         -0.00000000	          1.55992698	          0.06136341	         -0.01521361	          0.00000000	          0.00000000	          0.00000000	         -0.00000002	          0.00000002	         -0.00000001	          1.63465535	          0.02015370	          0.01948598	          0.00000000	          0.00000000	          0.00000000	         -0.00000000	         -0.00000000	         -0.00000000	          1.61125135	          0.03606210	          0.07005431	          0.00000000	          0.00000000	          0.00000000	         -0.00000000	         -0.00000000	         -0.00000000	          1.58451784	          0.04939053	          0.02870309	          0.00000000	          0.00000000	          0.00000000	         -1.26685226	          1.14487667	         -0.41870578	          1.66990238	          0.00304427	          0.05446335	          0.00000000	          0.00000000	          0.00000000	         -0.00000003	          0.00000003	         -0.00000001	          1.64879380	          0.01988606	          0.10502374	          0.00000000	          0.00000000	          0.00000000	         35.41535215	        192.79393405	         25.51409701	          1.84292140	         -0.00813981	         -0.22693032	          0.00000000	          0.00000000	          0.00000000	         13.93318732	         63.11659076	         -1.81365311	          1.95691005	         -0.00388978	         -0.20422163	          0.00000000	          0.00000000	          0.00000000	         14.44275706	        111.23011029	         -1.53710785	          1.94685797	         -0.00592430	         -0.26746410	          0.00000000	          0.00000000	          0.00000000	         23.32639994	        151.52777934	          9.17340216	          1.89399869	         -0.00711337	         -0.24914923	          0.00000000	          0.00000000	          0.00000000	          4.14891668	         16.64285495	         -2.34138920	          2.01651939	         -0.00123188	         -0.21175214	          0.00000000	          0.00000000	          0.00000000	          3.66956158	         23.80222607	         -2.99321594	          2.00644649	         -0.00176849	         -0.27526509	          0.00000000	          0.00000000	          0.00000000	
          2.25000000	         -0.00000000	         -0.00000000	         -0.00000000	          1.60065850	          0.06050380	          0.00338216	          0.00000000	          0.00000000	          0.00000000	         -0.00000003	          0.00000002	         -0.00000001	          1.67967127	          0.02013795	          0.03203044	          0.00000000	          0.00000000	          0.00000000	         -0.00000000	         -0.00000000	         -0.00000000	          1.66202758	          0.03689839	          0.08382101	          0.00000000	          0.00000000	          0.00000000	         -0.00000000	         -0.00000000	         -0.00000000	          1.63041609	          0.04939912	          0.04495157	          0.00000000	          0.00000000	          0.00000000	         -1.16257465	          0.84208186	         -0.16398117	          1.71774271	          0.00330323	          0.06379555	          0.00000000	          0.00000000	          0.00000000	         -0.00000001	          0.00000001	         -0.00000000	          1.70139277	          0.02052985	          0.11558516	          0.00000000	          0.00000000	          0.00000000	         34.55535353	        186.29316812	         13.16062018	          1.84169707	         -0.00847008	         -0.22849065	          0.00000000	          0.00000000	          0.00000000	         13.84029222	         72.82788775	          2.01705420	          1.95544111	         -0.00410602	         -0.20466920	          0.00000000	          0.00000000	          0.00000000	         22.49561636	        135.46137540	          3.95467623	          1.94603053	         -0.00626459	         -0.26799388	          0.00000000	          0.00000000	          0.00000000	         28.76631064	        164.32329951	          8.24718347	          1.89299269	         -0.00745284	         -0.25020252	          0.00000000	          0.00000000	          0.00000000	          3.80559989	         22.62808483	          0.39462196	          2.01510264	         -0.00148362	         -0.21159891	          0.00000000	          0.00000000	          0.00000000	          5.12356373	         35.37908613	          0.72091845	          2.00568644	         -0.00219639	         -0.27520561	          0.00000000	          0.00000000	          0.00000000	
          2.30000000	         -0.00000000	         -0.00000000	         -0.00000000	          1.66807231	          0.05595014	          0.01552485	          0.00000000	          0.00000000	          0.00000000	         -0.00000013	          0.00000007	         -0.00000002	          1.75449253	          0.01921887	          0.04228583	          0.00000000	          0.00000000	          0.00000000	         -0.00000000	         -0.00000000	         -0.00000000	          1.74051945	          0.03794967	          0.09247144	          0.00000000	          0.00000000	          0.00000000	         -0.00000000	         -0.00000000	         -0.00000000	          1.70343631	          0.04768591	          0.05531155	          0.00000000	          0.00000000	          0.00000000	         -0.38783875	          0.21400054	         -0.04264197	          1.79706643	          0.00473591	          0.07254206	          0.00000000	          0.00000000	          0.00000000	         -0.00000000	          0.00000000	         -0.00000000	          1.78384213	          0.02371083	          0.12275597	          0.00000000	          0.00000000	          0.00000000	         12.12756914	        131.09497876	         -9.52166149	          1.84094048	         -0.00761372	         -0.22909621	          0.00000000	          0.00000000	          0.00000000	          3.37953035	         69.97875912	          7.73695803	          1.95499486	         -0.00424882	         -0.20612542	          0.00000000	          0.00000000	          0.00000000	         22.63284000	        148.42124140	         13.25060650	          1.94508952	         -0.00689700	         -0.26930014	          0.00000000	          0.00000000	          0.00000000	         18.08404527	        143.80713309	          0.96955563	          1.89212792	         -0.00734980	         -0.25114961	          0.00000000	          0.00000000	          0.00000000	          0.17255740	         31.92835958	          7.83445806	          2.01476066	         -0.00214244	         -0.21358458	          0.00000000	          0.00000000	          0.00000000	          6.17685076	         54.22897979	         12.32480514	          2.00486338	         -0.00318093	         -0.27710025	          0.00000000	          0.00000000	          0.00000000	
          2.35000000	         -0.00000000	         -0.00000000	         -0.00000000	          1.75738774	          0.04432206	          0.01980876	          0.00000000	          0.00000000	          0.00000000	         -0.00000329	          0.00000163	         -0.00000020	          1.85588626	          0.01662398	          0.04828078	          0.00000000	          0.00000000	          0.00000000	         -0.00000000	         -0.00000000	         -0.00000000	          1.83727050	          0.03595188	          0.09599236	          0.00000000	          0.00000000	          0.00000000	         -0.00000000	         -0.00000000	         -0.00000000	          1.79627148	          0.04084275	          0.05913328	          0.00000000	          0.00000000	          0.00000000	         -0.04250708	          0.02079794	         -0.00258827	          1.90340566	          0.00708898	          0.07881377	          0.00000000	          0.00000000	          0.00000000	         -0.00000000	          0.00000000	         -0.00000000	          1.88525033	          0.02658135	          0.12663723	          0.00000000	          0.00000000	          0.00000000	         -2.39122884	         65.89267985	          3.36815639	          1.84059738	         -0.00529656	         -0.22922034	          0.00000000	          0.00000000	          0.00000000	         -2.35254200	         44.47396341	          5.22472515	          1.95506365	         -0.00336702	         -0.20768132	          0.00000000	          0.00000000	          0.00000000	         -1.39402424	        134.96028690	         13.50789475	          1.94426958	         -0.00686553	         -0.27054420	          0.00000000	          0.00000000	          0.00000000	         -2.19045305	         99.61765549	          7.44630000	          1.89151848	         -0.00619257	         -0.25181714	          0.00000000	          0.00000000	          0.00000000	         -2.42345061	         27.65783159	          5.03271520	          2.01491744	         -0.00207853	         -0.21601194	          0.00000000	          0.00000000	          0.00000000	         -2.81086951	         63.84936842	         10.89267914	          2.00417588	         -0.00375563	         -0.27933553	          0.00000000	          0.00000000	          0.00000000	
          2.40000000	         -0.00000000	          0.00000000	         -0.00000000	          1.85751102	          0.02510638	          0.02320413	          0.00000000	          0.00000000	          0.00000000	         -0.00036516	          0.00017493	         -0.00000908	          1.96738211	          0.01234045	          0.05249264	          0.00000000	          0.00000000	          0.00000000	         -0.00000000	          0.00000000	         -0.00000000	          1.93791378	          0.02770830	          0.10049416	          0.00000000	          0.00000000	          0.00000000	         -0.00000000	          0.00000000	         -0.00000000	          1.89628046	          0.02691981	          0.06308597	          0.00000000	          0.00000000	          0.00000000	         -0.00258296	          0.00123496	         -0.00007011	          2.01789979	          0.00958468	          0.08356202	          0.00000000	          0.00000000	          0.00000000	         -0.00000000	          0.00000000	         -0.00000000	          1.98872426	          0.02509649	          0.13175780	          0.00000000	          0.00000000	          0.00000000	          8.04078053	         55.35275990	          9.25343901	          1.84030420	         -0.00361510	         -0.23104428	          0.00000000	          0.00000000	          0.00000000	          7.26335045	         45.58311676	          3.95100122	          1.95481250	         -0.00285223	         -0.20943711	          0.00000000	          0.00000000	          0.00000000	         21.59615904	        175.86855539	         14.63331718	          1.94389435	         -0.00725302	         -0.27205132	          0.00000000	          0.00000000	          0.00000000	         14.67003339	        110.38591397	         13.85475572	          1.89118045	         -0.00556559	         -0.25347582	          0.00000000	          0.00000000	          0.00000000	          1.84530772	         32.72946689	          4.08029256	          2.01484559	         -0.00212402	         -0.21792642	          0.00000000	          0.00000000	          0.00000000	          2.68794486	         84.43663527	         10.72156067	          2.00400387	         -0.00437569	         -0.28116158	          0.00000000	          0.00000000	          0.00000000	
          2.45000000	         -0.11827698	          0.05774897	         -0.00071040	          1.96769180	          0.00742227	          0.02910296	          0.00000000	          0.00000000	          0.00000000	         -0.00093495	          0.00045720	          0.00001380	          2.08062208	          0.01104746	          0.05695132	          0.00000000	          0.00000000	          0.00000000	         -0.00000026	          0.00000013	          0.00000000	          2.04404063	          0.01911565	          0.10713724	          0.00000000	          0.00000000	          0.00000000	         -0.00016645	          0.00008154	         -0.00000048	          2.00421206	          0.01348368	          0.06942779	          0.00000000	          0.00000000	          0.00000000	         -0.00000373	          0.00000183	          0.00000009	          2.13094681	          0.01489956	          0.08781926	          0.00000000	          0.00000000	          0.00000000	         -0.00000000	          0.00000000	          0.00000000	          2.09455836	          0.02310163	          0.13825035	          0.00000000	          0.00000000	          0.00000000	         10.84805137	         63.35991393	          3.43464853	          1.83906919	         -0.00366766	         -0.23281013	          0.00000000	          0.00000000	          0.00000000	         11.48399930	         69.70268155	          6.15730797	          1.95354262	         -0.00371761	         -0.21096589	          0.00000000	          0.00000000	          0.00000000	         42.15202875	        222.87922618	         18.59599466	          1.94260128	         -0.00852871	         -0.27345519	          0.00000000	          0.00000000	          0.00000000	         24.72474511	        136.66940821	          9.36190063	          1.88991592	         -0.00623733	         -0.25505831	          0.00000000	          0.00000000	          0.00000000	          3.02318173	         51.02784358	         10.05037742	          2.01379391	         -0.00297820	         -0.21963164	          0.00000000	          0.00000000	          0.00000000	         10.00734795	         98.76962405	         19.05278515	          2.00287811	         -0.00511285	         -0.28287030	          0.00000000	          0.00000000	          0.00000000	
          2.50000000	        -58.26491308	         31.64695476	          5.50231508	          2.07514585	         -0.00147109	          0.02865220	          0.00000000	          0.00000000	          0.00000000	         -0.00007945	          0.00004350	          0.00000925	          2.18508615	          0.01301713	          0.05424218	          0.00000000	          0.00000000	          0.00000000	         -0.00000628	          0.00000342	          0.00000066	          2.14776592	          0.01574441	          0.10615230	          0.00000000	          0.00000000	          0.00000000	         -0.07135224	          0.03879414	          0.00710394	          2.10979606	          0.00713946	          0.06877179	          0.00000000	          0.00000000	          0.00000000	         -0.00000001	          0.00000000	          0.00000000	          2.23381268	          0.02113770	          0.08433410	          0.00000000	          0.00000000	          0.00000000	         -0.00000000	          0.00000000	          0.00000000	          2.19664147	          0.02399321	          0.13650875	          0.00000000	          0.00000000	          0.00000000	          5.73766165	         37.59831413	         -1.25262879	          1.83778398	         -0.00309022	         -0.23293494	          0.00000000	          0.00000000	          0.00000000	          8.62184489	         63.33661228	          4.17321490	          1.95238442	         -0.00406824	         -0.21185746	          0.00000000	          0.00000000	          0.00000000	         32.84374055	        167.16289423	         10.44197214	          1.94088789	         -0.00859931	         -0.27433080	          0.00000000	          0.00000000	          0.00000000	         16.74703840	         94.95063466	          1.32491607	          1.88839987	         -0.00597092	         -0.25555403	          0.00000000	          0.00000000	          0.00000000	          6.18952122	         51.19516407	          6.90537887	          2.01270244	         -0.00336075	         -0.22108921	          0.00000000	          0.00000000	          0.00000000	         13.86855036	         76.51486347	          9.71582406	          2.00121613	         -0.00486530	         -0.28429933	          0.00000000	          0.00000000	          0.00000000	
          2.55000000	       -123.70429950	        104.21268760	         52.03356728	          2.14822808	         -0.00459319	          0.01453562	          0.00000000	          0.00000000	          0.00000000	         -0.00043962	          0.00036607	          0.00017140	          2.25707175	          0.01178502	          0.04025374	          0.00000000	          0.00000000	          0.00000000	         -0.00013968	          0.00011677	          0.00005546	          2.22003101	          0.01283327	          0.09260639	          0.00000000	          0.00000000	          0.00000000	         -0.90187540	          0.75696232	          0.36901090	          2.18248359	          0.00406425	          0.05495269	          0.00000000	          0.00000000	          0.00000000	         -0.00000004	          0.00000003	          0.00000001	          2.30534109	          0.02041637	          0.07050632	          0.00000000	          0.00000000	          0.00000000	         -0.00000001	          0.00000001	          0.00000000	          2.26844364	          0.02158570	          0.12313349	          0.00000000	          0.00000000	          0.00000000	          2.43875855	          5.80070999	         -0.46912319	          1.83559303	         -0.00044712	         -0.23156629	          0.00000000	          0.00000000	          0.00000000	         25.96734289	         61.53569753	          0.92066803	          1.95021443	         -0.00376516	         -0.21158515	          0.00000000	          0.00000000	          0.00000000	         65.71531986	        134.56432506	          1.94595722	          1.93786694	         -0.00741144	         -0.27412770	          0.00000000	          0.00000000	          0.00000000	         21.76414895	         47.69648989	         -1.60855582	          1.88576915	         -0.00401748	         -0.25476438	          0.00000000	          0.00000000	          0.00000000	         26.18701248	         71.36116269	          7.96649756	          2.01054619	         -0.00381020	         -0.22143526	          0.00000000	          0.00000000	          0.00000000	         28.86684093	         67.88690790	          6.93094997	          1.99837580	         -0.00419249	         -0.28458434	          0.00000000	          0.00000000	          0.00000000	
          2.60000000	        -12.31739915	        218.90670747	         -1.42187381	          2.17288070	         -0.00746858	          0.00488624	          0.00000000	          0.00000000	          0.00000000	         -0.39617260	          1.51975797	          0.47692511	          2.28452467	          0.00376388	          0.02963092	          0.00000000	          0.00000000	          0.00000000	         -0.07142691	          0.16234036	          0.03406915	          2.24844741	          0.00605975	          0.08249451	          0.00000000	          0.00000000	          0.00000000	         -5.01720626	         19.89019547	          1.92907265	          2.20903128	         -0.00069699	          0.04509199	          0.00000000	          0.00000000	          0.00000000	         -0.00174520	          0.00416851	          0.00191488	          2.33450566	          0.00995327	          0.05948652	          0.00000000	          0.00000000	          0.00000000	         -0.00017229	          0.00028705	          0.00010211	          2.29859811	          0.01235490	          0.11262866	          0.00000000	          0.00000000	          0.00000000	          0.09459253	          0.51482542	         -0.11361906	          1.83459508	          0.00329692	         -0.22857106	          0.00000000	          0.00000000	          0.00000000	         21.22101356	         94.38658082	         -4.53066196	          1.94861298	         -0.00455885	         -0.21028409	          0.00000000	          0.00000000	          0.00000000	         41.06562021	        128.30028316	         -7.28746905	          1.93512652	         -0.00665157	         -0.27287650	          0.00000000	          0.00000000	          0.00000000	          4.35058151	         17.09802852	         -2.39219822	          1.88387014	         -0.00169663	         -0.25263370	          0.00000000	          0.00000000	          0.00000000	         17.70562855	        160.67553008	         21.54560834	          2.00893183	         -0.00600431	         -0.22107230	          0.00000000	          0.00000000	          0.00000000	         13.68064332	         76.68820512	          8.17826459	          1.99602820	         -0.00427238	         -0.28398499	          0.00000000	          0.00000000	          0.00000000	
          2.65000000	          7.52064294	        220.57013678	        -35.23556281	          2.17531936	         -0.00914003	          0.00594759	          0.00000000	          0.00000000	          0.00000000	         -6.57699587	         87.59479699	         22.21236029	          2.28949028	         -0.00359630	          0.02652470	          0.00000000	          0.00000000	          0.00000000	         -2.25382839	          7.60618955	          1.01997509	          2.25601600	          0.00054048	          0.08063785	          0.00000000	          0.00000000	          0.00000000	        -11.65070650	         85.07555604	         -1.57063151	          2.21409703	         -0.00420907	          0.04475247	          0.00000000	          0.00000000	          0.00000000	         -2.58789677	         12.01305603	          5.05353696	          2.34153665	          0.00011027	          0.05449992	          0.00000000	          0.00000000	          0.00000000	         -0.26324393	          0.59973499	          0.18185736	          2.30825588	          0.00439490	          0.10886413	          0.00000000	          0.00000000	          0.00000000	         -0.00000053	         -0.00000878	          0.00000533	          1.83701685	          0.00983866	         -0.22235737	          0.00000000	          0.00000000	          0.00000000	          6.96444025	         46.99901798	         -7.93135966	          1.94927459	         -0.00404376	         -0.20791217	          0.00000000	          0.00000000	          0.00000000	         11.04651336	         30.36152146	         -6.72168717	          1.93395172	         -0.00410881	         -0.27022112	          0.00000000	          0.00000000	          0.00000000	          0.04766539	          0.21864341	         -0.09146596	          1.88444967	          0.00293608	         -0.24817074	          0.00000000	          0.00000000	          0.00000000	         32.59779163	        170.94836489	         12.70416453	          2.00902629	         -0.00769709	         -0.22057687	          0.00000000	          0.00000000	          0.00000000	         15.14615867	         42.16374944	          0.37759075	          1.99505650	         -0.00348497	         -0.28278930	          0.00000000	          0.00000000	          0.00000000	
          2.70000000	          4.35583676	        178.54932186	        -31.52070363	          2.17605001	         -0.00879862	          0.00845953	          0.00000000	          0.00000000	          0.00000000	         -4.22297717	        107.19214531	         26.97882083	          2.29131849	         -0.00567897	          0.02444695	          0.00000000	          0.00000000	          0.00000000	         -4.75063022	         18.67659483	          2.29304042	          2.26043456	         -0.00123130	          0.07998313	          0.00000000	          0.00000000	          0.00000000	        -10.42246830	         86.22383514	         -2.83410576	          2.21674093	         -0.00490249	          0.04574646	          0.00000000	          0.00000000	          0.00000000	         -8.86034633	         45.48845018	         17.44642981	          2.34480265	         -0.00292171	          0.05038083	          0.00000000	          0.00000000	          0.00000000	         -1.18979426	          2.86836940	          0.73962644	          2.31411471	          0.00190832	          0.10607143	          0.00000000	          0.00000000	          0.00000000	         -0.00000000	         -0.00000000	          0.00000000	          1.84382620	          0.02204494	         -0.21275829	          0.00000000	          0.00000000	          0.00000000	          4.01086785	          7.46556084	         -3.25793781	          1.95053531	         -0.00093345	         -0.20367584	          0.00000000	          0.00000000	          0.00000000	          0.54313936	          0.78441978	         -0.39034097	          1.93323629	          0.00136165	         -0.26529472	          0.00000000	          0.00000000	          0.00000000	         -0.00000000	         -0.00000000	          0.00000000	          1.88746856	          0.01189069	         -0.24085979	          0.00000000	          0.00000000	          0.00000000	        122.63793280	        218.55386527	        -31.63711661	          2.00832331	         -0.00852943	         -0.21898455	          0.00000000	          0.00000000	          0.00000000	          9.55686757	         16.65459998	         -3.54142794	          1.99390701	         -0.00159493	         -0.28011008	          0.00000000	          0.00000000	          0.00000000	
          2.75000000	         37.89065336	        129.95329462	        -36.94612657	          2.17533389	         -0.00762417	          0.01278582	          0.00000000	          0.00000000	          0.00000000	         21.95346288	         91.34021237	         19.06525845	          2.29124381	         -0.00538718	          0.02402064	          0.00000000	          0.00000000	          0.00000000	         -0.36270037	         30.41293005	          2.06038367	          2.26286815	         -0.00198768	          0.08116788	          0.00000000	          0.00000000	          0.00000000	         10.47165073	         78.86336254	         -9.06590723	          2.21766897	         -0.00471919	          0.04857367	          0.00000000	          0.00000000	          0.00000000	          4.04532478	         46.25468560	         17.74683822	          2.34596880	         -0.00304699	          0.04789801	          0.00000000	          0.00000000	          0.00000000	         -0.81885246	          4.87678336	          1.18364860	          2.31776967	          0.00106808	          0.10511324	          0.00000000	          0.00000000	          0.00000000	          0.00000000	         -0.00000000	          0.00000000	          1.86321946	          0.04037436	         -0.20620536	          0.00000000	          0.00000000	          0.00000000	          0.00001248	         -0.00052364	          0.00002889	          1.95606409	          0.00529699	         -0.19991772	          0.00000000	          0.00000000	          0.00000000	          0.00000000	         -0.00000000	          0.00000000	          1.93972190	          0.01038876	         -0.26112589	          0.00000000	          0.00000000	          0.00000000	          0.00000000	         -0.00000000	          0.00000000	          1.90050866	          0.02571365	         -0.23547230	          0.00000000	          0.00000000	          0.00000000	         71.56413145	        154.86700763	        -21.98343805	          2.00854196	         -0.00865114	         -0.21650677	          0.00000000	          0.00000000	          0.00000000	          0.80846993	          3.15616706	         -0.46268257	          1.99726173	          0.00066852	         -0.27701992	          0.00000000	          0.00000000	          0.00000000	
          2.80000000	         24.18927167	        101.48841722	        -20.69182117	          2.17485819	         -0.00637133	          0.01795562	          0.00000000	          0.00000000	          0.00000000	         17.51331464	         78.43222818	         -0.38265388	          2.29110530	         -0.00487459	          0.02563654	          0.00000000	          0.00000000	          0.00000000	          6.61317418	         56.44162532	         -3.55442847	          2.26465425	         -0.00320377	          0.08400081	          0.00000000	          0.00000000	          0.00000000	         14.29621648	         81.80445199	        -11.13848405	          2.21837816	         -0.00474701	          0.05262900	          0.00000000	          0.00000000	          0.00000000	          7.23212732	         49.08362346	          2.27798701	          2.34670469	         -0.00317577	          0.04803148	          0.00000000	          0.00000000	          0.00000000	          0.51596217	         12.77549806	         -0.20122153	          2.32041194	         -0.00053052	          0.10648840	          0.00000000	          0.00000000	          0.00000000	          0.00000000	         -0.00000000	         -0.00000000	          1.90990579	          0.05966312	         -0.21079849	          0.00000000	          0.00000000	          0.00000000	          0.00000000	         -0.00000000	         -0.00000000	          1.98772828	          0.01640074	         -0.20459588	          0.00000000	          0.00000000	          0.00000000	          0.00000000	         -0.00000000	         -0.00000000	          1.97604875	          0.02407510	         -0.26579406	          0.00000000	          0.00000000	          0.00000000	          0.00000000	         -0.00000000	         -0.00000000	          1.94222940	          0.04231910	         -0.24010222	          0.00000000	          0.00000000	          0.00000000	          0.01485476	         -0.01284522	         -0.00360981	          2.03224377	         -0.00300705	         -0.22074996	          0.00000000	          0.00000000	          0.00000000	          0.00000331	         -0.00000283	         -0.00000078	          2.02551168	          0.00717752	         -0.28138235	          0.00000000	          0.00000000	          0.00000000	
          2.85000000	          8.50255935	         69.02477683	          0.40727232	          2.17283153	         -0.00469810	          0.01987844	          0.00000000	          0.00000000	          0.00000000	         13.76325939	        108.31336506	         -3.57398722	          2.28918157	         -0.00508260	          0.02646823	          0.00000000	          0.00000000	          0.00000000	         16.21359524	        110.59469849	         -2.77166728	          2.26336896	         -0.00484416	          0.08521083	          0.00000000	          0.00000000	          0.00000000	         12.09280139	         89.28655842	         -0.81661232	          2.21674014	         -0.00476220	          0.05421212	          0.00000000	          0.00000000	          0.00000000	          1.13374057	         94.65127117	        -17.86965689	          2.34524357	         -0.00429975	          0.04862141	          0.00000000	          0.00000000	          0.00000000	          1.43198555	         49.76326869	         -9.06134056	          2.31959339	         -0.00259441	          0.10750218	          0.00000000	          0.00000000	          0.00000000	         -0.00000000	         -0.00000000	          0.00000000	          1.98211461	          0.07123694	         -0.21747587	          0.00000000	          0.00000000	          0.00000000	         -0.00000000	          0.00000000	          0.00000000	          2.05621959	          0.02632405	         -0.21287895	          0.00000000	          0.00000000	          0.00000000	         -0.00000000	         -0.00000000	          0.00000000	          2.04783146	          0.03587602	         -0.27355753	          0.00000000	          0.00000000	          0.00000000	         -0.00000000	         -0.00000000	          0.00000000	          2.01434009	          0.05406956	         -0.24729914	          0.00000000	          0.00000000	          0.00000000	         -0.06945153	          0.04251494	          0.00489712	          2.09675066	          0.00541335	         -0.22934954	          0.00000000	          0.00000000	          0.00000000	         -0.00000060	          0.00000037	          0.00000004	          2.09134240	          0.01615549	         -0.28972905	          0.00000000	          0.00000000	          0.00000000	
          2.90000000	         -0.05753003	          7.79716633	          2.45618751	          2.17289803	         -0.00128007	          0.01841982	          0.00000000	          0.00000000	          0.00000000	          4.58615319	        101.07641289	         -0.22305790	          2.28883842	         -0.00547335	          0.02671682	          0.00000000	          0.00000000	          0.00000000	         19.67313965	         94.41837492	          6.84930190	          2.26209891	         -0.00545392	          0.08504528	          0.00000000	          0.00000000	          0.00000000	          3.73392081	         35.58256662	          7.03150880	          2.21611367	         -0.00334437	          0.05337905	          0.00000000	          0.00000000	          0.00000000	         -0.42221013	        135.66538914	        -38.82078366	          2.34484261	         -0.00598391	          0.05006053	          0.00000000	          0.00000000	          0.00000000	          8.76549328	         61.63387530	        -13.03948414	          2.31841643	         -0.00372409	          0.10852197	          0.00000000	          0.00000000	          0.00000000	         -0.00000000	         -0.00000000	          0.00000000	          2.06882021	          0.06674845	         -0.21679719	          0.00000000	          0.00000000	          0.00000000	         -0.00000000	          0.00000000	          0.00000000	          2.15195907	          0.02591619	         -0.21636758	          0.00000000	          0.00000000	          0.00000000	         -0.00000000	         -0.00000000	          0.00000000	          2.14186635	          0.03664209	         -0.27599283	          0.00000000	          0.00000000	          0.00000000	         -0.00000000	         -0.00000000	          0.00000000	          2.10461342	          0.05222089	         -0.24812500	          0.00000000	          0.00000000	          0.00000000	         -0.07712089	          0.03875333	          0.00521425	          2.19509938	          0.00712228	         -0.23465575	          0.00000000	          0.00000000	          0.00000000	         -0.00000034	          0.00000017	          0.00000002	          2.18660262	          0.01851261	         -0.29419864	          0.00000000	          0.00000000	          0.00000000	
          2.95000000	          0.02983427	          0.61597991	          0.35686264	          2.17477710	          0.00311968	          0.01333484	          0.00000000	          0.00000000	          0.00000000	         13.23538788	         92.20652594	         12.48471521	          2.28944436	         -0.00518990	          0.02584777	          0.00000000	          0.00000000	          0.00000000	         19.95033155	         56.55591992	         13.85733466	          2.26065903	         -0.00419793	          0.08315991	          0.00000000	          0.00000000	          0.00000000	          1.38224139	          6.70483688	          2.80056207	          2.21628068	         -0.00046666	          0.04984225	          0.00000000	          0.00000000	          0.00000000	         25.62170160	        153.92933164	        -24.95071426	          2.34468730	         -0.00692699	          0.05143921	          0.00000000	          0.00000000	          0.00000000	         13.62180580	         39.00097176	         -1.86879907	          2.31655585	         -0.00303590	          0.10875037	          0.00000000	          0.00000000	          0.00000000	         -0.00000000	         -0.00000000	          0.00000000	          2.16674829	          0.04727693	         -0.21658534	          0.00000000	          0.00000000	          0.00000000	         -0.00001020	          0.00000484	          0.00000029	          2.26518461	          0.01611920	         -0.21948795	          0.00000000	          0.00000000	          0.00000000	         -0.00000000	          0.00000000	          0.00000000	          2.25046209	          0.02685144	         -0.27813721	          0.00000000	          0.00000000	          0.00000000	         -0.00000000	         -0.00000000	          0.00000000	          2.20766069	          0.03753909	         -0.24904545	          0.00000000	          0.00000000	          0.00000000	         -8.04304185	          3.77700575	          0.19697094	          2.31432744	          0.00225871	         -0.23924452	          0.00000000	          0.00000000	          0.00000000	         -0.00015984	          0.00007614	          0.00000365	          2.30037322	          0.01336639	         -0.29796647	          0.00000000	          0.00000000	          0.00000000	
