Inverse Dynamics Generalized Forces
version=1
nRows=20
nColumns=34
inDegrees=no
endheader 
time	pelvis_tilt_moment	pelvis_list_moment	pelvis_rotation_moment	pelvis_tx_force	pelvis_ty_force	pelvis_tz_force	hip_flexion_l_moment	hip_adduction_l_moment	hip_rotation_l_moment	hip_flexion_r_moment	hip_adduction_r_moment	hip_rotation_r_moment	knee_angle_l_moment	knee_angle_r_moment	ankle_angle_l_moment	ankle_angle_r_moment	subtalar_angle_l_moment	subtalar_angle_r_moment	mtp_angle_l_moment	mtp_angle_r_moment	lumbar_extension_moment	lumbar_bending_moment	lumbar_rotation_moment	arm_flex_l_moment	arm_add_l_moment	arm_rot_l_moment	arm_flex_r_moment	arm_add_r_moment	arm_rot_r_moment	elbow_flex_l_moment	elbow_flex_r_moment	pro_sup_l_moment	pro_sup_r_moment	
          2.00000000	         -0.00000789	         -0.00002399	         -0.00000856	          0.00000175	          0.00005411	          0.00005695	         -2.63459770	        -11.82408840	          0.89219722	         -4.12999751	          2.37568612	          1.01368972	          5.70937655	          1.38215328	        -21.42681987	         -0.19659169	          5.10040437	          0.39810105	          3.04693442	          0.27530041	         -4.64963196	         37.27554054	          3.98516412	         -1.42279332	          7.34195834	          1.21647584	        -14.53385237	         -8.94883332	          1.14794085	          1.05311676	         -5.08838522	          0.00255679	          0.17685329	
          2.05000000	          0.00000199	         -0.00002183	          0.00000162	         -0.00000606	         -0.00000094	          0.00002314	         11.42201532	         -9.22900677	         -3.33297946	        -12.20511736	          9.04070040	         -0.37094529	          1.50052494	          3.48926503	        -24.47576780	          0.49099778	          4.17455938	         -0.19058686	          3.44578337	         -0.03334201	         -4.50528706	         31.79244633	          5.97030356	         19.54447495	          4.95079220	          2.78184754	         -8.46188445	          3.21837140	          0.64235815	          5.64021156	          1.34416789	          0.04808369	         -0.03906695	
          2.10000000	         -0.00001319	         -0.00000890	         -0.00000139	         -0.00002296	         -0.00004696	          0.00000342	         15.67434251	        -25.54682012	         -2.85568813	        -11.25285896	          9.78129870	         -1.22760805	         -2.67656957	          2.68589350	        -28.13026850	          0.41431827	          4.43216614	         -0.72750809	          3.90308885	         -0.04431171	        -10.01060766	         17.85869669	          9.98045966	         31.08783375	         -4.23468936	         -0.10841065	        -21.85554400	         -7.55402716	         -1.34211650	          8.50291865	         -3.22733164	         -0.09376904	         -0.05208264	
          2.15000000	         -0.00000179	          0.00001599	          0.00001389	          0.00001309	          0.00003446	         -0.00001344	         -5.13888253	        -11.27109212	          2.64684362	         -5.01688424	          8.88857300	          0.11299465	          9.31241930	          2.18946859	        -24.69733598	          0.49208804	          7.74980393	         -0.03163195	          3.00715841	         -0.10056817	         13.81336314	         34.21524954	         -0.67736067	        -24.97500601	        -32.88212983	         -3.65418142	         80.22579789	        -50.38432168	         -7.82190057	         -7.95024687	         35.14274911	         -0.21389994	         -0.87637401	
          2.20000000	          0.00003946	         -0.00002508	          0.00000735	          0.00003373	         -0.00002398	          0.00003662	          2.01350548	        -11.37935935	          1.87764906	         15.38295694	          7.85640764	         -0.06672780	          6.66227936	         -3.04574258	        -22.29097770	          0.72878936	          7.41278182	          0.02124015	          2.19490482	         -0.07827568	        -25.13115235	         24.69310353	         -4.27954872	         -4.51865632	          2.44576323	          0.15438162	         -0.97024296	        -10.27516564	         -1.02408948	          1.31772653	          2.55163661	         -0.07747486	         -0.04903944	
          2.25000000	          0.00008383	          0.00001124	          0.00001797	          0.00007062	         -0.00005944	         -0.00001466	          1.96939469	         -7.08221193	          0.08268275	         18.66637979	         -0.71780487	         -0.86099360	         10.89670784	         -6.88383490	        -28.40976212	          1.09753940	          7.51356591	         -0.27925236	          2.92278471	         -0.07839788	        -32.42259308	         39.36870681	         -6.95393681	        -25.68600759	         -8.91334500	          1.39872930	        -17.27844675	          4.30357195	         -1.93547124	         -7.86382281	         -3.38980697	          0.34697931	          0.02173795	
          2.30000000	          0.00002895	         -0.00001809	         -0.00000291	          0.00004860	         -0.00000084	          0.00003798	         24.99191875	         -5.02514304	         -3.07244225	        -17.84918425	          0.58424593	         -0.21618783	          0.11654393	          3.31476858	        -30.60008293	          0.60474582	          5.05087088	         -0.23471593	          3.77562374	         -0.04672430	         -7.86251640	         31.50304176	          7.29653155	          0.31764138	         -2.86786103	         -0.44267951	        -21.54280071	          4.75894775	         -2.53944456	         -2.31560958	         -4.68634879	          0.08389438	          0.01737458	
          2.35000000	         -0.00000629	         -0.00001508	          0.00000122	         -0.00000314	          0.00003640	          0.00001833	         57.13348290	        -14.89440054	         -0.32492475	        -24.79081971	         -1.27721876	         -0.47798888	        -21.63655148	          4.95983268	        -24.22644416	          0.29799356	          4.49693628	         -0.14506344	          3.96087993	         -0.01950660	        -23.81614022	         11.37263116	         23.81771338	         14.46918550	         -0.20666883	         -5.14441874	          1.50748598	         -9.89313263	         -2.00648322	          4.14916111	          3.74263904	         -0.29241988	         -0.12182189	
          2.40000000	         -0.00000454	          0.00002514	          0.00000373	         -0.00000465	          0.00000343	         -0.00002612	         26.28409646	        -15.47161247	         -0.23677349	          1.08519657	         -2.23699580	         -0.34291313	          0.22831181	          0.90082536	        -35.35205419	          0.62278789	          5.19783897	         -0.29024170	          5.54888338	         -0.02210092	        -27.44798432	         15.82322221	          4.85139619	         -0.06600144	          2.03468794	          0.32705050	          0.92603776	         -1.18519227	          0.39969789	          1.39063102	          1.31313703	         -0.01091418	         -0.01340447	
          2.45000000	          0.00001664	          0.00000290	         -0.00000660	          0.00002684	          0.00001577	         -0.00000111	         24.35832255	        -13.03024537	         -2.19345304	         -2.30986845	         -1.33445555	          0.77721822	          7.08882038	          3.35317124	        -47.57052642	          0.72138872	          4.26030576	         -0.32953102	          6.80244368	         -0.02065805	        -21.84254447	         22.44453650	         -0.73284326	          7.10343815	          1.13557550	         -1.34102702	         -2.32139422	         -0.21730371	          0.00812759	          2.67508319	          1.36635460	         -0.07263905	         -0.03397706	
          2.50000000	         -0.00002121	         -0.00002195	          0.00001162	         -0.00003313	          0.00000332	          0.00003218	         16.51575265	          8.54306700	          0.23846812	          8.61837362	         11.87122887	         -0.47221884	          9.08137230	         -8.72234428	        -39.34225011	          4.85238074	          4.68708022	         -0.09477775	          6.03083105	         -0.00680110	        -21.71912808	         13.42869875	          2.01276386	         -2.64991676	          3.78877816	          2.76467056	         -6.22466362	          3.98431353	          0.18181939	          0.57679659	         -0.04769785	          0.12264634	         -0.01650157	
          2.55000000	         -0.00000680	          0.00000863	         -0.00000020	         -0.00000658	         -0.00000561	         -0.00002914	        -50.00904675	         13.22538009	          0.33247296	         73.32988796	         10.89890525	         -2.93920797	         49.73718371	        -35.63875460	        -44.45165773	          9.18528717	          4.20972559	          1.12778719	          7.15382570	         -0.00975301	        -24.46052333	         -4.87550066	        -26.53419517	          1.26117044	          4.47304614	          2.32485727	        -24.38773347	          7.68606084	         -2.39119387	          2.39716504	         -5.64810691	          0.06215602	          0.03745943	
          2.60000000	          0.00000501	          0.00000249	         -0.00000231	          0.00000243	          0.00000485	          0.00000276	          7.24788604	         22.93979246	          1.14850017	         16.84649091	         -2.91825085	         -0.42402726	         19.48177685	        -16.04926990	        -52.48334271	          6.48492809	          5.09257500	          0.43311279	          9.58486881	         -0.04072211	        -21.03639002	         17.59278871	         -7.69443998	          4.03294485	         -4.04956754	         -1.92223358	         12.68672557	         -2.95381425	          2.39882277	          1.37137570	          5.59114522	         -0.17333313	         -0.05217196	
          2.65000000	         -0.00003127	          0.00000529	          0.00001276	         -0.00003842	         -0.00000233	         -0.00001312	          3.54604860	         18.15274729	          2.31624351	         21.41128894	         -9.94358658	          4.03611694	         15.23076642	        -21.14163017	        -36.40697205	         -4.15974384	          3.48203032	          6.17363490	          8.70286772	          0.46316365	        -32.14985842	         -6.74745458	         -9.86774940	         -9.02019369	         -3.64323566	          1.32194216	         -2.73319494	         -3.26017382	         -1.16684657	         -0.61709618	          2.24366997	          0.04772257	         -0.07135528	
          2.70000000	          0.00000478	         -0.00000854	         -0.00000692	          0.00000914	          0.00000081	          0.00000811	        -42.11522502	         27.91614162	          8.38543841	         44.72379671	         -4.92931749	          5.53309994	         45.46143417	        -26.71390564	        -41.43349489	        -12.71488320	          7.36574751	         10.60828866	         11.78883181	          1.79886040	        -11.77423502	        -13.08319075	        -23.28661205	          8.85177154	         -5.34601645	         -2.21992133	         -7.62928172	         -0.76511933	         -1.61319197	         -0.83285887	          0.81080747	         -0.12352792	         -0.03898001	
          2.75000000	         -0.00001527	         -0.00000885	         -0.00000321	         -0.00001213	          0.00003743	          0.00001991	          8.25844771	         13.98636985	          3.90696095	        -17.73652650	         -2.49544001	          5.90414810	          9.71058478	          5.20692338	        -23.30815550	        -18.94105856	          4.36503940	          8.01826492	          6.95140897	          2.24515702	          8.04786833	        -15.65557412	          6.19338108	        -11.45354339	         21.49501367	          1.06130659	         31.19365128	          9.88536788	         12.86536472	          8.34968030	          6.03463072	         -0.09736049	          0.28503256	
          2.80000000	          0.00001804	          0.00002070	          0.00000708	          0.00004104	          0.00000431	         -0.00003198	          9.10782535	          4.32600796	         -0.78374347	         -9.19058462	        -10.83454856	          2.25522922	         -3.75695525	          4.06896018	          0.82740266	        -20.78764441	         -0.11574623	          4.25801049	         -0.05066415	          2.46596980	         -4.19848292	        -12.78401354	          0.08999482	        -25.39102236	         -0.56837651	          3.11242636	         -1.95471116	         -4.68075867	         -0.99942169	         -4.00507589	          1.06454926	          0.25191512	          0.05348624	
          2.85000000	          0.00001031	          0.00000377	          0.00000118	          0.00001791	          0.00002749	         -0.00001368	        -10.56379651	          3.67458640	         -0.45470677	         25.88378353	         -7.59679411	         -1.37533896	         -0.12504759	         -2.39949397	          0.46752007	        -37.54997174	         -0.03968781	          5.39790526	         -0.03953923	          5.12569967	         -8.82602989	        -19.11228614	         -9.30067314	         35.15886523	        -44.35537450	         -9.92891777	        -24.46370532	        -51.47351525	        -11.72165270	         11.92040168	        -10.78617387	         -0.45105904	         -0.38044761	
          2.90000000	          0.00001153	         -0.00000075	          0.00000239	          0.00000917	         -0.00000254	          0.00000645	         -9.57681620	         -0.36232701	          0.32701547	         30.87899562	        -10.91808423	         -3.76888205	          1.03168118	         -1.43113910	          0.32116527	        -41.57546279	         -0.04559268	          2.37617144	         -0.02917015	          6.60631388	        -11.60456768	        -12.74420919	         -4.99954679	         10.86080779	         -2.56970692	          2.14362050	         25.35177108	          5.24990939	         -3.94634687	          4.51469390	          5.97429605	         -0.02319408	         -0.39385725	
          2.95000000	          0.00001183	          0.00001271	         -0.00000677	          0.00001456	         -0.00000953	         -0.00002908	         -0.82398037	          6.64001923	         -0.71619311	         19.99618250	          8.19097635	         -0.87055645	         -2.06994037	         11.50640226	          1.25566261	        -40.38554811	          0.11288182	          3.28857263	         -0.37060303	          7.16441352	        -16.29710097	        -20.84775607	         -1.83087343	         11.24369779	          1.70106015	          1.98848277	          2.28830646	         -5.04912086	         -0.39433288	          4.47028626	         -1.11313735	         -0.05907615	          0.04789449	
