Coordinates
version=1
nRows=21
nColumns=114
inDegrees=yes

Units are S.I. units (second, meters, Newtons, ...)
If the header above contains a line with 'inDegrees', this indicates whether rotational values are in degrees (yes) or radians (no).

endheader 
time	pelvis_tilt	pelvis_list	pelvis_rotation	pelvis_tx	pelvis_ty	pelvis_tz	hip_flexion_l	hip_adduction_l	hip_rotation_l	hip_flexion_r	hip_adduction_r	hip_rotation_r	knee_angle_l	knee_angle_r	ankle_angle_l	ankle_angle_r	subtalar_angle_l	subtalar_angle_r	mtp_angle_l	mtp_angle_r	lumbar_extension	lumbar_bending	lumbar_rotation	arm_flex_l	arm_add_l	arm_rot_l	arm_flex_r	arm_add_r	arm_rot_r	elbow_flex_l	elbow_flex_r	pro_sup_l	pro_sup_r	addbrev_l/activation	addlong_l/activation	addmagDist_l/activation	addmagIsch_l/activation	addmagMid_l/activation	addmagProx_l/activation	bflh_l/activation	bfsh_l/activation	edl_l/activation	ehl_l/activation	fdl_l/activation	fhl_l/activation	gaslat_l/activation	gasmed_l/activation	glmax1_l/activation	glmax2_l/activation	glmax3_l/activation	glmed1_l/activation	glmed2_l/activation	glmed3_l/activation	glmin1_l/activation	glmin2_l/activation	glmin3_l/activation	grac_l/activation	iliacus_l/activation	perbrev_l/activation	perlong_l/activation	piri_l/activation	psoas_l/activation	recfem_l/activation	sart_l/activation	semimem_l/activation	semiten_l/activation	soleus_l/activation	tfl_l/activation	tibant_l/activation	tibpost_l/activation	vasint_l/activation	vaslat_l/activation	vasmed_l/activation	addbrev_r/activation	addlong_r/activation	addmagDist_r/activation	addmagIsch_r/activation	addmagMid_r/activation	addmagProx_r/activation	bflh_r/activation	bfsh_r/activation	edl_r/activation	ehl_r/activation	fdl_r/activation	fhl_r/activation	gaslat_r/activation	gasmed_r/activation	glmax1_r/activation	glmax2_r/activation	glmax3_r/activation	glmed1_r/activation	glmed2_r/activation	glmed3_r/activation	glmin1_r/activation	glmin2_r/activation	glmin3_r/activation	grac_r/activation	iliacus_r/activation	perbrev_r/activation	perlong_r/activation	piri_r/activation	psoas_r/activation	recfem_r/activation	sart_r/activation	semimem_r/activation	semiten_r/activation	soleus_r/activation	tfl_r/activation	tibant_r/activation	tibpost_r/activation	vasint_r/activation	vaslat_r/activation	vasmed_r/activation	
          4.00000000	        -16.67103997	        -17.64066979	         29.46740156	          3.16385007	          0.77728412	         -0.11711966	         -2.37785189	        -25.90195814	         -0.18447704	         15.22442702	         15.92127271	        -22.59173106	          3.80430509	         12.04611649	          6.40539435	         18.35434583	          7.81743580	        -14.76726919	        -44.99527483	          2.10930104	         22.46318289	         33.18253579	         18.79695337	         18.02412562	          3.64686312	         22.39674866	        -41.03144919	         10.65635739	        -51.89150882	         -0.69735813	         78.79982660	        120.29765793	        101.16822572	          0.01358567	          0.01275610	          0.01355460	          0.01353991	          0.01257884	          0.01238801	          0.01280697	          0.01838322	          0.13980693	          0.07725613	          0.01442336	          0.01272863	          0.01176890	          0.01122968	          0.11279865	          0.03629009	          0.01160114	          0.30585118	          0.22234368	          0.08533850	          0.13263519	          0.04266995	          0.02061493	          0.01405875	          0.01564519	          0.03927818	          0.05018291	          0.01575420	          0.01392802	          0.01294809	          0.02151945	          0.15261188	          0.01378507	          0.01050811	          0.04677575	          0.24742477	          0.01179769	          0.04692045	          0.07647110	          0.05432854	          0.01420882	          0.01405737	          0.01382662	          0.01348120	          0.01569091	          0.01588285	          0.01221808	          0.02248038	          0.01582208	          0.03541210	          0.07123315	          0.10758961	          0.10968786	          0.08767750	          0.01434907	          0.01315832	          0.01250836	          0.04925735	          0.03877199	          0.03935445	          0.03198722	          0.03450682	          0.03207137	          0.01492162	          0.07152753	          0.01400839	          0.01240783	          0.07096364	          0.06800396	          0.36263575	          0.04975376	          0.01129642	          0.01358898	          0.17740379	          0.17648747	          0.13492199	          0.40184131	          0.02616858	          0.02241371	          0.02455193	
          4.05000000	        -16.37758090	        -13.45962923	         27.60880009	          3.16273282	          0.78592242	         -0.10921948	         -2.48140065	        -22.57401726	         -1.32196176	         12.08858185	         12.98779479	        -20.58933272	          6.48076830	         11.07090849	         -0.68438830	         19.99343040	          3.69156498	        -11.15579840	        -26.76648174	         -5.78951740	         20.10021827	         26.76125517	         13.68451949	         13.16789686	          0.83674002	         21.18412728	        -36.28197652	          7.84551536	        -49.85364099	         -0.48410411	         78.12444711	        118.86818019	        102.45766606	          0.01247802	          0.01151557	          0.01343291	          0.04838963	          0.01236054	          0.01180547	          0.01516710	          0.02093664	          0.02505792	          0.01663577	          0.03868059	          0.05182617	          0.04447465	          0.04501362	          0.05636018	          0.04146384	          0.01227185	          0.39584218	          0.12401516	          0.03847534	          0.18460055	          0.04688703	          0.01918742	          0.01342788	          0.01404209	          0.01532332	          0.01426576	          0.01536936	          0.01238354	          0.01237408	          0.01546420	          0.21012800	          0.04793467	          0.08090379	          0.04526762	          0.04313779	          0.09977468	          0.02325050	          0.02270231	          0.02293569	          0.01356228	          0.01311561	          0.01278639	          0.01249187	          0.01430840	          0.01805167	          0.01182981	          0.01874356	          0.01405365	          0.01728402	          0.10991120	          0.18184211	          0.07197697	          0.03509621	          0.01371745	          0.01224108	          0.01160024	          0.07056327	          0.05576510	          0.05796607	          0.04186385	          0.04909527	          0.03896968	          0.01409919	          0.10185353	          0.01227147	          0.01095727	          0.06933307	          0.07860254	          0.28813325	          0.06651360	          0.01151328	          0.01240587	          0.06416680	          0.10621530	          0.15153737	          0.32013373	          0.03134175	          0.03440303	          0.03238764	
          4.10000000	        -16.29925538	         -7.06315850	         24.48046191	          3.16487118	          0.80128111	         -0.09734112	         -2.12180776	        -16.12825678	         -3.10694325	          7.50140325	          7.93029062	        -18.85793277	         11.85914256	          8.88148970	         -7.64765421	         22.21341930	         -1.89260314	         -4.28200317	        -17.50600891	         -6.92451049	         15.74108780	         18.10959760	          9.83664336	          7.71108455	         -2.34356842	         18.15243061	        -28.76738962	          3.70290363	        -45.70155382	         -0.23907539	         75.98494150	        116.04377094	        105.18766009	          0.35174706	          0.70234795	          0.20307107	          0.04950624	          0.32544521	          0.29917066	          0.01361899	          0.02266281	          0.01401958	          0.02501706	          0.04357752	          0.05835424	          0.02867945	          0.02220409	          0.01084229	          0.01042572	          0.02103515	          0.06614007	          0.02092010	          0.01060322	          0.03146498	          0.01260305	          0.01339622	          0.14503000	          0.26048686	          0.01445848	          0.01335976	          0.01343028	          0.31751489	          0.28918988	          0.02602266	          0.03540288	          0.01487094	          0.01837665	          0.01296351	          0.10685601	          0.09895100	          0.01294804	          0.01106090	          0.01238739	          0.01548731	          0.01396261	          0.05498489	          0.08131472	          0.02527289	          0.01600048	          0.13820872	          0.02353915	          0.10641148	          0.09118805	          0.02171376	          0.04284258	          0.01288983	          0.01091140	          0.10079747	          0.18939458	          0.08078716	          0.03159293	          0.01478997	          0.01371504	          0.02087251	          0.01577237	          0.01517282	          0.02194908	          0.01953335	          0.01227022	          0.01097993	          0.01411974	          0.01544564	          0.04848007	          0.01477221	          0.26497229	          0.11186852	          0.01091771	          0.01958809	          0.36389996	          0.16261098	          0.02324956	          0.02248284	          0.02417643	
          4.15000000	        -16.98069016	          0.18384797	         20.69677993	          3.17151434	          0.81559209	         -0.08383265	          0.52978966	         -8.63406270	         -4.74990162	          3.75907990	          1.43605855	        -16.96392534	         19.02818648	          6.40222089	         -9.73196945	         23.06778650	         -6.46822524	          1.99757517	         -9.60524551	         -5.92158694	         12.98840933	          7.95688378	          7.36987884	         -0.40959575	         -4.98769942	         14.28315236	        -22.58015704	          1.22692324	        -39.71824715	         -1.39336011	         73.05425324	        112.87476145	        108.38080516	          0.06094237	          0.11769407	          0.03689304	          0.02096510	          0.05661101	          0.05224251	          0.02180371	          0.02163933	          0.12689749	          0.05085168	          0.01478910	          0.01335625	          0.01191397	          0.01111122	          0.01881601	          0.01545641	          0.03005771	          0.01336651	          0.01332246	          0.01687609	          0.01796916	          0.01958321	          0.01937077	          0.02734433	          0.04582876	          0.03611728	          0.05761496	          0.02049377	          0.06183047	          0.05044913	          0.01730306	          0.01612758	          0.01877235	          0.01043689	          0.01525411	          0.18760000	          0.01698909	          0.03408079	          0.03549291	          0.03278419	          0.01089218	          0.01049887	          0.01114664	          0.01391381	          0.01104191	          0.01201831	          0.02321142	          0.02274758	          0.15441172	          0.17094331	          0.14376058	          0.03189822	          0.01134907	          0.01071931	          0.02352460	          0.03214355	          0.01368399	          0.30468123	          0.22256548	          0.20440697	          0.12257813	          0.12526256	          0.08939819	          0.01266256	          0.06668895	          0.01116665	          0.01054100	          0.13813156	          0.01449152	          0.71614786	          0.08915396	          0.04427852	          0.01906136	          0.01024283	          0.44978709	          0.53042212	          0.25081495	          0.01214036	          0.01064325	          0.01158677	
          4.20000000	        -17.83577303	          5.88350936	         17.40472165	          3.17705621	          0.82191559	         -0.07372400	          4.25037693	         -2.38541332	         -6.60582780	          1.78707648	         -4.06902691	        -15.73345031	         22.90928708	          4.07857333	         -6.65040539	         22.70500427	         -8.90984132	          6.18410444	         -4.36709047	         -5.97462150	         12.55576523	         -0.04376027	          4.82973516	         -9.30476067	         -6.19546679	         11.60979044	        -18.92841405	         -0.07844300	        -34.13895361	         -3.26844361	         71.25513590	        109.96953924	        110.94553251	          0.03439811	          0.02172366	          0.04707173	          0.04816659	          0.02608054	          0.02398263	          0.04557775	          0.01688857	          0.16506428	          0.07970214	          0.01404790	          0.01237066	          0.01087897	          0.01047476	          0.02873031	          0.03420212	          0.04066059	          0.03443749	          0.02649194	          0.02098065	          0.01964459	          0.01665550	          0.01586104	          0.02215391	          0.03605060	          0.06699958	          0.10125690	          0.01276833	          0.01576787	          0.01331270	          0.02522515	          0.05126015	          0.05770363	          0.01025485	          0.02706092	          0.29356728	          0.01135577	          0.03287078	          0.03852421	          0.03469249	          0.01219171	          0.01175975	          0.01062895	          0.01042145	          0.01101748	          0.01452890	          0.01021178	          0.02356431	          0.02883117	          0.05456687	          0.08157517	          0.24547956	          0.01240176	          0.01128358	          0.01134426	          0.01040540	          0.01029965	          0.05170670	          0.05186652	          0.13488557	          0.04212969	          0.14501789	          0.13559071	          0.01291468	          0.32737743	          0.01160478	          0.01082785	          0.14219232	          0.40284648	          0.63085386	          0.30402443	          0.01013763	          0.01042654	          0.01052959	          0.17843519	          0.34860778	          0.34952318	          0.02410203	          0.02225556	          0.02398655	
          4.25000000	        -18.58256818	          8.12430707	         14.93299319	          3.17677658	          0.82440343	         -0.06686057	          7.28860213	          0.75622993	         -8.81171184	          1.91903781	         -6.37795924	        -15.66646310	         20.47729501	          3.01501669	         -0.17904535	         22.44555386	         -8.49591332	          9.74518178	         -1.88408266	         -6.59936463	         13.07878879	         -3.37350180	         -0.49389493	        -16.81549546	         -4.61878052	          8.26504500	        -13.93637102	         -2.17894370	        -25.44277667	         -1.77369137	         70.39822682	        105.87607748	        112.36862168	          0.01749798	          0.02491024	          0.01234913	          0.01179646	          0.01363033	          0.01811688	          0.01115026	          0.04543510	          0.28942083	          0.07704570	          0.01407279	          0.01228065	          0.01064201	          0.01034593	          0.01213445	          0.01114742	          0.01086824	          0.03509612	          0.02322819	          0.02007757	          0.04887854	          0.05054443	          0.04591635	          0.01850548	          0.06652904	          0.07090977	          0.07055756	          0.04455931	          0.08864295	          0.08646945	          0.06169889	          0.01114119	          0.01269369	          0.01014658	          0.08778256	          0.43045090	          0.01166346	          0.01148914	          0.01044556	          0.01099701	          0.01246330	          0.01128640	          0.01238624	          0.01230892	          0.01250029	          0.01386062	          0.01192046	          0.02504834	          0.05320115	          0.06686089	          0.05228019	          0.04275557	          0.01219170	          0.01121749	          0.08281353	          0.03826707	          0.01227169	          0.17798612	          0.25851334	          0.33086073	          0.05380773	          0.12012002	          0.15357507	          0.01385219	          0.05614129	          0.01180629	          0.01091935	          0.08613621	          0.06826779	          0.10604330	          0.05360345	          0.01115283	          0.01296261	          0.01043573	          0.11077369	          0.35798722	          0.35808953	          0.01912305	          0.01598973	          0.01849705	
          4.30000000	        -19.11198849	          8.85251476	         13.27761431	          3.17831717	          0.82470723	         -0.06044065	          9.99523136	          2.26639747	        -10.10338763	          2.91700505	         -7.12472602	        -15.09412521	         15.93889246	          3.82895878	          7.83403458	         23.02723475	         -5.79874971	         11.49600937	         -0.93655242	         -6.76621612	         14.11678116	         -5.20698670	        -11.57266767	        -35.22675983	          2.74201581	         -7.80944316	          1.59446361	         -4.36830242	          3.14009914	         13.94552030	         56.70000854	         95.41410369	        110.46208207	          0.02541119	          0.02696324	          0.03325058	          0.03232965	          0.03074949	          0.02646929	          0.03963021	          0.01947277	          0.32190885	          0.27586933	          0.01386277	          0.01160387	          0.01028828	          0.01016400	          0.03002167	          0.03138605	          0.03530976	          0.01707909	          0.02122737	          0.02313780	          0.01714224	          0.01691849	          0.01778356	          0.02425287	          0.01510467	          0.10865921	          0.09845401	          0.01824505	          0.01821839	          0.01748973	          0.01579742	          0.03994922	          0.03360973	          0.01007819	          0.01777598	          0.69078686	          0.01119585	          0.02775130	          0.02646044	          0.02688872	          0.01327037	          0.01308768	          0.01160137	          0.01134071	          0.01226143	          0.01403302	          0.01062748	          0.01993975	          0.09570801	          0.21578300	          0.20286665	          0.27405777	          0.01073431	          0.01045449	          0.01533661	          0.01131538	          0.01076737	          0.08012057	          0.04596655	          0.05738143	          0.07163155	          0.09147935	          0.07059575	          0.01377229	          0.15486204	          0.01103651	          0.01050674	          0.05256172	          0.14760990	          0.56222096	          0.13460481	          0.01045187	          0.01149686	          0.01016304	          0.26318652	          0.61514486	          0.40982567	          0.02484621	          0.02104633	          0.02287228	
          4.35000000	        -19.29056903	         10.03805217	         12.17816692	          3.18317588	          0.82035491	         -0.05535800	         12.49221952	          4.35888874	        -11.08015492	          3.24375982	         -8.16306151	        -13.23735489	         11.91623224	          5.21547406	         15.15769344	         25.67534771	         -1.69469399	         11.13359665	         -0.56312989	         -6.60869088	         15.07925170	         -7.99634233	        -20.64644730	        -53.86278923	         10.97515262	        -28.30691808	         18.40388521	         -4.43541613	         36.83452990	         35.18752058	         35.58510417	         87.27284627	        103.76476609	          0.01980003	          0.01720235	          0.01915556	          0.01768674	          0.02102200	          0.02269803	          0.01543092	          0.02111420	          0.63934166	          0.06440006	          0.01391500	          0.01144398	          0.01029565	          0.01018939	          0.02623052	          0.02455535	          0.01859033	          0.02340733	          0.02728695	          0.03174561	          0.02241879	          0.02474554	          0.02698438	          0.01858383	          0.02529874	          0.13060433	          0.03355278	          0.04170158	          0.03042306	          0.05653745	          0.02712165	          0.01320292	          0.01627303	          0.01008210	          0.03194444	          0.86562773	          0.01104816	          0.02487655	          0.02979989	          0.02667697	          0.01230032	          0.01153004	          0.01116538	          0.01104164	          0.01147643	          0.01338970	          0.01058533	          0.02135650	          0.38828941	          0.05975368	          0.19609187	          0.05734055	          0.01025609	          0.01016777	          0.01372500	          0.01196467	          0.01072937	          0.21328294	          0.21470781	          0.25192268	          0.10075718	          0.16528096	          0.17711791	          0.01335071	          0.10408630	          0.01056719	          0.01028579	          0.12477678	          0.07601413	          0.53987886	          0.14963170	          0.01040236	          0.01125587	          0.01006244	          0.27466454	          0.86255726	          0.44375009	          0.02392871	          0.02429599	          0.02405099	
          4.40000000	        -19.01409214	         11.58540813	         10.78857506	          3.19125574	          0.81756250	         -0.05294472	         13.79817739	          7.39987047	        -13.87324840	          2.42366451	         -9.54868942	        -11.95340087	          7.17179885	          5.77699650	         19.71647992	         28.20251769	          4.14764688	         10.61952782	         -0.39805957	         -5.67182394	         15.44762956	        -10.97980256	        -21.33478389	        -55.89947387	         12.19951745	        -35.46791669	         20.90452382	         -3.32465350	         46.36963769	         41.70193098	         27.77299605	         88.00887706	         98.12067146	          0.01448672	          0.01372885	          0.02246393	          0.01933618	          0.01856333	          0.01776961	          0.02010465	          0.01706699	          0.78513246	          0.66278279	          0.01385609	          0.01096643	          0.01023605	          0.01016035	          0.04046968	          0.03289079	          0.03558757	          0.01441771	          0.02742025	          0.04639956	          0.01495040	          0.01913383	          0.02692767	          0.01584993	          0.01493229	          0.03812752	          0.01268142	          0.02267994	          0.01441782	          0.01538628	          0.01609542	          0.01406995	          0.01585660	          0.01006772	          0.01669453	          0.98789704	          0.01136147	          0.04531981	          0.07415972	          0.05122137	          0.01277323	          0.01186661	          0.01107261	          0.01084529	          0.01155164	          0.01399907	          0.01052804	          0.01708855	          0.78427362	          0.78880539	          0.19977152	          0.01341689	          0.01010682	          0.01007295	          0.01300280	          0.01155390	          0.01075002	          0.03694150	          0.15129810	          0.26542004	          0.02048598	          0.13438610	          0.14738055	          0.01360074	          0.11746605	          0.01027832	          0.01013979	          0.15658689	          0.17074375	          0.53618211	          0.18843313	          0.01033075	          0.01100916	          0.01002912	          0.23811867	          0.99931322	          0.34340160	          0.03358146	          0.04137087	          0.03586384	
          4.45000000	        -17.92829858	         13.00619854	          8.89087849	          3.20513131	          0.81727528	         -0.05262481	         13.39962142	         10.27637801	        -17.55763650	          0.74853784	        -10.84348059	        -11.95944093	          2.87103583	          6.42353026	         20.54193541	         27.96087903	          9.54496375	          9.30685664	         -0.32653850	         -5.14388605	         15.20514388	        -13.31549909	        -19.60434212	        -51.05300448	          9.54938608	        -35.44933559	         16.91756774	         -3.00303295	         42.25945289	         39.85187236	         28.37688306	         89.74076702	         96.34331463	          0.17156833	          0.26187102	          0.03196492	          0.01270953	          0.07474517	          0.10531047	          0.01194340	          0.01750479	          0.90696038	          0.79585213	          0.22147605	          0.01147180	          0.01009068	          0.01005960	          0.01288248	          0.01150059	          0.01311665	          0.01120457	          0.01306284	          0.02919801	          0.01280994	          0.01368159	          0.01483331	          0.05523479	          0.04984089	          0.01023835	          0.01011979	          0.19845832	          0.24077063	          0.22048951	          0.05744072	          0.01102371	          0.01251619	          0.01002401	          0.01393396	          0.99986619	          0.25859460	          0.06062840	          0.13306156	          0.08074764	          0.01276304	          0.01179345	          0.01211157	          0.01151694	          0.01252502	          0.06743344	          0.01286694	          0.02907792	          0.15533642	          0.13367972	          0.10821963	          0.09829897	          0.01048796	          0.01030500	          0.14854403	          0.07094157	          0.01600193	          0.01123166	          0.06758646	          0.45497486	          0.01318473	          0.05703438	          0.17485469	          0.01419455	          0.02221050	          0.01112332	          0.01054108	          0.13713970	          0.09467887	          0.38689118	          0.14729131	          0.01080576	          0.01245782	          0.01012265	          0.04262948	          0.44400880	          0.05801957	          0.01662421	          0.01245547	          0.01526195	
          4.50000000	        -16.61937549	         12.95164101	          6.96121480	          3.22253678	          0.81459273	         -0.05483573	         11.52501858	         10.98413507	        -19.36189484	         -0.59880172	        -10.70184557	        -12.11735966	          0.82199703	          8.00878482	         19.21942506	         26.09997524	         12.13576838	          7.00946838	         -0.28901471	         -6.80627697	         14.89338467	        -13.69657571	        -18.17061331	        -47.79122698	          7.74285506	        -35.47853158	         14.46655023	         -3.35609338	         39.10549278	         39.44109888	         29.23346819	         90.40619879	         95.63952583	          0.30230898	          0.40201569	          0.19165096	          0.10908238	          0.13748396	          0.13370891	          0.19442310	          0.01523241	          0.47466239	          0.37356687	          0.08700776	          0.01459196	          0.01026293	          0.01017304	          0.06455114	          0.01388438	          0.29879668	          0.01152161	          0.01407255	          0.04287844	          0.01317317	          0.01389761	          0.01510723	          0.11619495	          0.01478592	          0.01072131	          0.01035410	          0.05316665	          0.06641988	          0.03740979	          0.01693992	          0.01383259	          0.04113735	          0.01006587	          0.01306246	          0.89046482	          0.22788469	          0.03522049	          0.05223048	          0.03841046	          0.22202328	          0.37344006	          0.02593845	          0.01198827	          0.20230293	          0.47136217	          0.01638119	          0.02784503	          0.02671343	          0.02456146	          0.02187053	          0.10397906	          0.06665154	          0.02358780	          0.02663162	          0.01341624	          0.13542860	          0.01033038	          0.01331986	          0.08029693	          0.01081371	          0.01464992	          0.08591770	          0.17055425	          0.01335426	          0.01347984	          0.01215091	          0.12694984	          0.14313410	          0.56312732	          0.07626925	          0.01087722	          0.01322057	          0.03311007	          0.01325988	          0.07533593	          0.68033713	          0.01240863	          0.01083208	          0.01174700	
          4.55000000	        -16.38502459	         11.43689990	          5.74574894	          3.24387713	          0.81148099	         -0.05965262	          9.64202018	          9.92409955	        -18.97848903	         -1.12343672	         -9.03156009	        -11.50860542	          1.29569462	          9.12936631	         17.42552994	         23.67085954	         11.91249090	          4.49314016	         -0.28484492	         -9.01085662	         15.65866591	        -12.66122734	        -16.78284263	        -48.66311011	          7.39689154	        -36.19733063	         12.01321216	         -4.31532574	         37.93701107	         40.67724166	         30.94513866	         90.93906062	         95.05621219	          0.25558680	          0.33426961	          0.17192993	          0.11088612	          0.15461932	          0.15332694	          0.40869581	          0.09321361	          0.08268291	          0.06798814	          0.05480652	          0.08668656	          0.01213005	          0.01117710	          0.05071189	          0.01880782	          0.21150215	          0.01162816	          0.01414691	          0.02795513	          0.01306799	          0.01397072	          0.01491703	          0.17044396	          0.01394364	          0.01277681	          0.01142855	          0.06595221	          0.05287307	          0.01043151	          0.02326080	          0.61628810	          0.26370667	          0.01032368	          0.01240895	          0.51477584	          0.18227569	          0.01138303	          0.01046492	          0.01094217	          0.59361612	          0.99926878	          0.01370598	          0.01206795	          0.21550402	          0.21873603	          0.01028183	          0.01738504	          0.01299800	          0.02826894	          0.27955073	          0.45190332	          0.01363660	          0.01149210	          0.01038299	          0.01023502	          0.02270012	          0.01148954	          0.01065974	          0.01355760	          0.02386987	          0.01382205	          0.01514578	          0.11170926	          0.69300821	          0.01091184	          0.01041913	          0.02171376	          0.71237837	          0.67693435	          0.18209226	          0.01021332	          0.01086255	          0.01066672	          0.24626795	          0.42674648	          0.50010171	          0.04996001	          0.07802536	          0.05561595	
          4.60000000	        -17.32193389	          9.66635981	          5.20925811	          3.26570688	          0.80836185	         -0.06688468	          9.41917683	          8.73995691	        -17.09274006	         -0.83912764	         -7.08955630	        -10.34359800	          2.88672324	          9.56953785	         15.93255876	         20.43888400	          9.56519580	          0.49582569	         -0.77524823	        -10.81203486	         17.01110236	        -11.24585215	        -16.20851422	        -49.23437810	          7.54386394	        -37.35550115	          8.18865695	         -6.04127791	         37.08288343	         44.84102181	         33.52775358	         92.15335938	         93.77945531	          0.10093138	          0.18991245	          0.03025734	          0.02030126	          0.03088592	          0.02877293	          0.06831463	          0.01988816	          0.08832013	          0.11576201	          0.07707373	          0.05206531	          0.01161018	          0.01092232	          0.01210262	          0.01139645	          0.03565432	          0.01801940	          0.01305299	          0.01165460	          0.03275015	          0.01787990	          0.01396157	          0.03122710	          0.07306043	          0.01308014	          0.01153156	          0.01216047	          0.06077741	          0.02495412	          0.02177752	          0.10284380	          0.04461599	          0.01033839	          0.06039525	          0.46795441	          0.25258317	          0.04770538	          0.07253147	          0.05218772	          0.10169351	          0.16972789	          0.01496725	          0.01292639	          0.05912849	          0.10756199	          0.01200404	          0.02164662	          0.01489436	          0.01963179	          0.04877366	          0.07725708	          0.10677612	          0.01471568	          0.01264868	          0.01117310	          0.01150516	          0.01134540	          0.01306885	          0.01315799	          0.01347862	          0.01563219	          0.02641577	          0.05426677	          0.11697441	          0.01446753	          0.01337932	          0.06441596	          0.12086873	          0.19798561	          0.03868500	          0.01178969	          0.01252817	          0.08866464	          0.04349117	          0.07334854	          0.16596943	          0.02325254	          0.02306895	          0.02337098	
          4.65000000	        -18.58243464	          8.33526701	          4.80797594	          3.28766570	          0.80550334	         -0.07596487	         10.01955800	          7.92786465	        -14.74204290	         -0.28582479	         -5.61543848	         -8.99593534	          4.24999157	         10.55815813	         15.23935380	         16.11538153	          6.61797864	         -5.55320511	         -2.25793481	        -13.60402561	         18.03057798	         -9.71567769	        -16.23825646	        -47.59371419	          7.53954355	        -38.63519036	          1.62512043	         -8.40715954	         34.52115431	         51.03980457	         36.00388256	         94.90344456	         91.76119435	          0.19997860	          0.45184146	          0.01293045	          0.01172593	          0.01675599	          0.09971142	          0.01163562	          0.01910870	          0.01858925	          0.05949976	          0.10481647	          0.18441680	          0.01294119	          0.01150404	          0.01172445	          0.01068435	          0.01073402	          0.01246716	          0.01336788	          0.01329208	          0.01502174	          0.01572638	          0.01615943	          0.01919341	          0.32688232	          0.01284417	          0.01131284	          0.02520004	          0.46448373	          0.64100506	          0.13893313	          0.01725048	          0.01139501	          0.01053464	          0.16436368	          0.42845501	          0.30600551	          0.03546226	          0.05988659	          0.04081351	          0.01951684	          0.02972607	          0.07803336	          0.15330238	          0.01997776	          0.02000715	          0.20021962	          0.02089409	          0.01532270	          0.01953106	          0.05180156	          0.08064728	          0.02403564	          0.16631310	          0.02339976	          0.08989926	          0.06438380	          0.25263824	          0.02692310	          0.01352756	          0.09463710	          0.01914490	          0.01436463	          0.01517096	          0.02227334	          0.01475649	          0.01391818	          0.01252883	          0.02190090	          0.03322534	          0.01505900	          0.57178686	          0.15944382	          0.13788225	          0.01598972	          0.05706955	          0.13267818	          0.02049903	          0.01482808	          0.01893434	
          4.70000000	        -19.64916397	          6.51798610	          4.81158711	          3.31427693	          0.80433850	         -0.08594533	          9.56127312	          6.79263162	        -12.67521173	         -0.19388021	         -3.50063101	         -7.89597838	          4.44367765	         11.91789360	         15.54272335	          9.65995828	          5.19849879	        -12.58601275	         -3.79384039	        -17.15562548	         18.80037403	         -7.50405967	        -14.78247478	        -46.56500642	          7.01151014	        -38.92909154	         -9.30738100	        -11.01810024	         28.49572796	         56.12570353	         38.37850495	         99.85527541	         89.94650110	          0.19068709	          0.38160066	          0.01301486	          0.01147000	          0.01655538	          0.10097112	          0.01041918	          0.01655372	          0.01729283	          0.07158354	          0.09415927	          0.13025753	          0.01269141	          0.01124898	          0.01120710	          0.01049138	          0.01075019	          0.01179915	          0.01271279	          0.01278210	          0.01462675	          0.01528006	          0.01571684	          0.02235361	          0.29575953	          0.01248137	          0.01110966	          0.02889505	          0.37941451	          0.42895807	          0.12806158	          0.01033177	          0.01099617	          0.01055850	          0.12990900	          0.39473745	          0.29026465	          0.04877645	          0.07192206	          0.05601394	          0.01779238	          0.01415750	          0.16086226	          0.25674282	          0.08939330	          0.01452600	          0.25170214	          0.03017344	          0.01596760	          0.02379587	          0.04245141	          0.06698196	          0.15253176	          0.09658353	          0.01389346	          0.04343917	          0.06988858	          0.27586987	          0.01377222	          0.01201827	          0.09292738	          0.01459146	          0.01333466	          0.02592492	          0.01391932	          0.01581912	          0.01441793	          0.01107700	          0.01284936	          0.01085951	          0.01412117	          0.47264491	          0.28876068	          0.17375063	          0.01347417	          0.06893577	          0.15100641	          0.01332380	          0.01125313	          0.01262152	
          4.75000000	        -20.06594899	          2.80220926	          5.79847071	          3.34521387	          0.80345227	         -0.09746465	          7.33493447	          3.68785432	        -10.67038228	         -1.04843177	          0.49119895	         -8.35087925	          3.16931060	         12.49290446	         16.77009392	          2.51617414	          6.27140452	        -17.48202704	         -5.00889371	        -17.38124070	         19.22058192	         -3.30277882	        -11.89657382	        -44.15021794	          4.62899027	        -35.78316602	        -20.71181039	        -12.01353832	         16.58240375	         59.77910243	         42.14995321	        105.90206210	         90.41865529	          0.03233715	          0.06382988	          0.01475819	          0.02550469	          0.01388383	          0.01842826	          0.07676348	          0.03302707	          0.01577602	          0.02524611	          0.06096152	          0.10330205	          0.01526599	          0.01394476	          0.07516465	          0.14924282	          0.01489361	          0.18190860	          0.07928830	          0.05299704	          0.06956793	          0.04702650	          0.03482955	          0.01497517	          0.05084940	          0.01305042	          0.01179044	          0.01471248	          0.06395878	          0.07178609	          0.02447348	          0.20666143	          0.06536416	          0.01110181	          0.02396612	          0.14078248	          0.20376469	          0.01335774	          0.01264282	          0.01269323	          0.14509846	          0.41649408	          0.02874791	          0.04396673	          0.02181568	          0.02219144	          0.04226203	          0.03625212	          0.01367980	          0.01782395	          0.05757170	          0.06788672	          0.06165327	          0.06419390	          0.01130576	          0.01076923	          0.01231578	          0.05550966	          0.01225565	          0.01107600	          0.12710370	          0.01525731	          0.01302381	          0.02837365	          0.22555698	          0.01370977	          0.01284597	          0.01115205	          0.14952678	          0.27169854	          0.05182048	          0.07899713	          0.04893424	          0.04967130	          0.15305413	          0.05533839	          0.14154006	          0.01300997	          0.01124694	          0.01231887	
          4.80000000	        -19.24349874	         -2.48866033	          8.03626774	          3.37676034	          0.80264389	         -0.11060803	          4.00225629	         -1.46984562	         -8.71498348	         -2.16156671	          5.63088689	         -9.23430112	          1.69170609	         13.27029844	         18.16166852	          0.89401491	          8.64733251	        -19.45810930	         -6.41638976	        -11.84630664	         18.48613407	          2.75704971	        -10.13490142	        -37.43594864	         -0.86837382	        -27.34734814	        -29.55756697	         -9.06617599	         -2.34085191	         60.98894264	         48.52990102	        110.66673383	         95.61308384	          0.01098869	          0.01097557	          0.01150944	          0.01156328	          0.01141091	          0.01257299	          0.01351178	          0.04682266	          0.01552658	          0.02184505	          0.04546380	          0.07160910	          0.10342789	          0.01379351	          0.09480287	          0.05133269	          0.01135626	          0.28984740	          0.22397058	          0.23634627	          0.10430212	          0.12438421	          0.09867204	          0.01348559	          0.02907824	          0.01344374	          0.01249331	          0.22357562	          0.01596809	          0.19241484	          0.09449759	          0.03471912	          0.01325793	          0.01246993	          0.28461231	          0.06611086	          0.12239484	          0.01238289	          0.01092492	          0.01183438	          0.04317005	          0.07509889	          0.01345009	          0.01298025	          0.01641679	          0.03168080	          0.01152897	          0.03764856	          0.31705897	          0.10834571	          0.01431512	          0.01295056	          0.01120787	          0.01101339	          0.01161517	          0.01089965	          0.01101908	          0.01748766	          0.01251435	          0.01161230	          0.04797997	          0.03098063	          0.01380670	          0.02823926	          0.09598356	          0.14449767	          0.33196474	          0.01167035	          0.10589793	          0.15649362	          0.05906267	          0.01397844	          0.01325416	          0.01019332	          0.08340022	          0.35437578	          0.02387492	          0.01195165	          0.01056635	          0.01134316	
          4.85000000	        -17.25787006	         -7.61235587	         11.40057724	          3.40518654	          0.80070050	         -0.12388605	          0.87956189	         -7.09440096	         -7.40049862	         -1.67879559	         10.35396803	         -8.87358211	          1.28963021	         16.94056946	         19.11316748	          5.13714920	         11.14698793	        -23.05900513	         -8.83855727	         -6.09931926	         16.24599058	          8.97859429	        -11.60874943	        -28.02848842	         -5.84776618	        -18.38148283	        -32.12050039	         -5.33994105	        -16.84776942	         59.55347760	         52.22033370	        112.30739200	        101.18963426	          0.01124228	          0.01064720	          0.01090183	          0.01084145	          0.01099210	          0.01311880	          0.01077210	          0.06780900	          0.01664135	          0.02806876	          0.03360442	          0.04522229	          0.16900950	          0.35455083	          0.14980345	          0.03496256	          0.01088968	          0.13743147	          0.27513030	          0.43902345	          0.07095432	          0.17498985	          0.17665157	          0.01343137	          0.08292564	          0.01413953	          0.01293354	          0.29800691	          0.10434961	          0.41904658	          0.19971698	          0.01045868	          0.01149290	          0.01134854	          0.22557957	          0.09376814	          0.07577813	          0.01209916	          0.01071849	          0.01149932	          0.03165083	          0.04855862	          0.03812454	          0.04269068	          0.03113162	          0.02373413	          0.03888913	          0.01910350	          0.35429825	          0.14220042	          0.01314823	          0.01109107	          0.01035130	          0.01020995	          0.01337639	          0.01552277	          0.02944815	          0.01532509	          0.01264776	          0.01167699	          0.02299867	          0.01435779	          0.01340757	          0.02276847	          0.01976888	          0.12450808	          0.58150522	          0.01140662	          0.02076442	          0.02703479	          0.01541476	          0.05478292	          0.03977621	          0.01009070	          0.01763327	          0.53174107	          0.01054948	          0.02400302	          0.02120039	          0.02301811	
          4.90000000	        -15.03835839	        -11.76049261	         14.91975569	          3.43468378	          0.80052114	         -0.13424549	         -1.59339485	        -12.38121957	         -7.02033500	          0.56419083	         14.20729884	         -9.58690480	          1.91385177	         20.76823873	         18.83047558	          8.71575619	         13.24948423	        -27.82051106	        -11.50922904	         -3.25880797	         14.03531383	         14.68487963	        -15.34674444	        -20.34055936	         -7.28468902	        -13.77747464	        -29.26960132	         -4.09192828	        -20.86597613	         58.34889979	         51.38163443	        111.75645502	        102.86053842	          0.01128733	          0.01074854	          0.01093069	          0.01081035	          0.01097443	          0.01323300	          0.01081693	          0.06889216	          0.01362911	          0.01814758	          0.05848725	          0.08619999	          0.19768730	          0.16322251	          0.12521051	          0.06493242	          0.01125672	          0.12224411	          0.20444180	          0.29437058	          0.06109662	          0.14301348	          0.11320940	          0.01351665	          0.04690881	          0.01317057	          0.01191649	          0.10005780	          0.06689771	          0.30031369	          0.16973789	          0.01048304	          0.01187857	          0.03499916	          0.20216751	          0.05777950	          0.10823358	          0.01199621	          0.01061971	          0.01139324	          0.04591714	          0.06175158	          0.04679683	          0.06476897	          0.03448209	          0.02965502	          0.03586311	          0.02182944	          0.40037891	          0.18756725	          0.01251426	          0.01067574	          0.01018651	          0.01011025	          0.01186969	          0.01190614	          0.03326840	          0.01383890	          0.01181305	          0.01101186	          0.02088709	          0.01422271	          0.01311944	          0.02873705	          0.02330580	          0.51085952	          0.47409935	          0.01095571	          0.01665421	          0.01372181	          0.01630939	          0.08217200	          0.05498737	          0.01005496	          0.01447137	          0.32690413	          0.01035300	          0.03402529	          0.04149963	          0.03618618	
          4.95000000	        -13.71429639	        -15.27386825	         17.68594623	          3.46655763	          0.80075263	         -0.13930224	         -3.14118943	        -17.29811046	         -6.56096086	          3.64455630	         17.44089642	        -12.44161316	          2.50286172	         18.90538802	         17.53138254	         10.31261143	         14.31606476	        -28.24292714	        -13.26286369	         -1.66659894	         13.20374578	         20.01913245	        -19.23845491	        -12.32837482	         -7.37540861	        -11.57351961	        -22.24477544	         -3.77410633	        -20.93683908	         57.60960503	         50.90962208	        111.22640689	        103.28593321	          0.06162186	          0.08197468	          0.01622410	          0.01927687	          0.01986742	          0.01508208	          0.03253177	          0.01709941	          0.02116912	          0.01758256	          0.05865535	          0.11405279	          0.03486457	          0.02930477	          0.02254745	          0.01392736	          0.01307397	          0.08228352	          0.03605041	          0.05008712	          0.04894901	          0.02667849	          0.04062228	          0.01761039	          0.10949967	          0.01840894	          0.03136515	          0.02179797	          0.04326576	          0.16305977	          0.03111827	          0.03634604	          0.01528993	          0.07515687	          0.03603956	          0.05023358	          0.19566658	          0.03084599	          0.03961766	          0.03197772	          0.07747706	          0.11414229	          0.06139554	          0.03301239	          0.02786386	          0.03419130	          0.09873955	          0.01793884	          0.06944128	          0.03391966	          0.01879002	          0.03059173	          0.11149827	          0.13541448	          0.04971186	          0.04411904	          0.11775815	          0.01332522	          0.01773090	          0.02737972	          0.01337801	          0.01497367	          0.01895151	          0.03297961	          0.01506432	          0.08727210	          0.19713579	          0.02516008	          0.02152333	          0.01890148	          0.01808622	          0.04805559	          0.02132573	          0.09415032	          0.01804896	          0.05602502	          0.09238647	          0.03559779	          0.09589406	          0.04289868	
          5.00000000	        -13.24324436	        -18.25154224	         19.49769752	          3.49562756	          0.79371750	         -0.14184845	         -3.90550549	        -21.61757636	         -5.65612353	          6.93874091	         19.79211235	        -16.70041223	          2.29318724	         11.82673359	         18.01700910	         13.24364179	         15.66782059	        -21.72358584	        -18.01573421	        -18.18682658	         12.52963667	         25.48580824	        -22.06838217	         -1.56926858	         -6.96682313	        -10.20449324	        -10.07604831	         -4.33847635	        -19.16373252	         58.12153215	         52.48817252	        110.82349618	        104.13880795	          0.03811983	          0.03171315	          0.05641733	          0.04884452	          0.05519066	          0.05533383	          0.04676331	          0.04715017	          0.04659639	          0.04389020	          0.03212672	          0.02224440	          0.04055754	          0.04363936	          0.05506349	          0.06095779	          0.06528167	          0.01913785	          0.04352836	          0.04649819	          0.02975229	          0.04402487	          0.04162577	          0.05329911	          0.02130586	          0.05023141	          0.04758650	          0.04556501	          0.04238663	          0.03020793	          0.04144160	          0.04490192	          0.05371069	          0.03273966	          0.03958120	          0.03417453	          0.03526505	          0.04119356	          0.04016525	          0.04099759	          0.02364768	          0.02292345	          0.03220812	          0.03834080	          0.04292297	          0.04055675	          0.02695528	          0.04506805	          0.02869843	          0.03999521	          0.04318109	          0.04315162	          0.02499374	          0.02618895	          0.04395144	          0.04438224	          0.02431276	          0.05417716	          0.05487199	          0.05496844	          0.04814276	          0.05190500	          0.05153353	          0.03695685	          0.04510008	          0.02525009	          0.03559591	          0.04501852	          0.04288004	          0.03865197	          0.04670901	          0.03645752	          0.04059458	          0.02631587	          0.04571148	          0.03662807	          0.03061486	          0.03860502	          0.02555441	          0.03700845	
