Inverse Dynamics Generalized Forces
version=1
nRows=20
nColumns=34
inDegrees=no
endheader 
time	pelvis_tilt_moment	pelvis_list_moment	pelvis_rotation_moment	pelvis_tx_force	pelvis_ty_force	pelvis_tz_force	hip_flexion_l_moment	hip_adduction_l_moment	hip_rotation_l_moment	hip_flexion_r_moment	hip_adduction_r_moment	hip_rotation_r_moment	knee_angle_l_moment	knee_angle_r_moment	ankle_angle_l_moment	ankle_angle_r_moment	subtalar_angle_l_moment	subtalar_angle_r_moment	mtp_angle_l_moment	mtp_angle_r_moment	lumbar_extension_moment	lumbar_bending_moment	lumbar_rotation_moment	arm_flex_l_moment	arm_add_l_moment	arm_rot_l_moment	arm_flex_r_moment	arm_add_r_moment	arm_rot_r_moment	elbow_flex_l_moment	elbow_flex_r_moment	pro_sup_l_moment	pro_sup_r_moment	
          5.00000000	         -0.00004864	         -0.00004133	          0.00002339	         -0.00004086	          0.00005173	          0.00005805	         28.91694809	         -2.35776458	         -1.73061679	         -4.45157183	         -4.91498712	          0.05055423	         -8.60226786	         -0.14353681	        -23.32802640	          0.37177874	          0.95535176	         -0.17138917	          0.55144997	          0.01958384	        -15.41277664	         16.85175961	          3.50556654	          6.08183191	         -0.13910650	         -0.31786923	         15.16003159	         -1.77105750	          0.30174208	          3.11158772	          5.67781571	         -0.11530349	         -0.12556696	
          5.05000000	          0.00001200	         -0.00000178	         -0.00000415	          0.00002167	          0.00002071	          0.00000552	         22.87511847	        -10.79128016	          0.57713860	         -7.51454444	         -2.79442955	          0.18450908	         10.62457296	          4.78165917	        -54.72047326	          0.72560525	          5.53297177	         -0.38432810	          8.47441220	         -0.02815023	        -12.82850577	         21.29589337	          2.42566734	         -8.02865760	          0.22840271	         -0.17759390	         -6.66478282	         -1.77687393	         -0.46635214	         -0.93296082	         -0.92895317	          0.01606857	          0.02231268	
          5.10000000	          0.00002899	          0.00000955	         -0.00000449	          0.00003337	         -0.00001677	         -0.00001340	         11.83177973	        -14.66848084	          0.80069802	         -0.27386029	          1.89233121	          0.15602456	         13.13260366	         -1.62048476	        -49.14755545	          2.63258399	          4.56063703	         -0.23660848	          7.21566179	         -0.01665142	         -4.25733481	          8.20831827	          1.71783552	         -2.92749470	          2.54651716	          0.30556721	         -0.96115270	          2.42713320	          1.05512900	          0.56823720	          0.01010072	         -0.02297513	          0.02633958	
          5.15000000	         -0.00000230	          0.00000138	         -0.00000381	         -0.00001278	         -0.00001486	         -0.00000463	       -104.57357518	         17.15285475	          1.93349508	        131.51698767	          6.93327039	         -3.77174541	         76.84253535	        -73.68119830	        -45.33593060	         15.01835947	          5.66305760	          1.46650655	          6.28708964	         -0.00794781	        -19.74204015	         -6.17424143	        -40.81057140	         -2.67098158	          9.43789369	          2.29042882	          8.02607959	          4.92673123	          1.79197030	          1.05746504	          1.29986573	         -0.00806287	          0.01229670	
          5.20000000	         -0.00000543	          0.00000292	          0.00000119	         -0.00000606	          0.00000648	         -0.00000178	         11.51448474	         11.83681697	          2.30040638	         15.41534189	          0.23759382	          0.28026340	          7.63100026	        -12.95307982	        -32.54753476	          3.28267757	          4.69006595	          2.00769194	          5.28767448	         -0.01866207	        -27.37462066	        -13.10586186	         -4.83217495	         -0.31091005	         -7.05889132	         -1.61631941	        -18.64115248	        -25.81692999	         -4.99198489	          1.77162191	         -7.36264254	         -0.04596409	          0.00840048	
          5.25000000	         -0.00001820	         -0.00000648	          0.00000809	         -0.00002015	         -0.00000057	          0.00001009	         19.37920558	        -51.77388170	         -4.20508066	        -11.08012265	        -92.05869063	          3.95424574	         -9.91663414	        -19.39646063	        -15.50007664	         -2.59189289	         -3.78507715	         -0.67542448	          2.95237160	          0.21893590	         -0.67643158	         -4.35138090	         15.52423839	         10.02780901	         -7.74543129	          0.96535885	         14.78394349	         10.51210894	         -0.36069215	          6.94846046	          8.35937728	         -0.15272944	         -0.29034780	
          5.30000000	         -0.00000327	          0.00001460	          0.00000281	         -0.00000787	         -0.00000387	         -0.00002006	         -3.93948660	        -24.19508528	         -3.54368811	         20.24598427	        -64.38318329	          8.03813181	          0.86839377	        -25.79824912	         -2.92941928	         -5.75096547	         -3.44843525	          5.17202181	          0.39350842	          0.68292429	        -14.31630999	         -6.23802396	         -4.29716763	          3.08677394	         -6.54722959	         -0.64446450	         10.44490867	          4.17983515	          0.18223138	          3.73498566	          3.47603894	         -0.10992373	         -0.13932355	
          5.35000000	         -0.00000655	          0.00000497	          0.00000036	         -0.00001315	         -0.00001858	         -0.00000862	          6.95538009	        -12.69846575	         -1.66579254	          1.89557380	        -48.74249800	          9.75309774	         -1.97263101	        -13.55687507	         -1.38236848	        -15.95493425	         -1.91648498	         10.46414538	          0.21693649	          1.50780170	        -13.67174216	        -24.67830358	          5.35728220	         -8.80008858	          3.09369527	         -0.53405210	         -3.08718134	         -1.97625021	          0.11984848	         -2.04206919	         -2.08299630	          0.04806482	          0.07937359	
          5.40000000	         -0.00000078	         -0.00002004	          0.00000008	          0.00000551	          0.00003127	          0.00002406	          1.07627996	        -12.06138211	         -1.29028796	         28.57488121	        -42.42736160	          3.81023220	         -1.44945292	        -28.44473734	         -0.96100700	        -17.60932458	         -2.14021328	          9.39586544	          0.04016566	          1.73636662	        -27.02748693	        -33.64619012	          8.63119734	        -13.37003174	         -0.49599252	         -2.27856734	         12.49434607	          1.82400347	          0.08232112	         -1.59988988	          4.07024709	         -0.00347885	         -0.15939372	
          5.45000000	         -0.00000548	          0.00002002	         -0.00000070	         -0.00000831	         -0.00000655	         -0.00002341	         -2.19615006	         -0.82675839	          0.18044209	         42.20092553	        -37.62081245	          2.97265867	          1.27230064	        -31.66538871	          0.42893486	         -4.36010040	         -0.08521989	          4.26661225	         -0.04907855	          0.43132411	        -37.79162676	         -0.22092201	         -5.08801836	         -4.21562122	         -2.03021753	         -0.99758073	         -5.54008572	         -1.92365421	          0.13044727	          0.48002957	         -1.23953756	         -0.03829560	          0.03210314	
          5.50000000	         -0.00000152	          0.00000029	         -0.00000026	          0.00000240	          0.00001071	          0.00000009	         -1.30480067	          3.74721351	         -0.74833517	         27.27129924	        -31.42789031	          2.82054218	         -0.95881627	        -17.40781649	          0.67272561	         -7.20585518	         -0.06739270	          4.61790187	         -0.04174340	          0.40552171	        -21.61179095	         -0.67642485	         -7.63450030	         -2.23597236	          1.49926303	          0.10239088	         -9.10295229	          0.65804817	          0.49927634	          0.42796716	         -3.34193223	         -0.00926926	          0.11246603	
          5.55000000	         -0.00000204	         -0.00000762	         -0.00000035	         -0.00000165	         -0.00000290	          0.00000982	         -7.84872607	         -1.92911007	          0.16093735	         42.47151716	        -35.61725709	          0.52772848	         -0.77584826	        -24.85395324	          0.58627858	         -7.33364271	         -0.10873240	          2.86238757	         -0.04342564	          0.59529500	        -23.53977690	          7.20463955	        -11.61693847	         -0.14052870	         -2.23159401	         -0.36699832	          9.41249272	          1.87927267	         -0.92570183	          2.20499756	          2.64945969	         -0.06464275	         -0.09322350	
          5.60000000	         -0.00000019	         -0.00000181	         -0.00000033	         -0.00000063	          0.00000232	          0.00000086	        -10.81870163	         -1.19958351	          0.20014611	         47.19443968	        -21.04274067	         -0.90574667	          3.42104728	        -21.89955246	          0.35567141	        -13.51792671	         -0.10574689	          4.23320470	         -0.02259464	          1.55906065	        -28.08261396	         -9.21077281	         -4.13094062	         -4.69756372	         -1.68104206	         -0.73533438	          4.41159871	          1.44335262	         -0.25105052	          0.37939055	          2.06943514	         -0.02921662	         -0.05004458	
          5.65000000	         -0.00000036	          0.00000403	         -0.00000013	          0.00000447	          0.00000937	         -0.00000584	         -8.15139918	         -6.24716800	          0.16951441	         51.78874796	        -25.72045701	         -0.93717091	          3.18069515	        -24.43800331	          0.40790040	        -19.53476959	         -0.16528497	          5.50117792	         -0.01260818	          2.62402080	        -33.18160349	        -18.14742429	         -1.06962203	          2.10088161	         -3.49185815	         -0.13615993	         11.60528883	          2.16741693	         -1.00267871	          2.52686434	          4.45389286	         -0.06637178	         -0.15364818	
          5.70000000	          0.00000264	          0.00000304	          0.00000052	          0.00000564	          0.00000860	         -0.00000376	        -13.22121760	         -4.76600727	          0.17973089	         49.95023704	        -32.22856962	         -1.45840661	          5.22275009	        -28.52936925	          0.41390479	        -15.68779457	         -0.13249446	          3.54868360	         -0.01336805	          1.99151002	        -27.32249384	         -9.80511974	         -3.68023045	          4.64373542	         -1.28833777	          0.71976482	          0.61150248	          0.73992638	          0.11963793	          2.59939744	          0.60607820	         -0.03716879	         -0.00846796	
          5.75000000	         -0.00000386	         -0.00000243	         -0.00000069	         -0.00000407	          0.00000307	          0.00000439	        -17.64733448	         -9.76104821	          0.32348678	         37.41366691	        -50.06187973	         -2.03693497	          7.37602822	        -26.78190969	          0.46550117	        -16.12518230	         -0.24444229	          1.11956201	         -0.01307706	          1.66624162	        -11.83776321	          0.40662859	         -6.84087225	         -5.99429195	         -1.41904270	         -0.86516093	         -1.98108634	          0.24021495	          0.28613083	          0.20183769	          0.08780244	         -0.01713597	          0.00594204	
          5.80000000	         -0.00001134	          0.00000684	          0.00000066	         -0.00000878	          0.00001879	         -0.00000769	         50.53076064	         26.36022421	         -3.77976768	        -30.35080239	        -13.51638838	         -1.17137862	        -26.93332700	         13.69490213	          6.59074101	        -26.11812385	          0.95122499	          3.81195163	         -0.01321270	          2.43669214	        -11.06230344	          6.49818550	         14.73767503	        -12.83047929	          3.94169308	         -0.73022316	          5.67406049	          3.15500743	          0.05204331	         -2.43450484	          2.77176839	          0.02603914	         -0.05600040	
          5.85000000	         -0.00000550	          0.00001318	          0.00000077	         -0.00000020	          0.00003377	         -0.00000757	         11.26107793	          9.39203288	         -0.08958310	         10.74099137	         -3.71287769	         -0.74594282	         -7.11798125	         -5.84941907	         -3.07804612	        -23.60231092	          1.60536312	          5.03086107	          0.35033812	          3.19749447	        -11.80009164	         11.36777542	          3.51585458	         -0.26624805	          2.35596844	          0.38786117	          5.59657112	          0.70141804	         -0.39380016	          1.61904068	          2.36967788	         -0.05490534	         -0.06905938	
          5.90000000	          0.00002835	         -0.00001407	          0.00000593	          0.00003752	          0.00001264	          0.00002274	        -10.94608734	        -10.27144983	         -0.86691584	         29.65072009	        -10.72908663	         -0.68229234	          7.24085086	        -16.89240157	        -23.59954417	         -5.76846918	          0.71441738	          0.22784596	          2.79043041	          1.13862995	         -9.81954565	         23.17585554	        -10.65352118	         13.46271029	         -3.14505227	          0.68348493	         11.14176453	         -1.43543649	         -1.84695968	          6.24412004	          3.02148020	         -0.13110710	         -0.15340147	
          5.95000000	          0.00003626	          0.00000019	         -0.00000121	          0.00005657	          0.00005827	          0.00001538	        -22.40814545	         10.06952828	          1.26440313	         42.59505780	          5.26787799	          0.68132207	         21.99290755	        -20.95745210	        -45.35018897	         -1.66576238	          5.86887461	          1.90015702	          5.90466734	          0.22540908	        -18.47192710	         41.59187286	        -13.63004511	         -0.39838107	         -0.00160864	          0.07274779	         -8.83123692	         -8.16340898	         -0.01095587	          2.43841340	         -3.66521416	         -0.03640717	          0.07321013	
