Inverse Dynamics Generalized Forces
version=1
nRows=25
nColumns=34
inDegrees=no
endheader 
time	pelvis_tilt_moment	pelvis_list_moment	pelvis_rotation_moment	pelvis_tx_force	pelvis_ty_force	pelvis_tz_force	hip_flexion_l_moment	hip_adduction_l_moment	hip_rotation_l_moment	hip_flexion_r_moment	hip_adduction_r_moment	hip_rotation_r_moment	knee_angle_l_moment	knee_angle_r_moment	ankle_angle_l_moment	ankle_angle_r_moment	subtalar_angle_l_moment	subtalar_angle_r_moment	mtp_angle_l_moment	mtp_angle_r_moment	lumbar_extension_moment	lumbar_bending_moment	lumbar_rotation_moment	arm_flex_l_moment	arm_add_l_moment	arm_rot_l_moment	arm_flex_r_moment	arm_add_r_moment	arm_rot_r_moment	elbow_flex_l_moment	elbow_flex_r_moment	pro_sup_l_moment	pro_sup_r_moment	
          6.00000000	          0.00000488	          0.00001982	          0.00000198	          0.00001381	          0.00002591	         -0.00001947	         33.96534249	        -14.92916808	          1.47430647	        -19.40406152	         -2.82784984	         -0.11709585	         -8.69208493	          8.59060530	        -37.32300108	         -2.15497611	          7.56892696	         -0.37832293	          5.02922903	          0.26320512	        -11.78485685	         27.14850426	          6.01170750	         -2.19455464	         -0.08427688	         -0.31639287	         -0.22354614	         -1.28052348	          0.07796965	          1.23283246	          0.07755889	         -0.03797172	          0.00353219	
          6.05133333	          0.00007726	          0.00002510	          0.00001171	          0.00008308	         -0.00001718	         -0.00002543	         20.93603692	        -26.99832844	          2.73675202	        -18.47907237	         -2.74695591	         -0.01354373	         -4.53723015	          7.68456269	        -38.87142243	         -1.22557425	          8.47045864	         -0.17125391	          5.64173856	          0.16311225	         -0.53260332	         26.17045684	          6.18323314	         -5.84330141	          2.23385730	         -0.22262434	          1.16007335	         -1.16698443	         -0.24711729	          0.51791076	          1.08462254	         -0.02294400	         -0.04172369	
          6.10266666	         -0.00000439	         -0.00000297	         -0.00000011	         -0.00000236	          0.00000806	          0.00000725	         14.79670139	        -22.98829794	          2.22083058	         -3.59742796	          0.69122886	         -0.21642633	         -4.17684301	          2.73123115	        -29.11987054	         -0.96932374	          6.68165799	         -0.09560462	          4.34642292	          0.20803846	        -10.76628440	         18.84435325	          2.90488781	         -2.69139857	          1.47042139	          0.08413216	          1.69304375	         -0.85253212	         -0.35328085	          0.38398149	          1.03613029	         -0.00234828	         -0.04669512	
          6.15400000	         -0.00000538	          0.00000901	          0.00000046	         -0.00000375	          0.00001250	         -0.00000911	         33.51209566	        -23.56499538	          1.72815350	         -3.89426543	          0.05137402	          0.04591341	        -11.57061264	          2.61834498	        -34.27867404	         -1.76803559	          8.68079812	          0.17312920	          4.90907549	          0.47282407	        -27.59355846	         28.09806858	          3.32816632	         -5.70252148	          1.16974621	         -0.24856441	          4.05004255	         -0.68067244	         -0.46243864	         -0.15233073	          1.79385920	          0.00478872	         -0.05470772	
          6.20533333	         -0.00000233	          0.00000166	         -0.00000019	         -0.00000087	          0.00001022	         -0.00000036	         12.91700678	        -24.05818566	          0.82609676	          2.15991664	          1.29161295	          0.55457970	          0.77499375	         -2.05412346	        -28.13794012	         -0.18344414	          6.74185960	          0.59358545	          3.93011044	          0.08202113	        -12.34954037	         17.56790956	          1.15854261	         -4.59149071	          1.12583343	         -0.16466346	          0.70342218	         -1.94666287	         -0.24816750	          0.43169454	          0.64132625	         -0.01700917	         -0.01905748	
          6.25666666	          0.00000108	         -0.00000099	         -0.00000008	          0.00000299	          0.00000638	          0.00000172	         -1.34966429	         -8.71848480	          2.37368522	          3.83589304	          4.42374647	         -0.01988870	         10.96884928	         -1.25025860	        -24.97126404	          0.24689894	          7.74140665	          0.14219325	          3.50859545	          0.00490277	         -0.23908974	         20.97516960	         -0.72895518	         -2.68272332	          0.47756685	         -0.28726799	          2.42118373	         -0.12942166	         -0.18624355	          1.12589834	          1.52961785	         -0.04358216	         -0.04091549	
          6.30799999	          0.00000167	          0.00000081	         -0.00000019	          0.00000317	          0.00000537	          0.00000020	          0.34813608	        -20.91753872	          2.14950003	         10.95454721	          2.20585079	          0.23184290	         12.08038633	         -3.25251255	        -33.10807725	          0.41673997	          8.53524119	          0.12406022	          4.91660166	          0.00102074	         -9.55580046	         20.85835797	         -3.01345753	         -3.51496622	          1.18092179	         -0.15756572	          3.18447842	         -0.01402131	         -0.20000395	          0.76931935	          1.75506456	         -0.02345893	         -0.04118248	
          6.35933332	         -0.00000017	          0.00000093	          0.00000009	          0.00000090	          0.00000592	         -0.00000056	         18.70993937	        -28.60380537	          0.75109039	          2.93573724	         -0.70644110	          0.51007805	          0.40251723	         -2.49574294	        -29.66363718	          0.42807566	          6.33147300	          0.68442735	          4.73874882	          0.02384852	        -19.56190999	         14.01188803	          1.66357966	         -2.36322350	          0.98353481	          0.07794311	         -1.90943690	         -2.37873670	         -0.06816014	          0.63556005	         -0.19116041	         -0.01956824	          0.00202345	
          6.41066666	          0.00000744	          0.00000463	          0.00000134	          0.00000863	         -0.00000394	         -0.00000387	         28.47260966	        -25.22892221	          0.77086877	         -0.04407803	          2.00424718	          0.53877931	         -5.94742435	         -5.12468836	        -24.33133974	          0.55949486	          5.42152025	          1.55852006	          3.91719211	          0.10960320	        -23.11470276	          7.20406589	          7.39901864	         -3.39703348	          1.75296916	          0.24246240	         -0.97470733	         -3.05822486	         -0.21365739	          0.37635754	         -0.12880563	         -0.01602839	         -0.01391226	
          6.46199999	          0.00000175	          0.00000184	          0.00000059	          0.00000215	         -0.00000156	         -0.00000113	         20.41060316	         -6.49183485	          1.81789941	          9.52430756	         12.18252871	          0.77739843	          0.61992531	         -5.84088940	        -27.86540836	         -2.63383763	          7.47624811	          3.01333090	          4.28862521	          0.65439672	        -24.57105868	         13.59824418	          1.14167181	         -4.90316966	          1.47149774	         -0.15890021	          0.81642022	         -1.19469750	         -0.16116874	          0.35068873	          0.80965252	         -0.01713292	         -0.02682410	
          6.51333332	          0.00000029	          0.00000160	         -0.00000004	          0.00000065	          0.00000077	         -0.00000150	         50.66788705	        -10.46422434	          0.92177936	        -26.16456935	          2.36649062	          0.12668303	        -20.14515575	         14.50792219	        -17.46983517	        -12.60732535	          4.81147297	          3.10792591	          3.17438179	          1.91517682	        -21.07521790	          3.29125977	          9.10974388	         -7.03086780	          2.48847592	         -0.05262379	          2.38419105	         -1.61187234	         -0.39753060	         -0.76635358	          1.03731690	          0.01505749	         -0.04587602	
          6.56466665	         -0.00000009	         -0.00000069	         -0.00000025	          0.00000022	          0.00000144	          0.00000107	         19.92981570	        -34.05614236	         -1.40794269	         27.26917311	        -51.30611547	          3.87504006	         -9.35624509	        -19.07643917	        -14.68828438	        -12.34276733	          0.69914367	          1.96075752	          2.61481290	          2.17236707	        -42.55234170	         15.10140650	         -3.91289452	         -3.11832473	         -1.23204450	         -0.50277240	         -1.20337414	          0.19207211	          0.16143545	          1.09346357	          0.33920662	         -0.03152862	         -0.00180649	
          6.61599998	          0.00000026	         -0.00000084	         -0.00000012	          0.00000075	          0.00000153	          0.00000151	         -0.32796192	        -30.12973561	         -1.68032426	         32.29981266	        -47.99604233	          4.26818812	          1.79426632	        -21.17455728	        -13.96382546	        -11.53926681	          0.15814716	          3.90051517	          2.44477865	          1.99449632	        -28.79055328	          5.69556420	         -6.39853007	         -1.88493410	         -0.70475475	         -0.22456777	         -0.57509084	          0.38939198	          0.13089457	          1.22274063	          0.34914240	         -0.03572589	          0.00018072	
          6.66733332	         -0.00000061	         -0.00000149	         -0.00000022	         -0.00000031	          0.00000171	          0.00000201	         13.42898452	        -19.61979263	         -0.66377455	          8.64251061	        -40.61678112	          2.02316147	         -4.98115067	         -8.01866709	        -10.51821918	        -10.74221514	          1.07488369	          2.57692963	          2.11836191	          1.43237681	        -20.80699233	          5.13697852	         -0.55386358	         -4.23727114	         -0.09609473	         -0.50384908	         -1.81209866	         -0.89811964	          0.09707972	          0.53725379	          0.28113275	         -0.02888471	         -0.00219537	
          6.71866665	          0.00000018	         -0.00000036	         -0.00000024	         -0.00000010	         -0.00000133	          0.00000052	         20.53200844	        -17.90846316	          0.08020128	          7.93165667	        -44.74963510	          2.21576547	         -9.91785369	         -8.43578922	         -9.46026574	        -11.89416045	          1.53766771	          2.90914744	          2.09549794	          1.51662075	        -26.20179201	          6.15449048	          0.12174416	         -4.51146494	          0.03430084	         -0.41097028	         -0.90704469	         -0.48755352	          0.01121101	          0.37451620	          0.74807567	         -0.01766379	         -0.01971599	
          6.76999998	          0.00000148	         -0.00000433	         -0.00000073	          0.00000130	         -0.00000320	          0.00000415	         15.74368701	        -25.05589199	         -0.72989390	          2.36885503	        -44.84002993	          0.91523937	         -8.57865555	         -6.14594825	         -7.40738839	        -12.58218029	         -0.38947132	          2.22828903	          1.55265784	          1.50068431	        -16.06535691	         -3.06038631	          2.64327488	         -5.73393766	          1.24233435	         -0.32922146	         -0.14331284	         -0.53218628	         -0.01641315	         -0.26314379	          0.73293270	         -0.00519064	         -0.01431349	
          6.82133331	          0.00000206	         -0.00000147	         -0.00000028	          0.00000120	         -0.00000822	          0.00000111	         -0.51050458	         -0.75744580	         -0.09200765	         19.17850519	        -23.02165490	          0.80361538	          2.02166255	        -13.00172968	         -8.74415363	        -11.67333221	          2.16873540	          3.85824464	          1.64497152	          1.48650819	        -16.23340714	         -0.34878860	         -1.05158355	         -4.14451660	         -0.44562655	         -0.55547824	         -0.17616368	          0.40572251	          0.06685862	          0.53044051	          0.68336800	         -0.02761129	         -0.01215654	
          6.87266664	          0.00000177	         -0.00000004	         -0.00000007	          0.00000072	         -0.00000967	         -0.00000065	         -2.62840574	          0.98171947	         -0.26958426	         28.11449450	        -20.93122400	          0.57897054	          3.65266526	        -17.31427936	        -11.05199662	        -13.02052495	          2.55708718	          4.52226069	          1.99266686	          1.76779478	        -22.09375852	         -0.99824283	         -2.25087441	         -2.89159375	         -0.93884173	         -0.46294681	         -0.19140261	         -0.38998554	         -0.01306690	          1.01699437	          0.65757656	         -0.03846929	         -0.01481332	
          6.92399998	         -0.00000034	         -0.00000136	          0.00000016	         -0.00000095	         -0.00000525	          0.00000101	         10.92855340	         -5.83749038	         -0.48287455	         21.24186366	        -28.94348357	         -0.57026857	         -3.96707975	        -14.75284041	        -11.15410885	        -13.42123528	          1.78136195	          2.86230468	          2.07475027	          1.87741145	        -28.46249966	          3.88828194	          0.10006332	         -3.89566860	         -0.40837227	         -0.53041222	         -0.31284323	         -0.41941896	          0.08119149	          0.55866326	          0.71195315	         -0.02997623	         -0.00971937	
          6.97533331	          0.00000135	         -0.00000628	         -0.00000068	          0.00000076	         -0.00000586	          0.00000642	         12.80758282	        -12.75674007	         -1.07796071	         21.10886624	        -34.63059808	         -1.03593439	         -4.50013863	        -14.52635534	        -13.11333184	        -14.59542508	          0.74653315	          2.31172493	          2.39810714	          2.11540132	        -30.15065548	          5.46055650	          0.57238410	         -3.54414433	         -0.34274247	         -0.43524451	          1.30236975	          0.55210273	         -0.08772817	          0.66095705	          1.05427765	         -0.02563389	         -0.02598231	
          7.02666664	         -0.00000135	         -0.00000305	          0.00000011	         -0.00000156	         -0.00000149	          0.00000410	          1.88038886	         -6.46311757	         -1.36341806	         21.28043074	        -24.89100458	         -1.16573877	          3.89826773	        -12.14237825	        -17.65947557	        -16.50060760	          1.50902329	          3.33422143	          3.04205640	          2.48265971	        -20.28614108	          4.56900540	         -1.16217064	         -3.30562591	         -0.29351568	         -0.42596172	          0.42415339	         -0.27189796	         -0.09363951	          0.75671388	          0.85057479	         -0.03098328	         -0.02415030	
          7.07799997	         -0.00000107	         -0.00000346	          0.00000007	         -0.00000072	          0.00000113	          0.00000505	          4.09628436	         -9.93234352	         -1.85726381	         18.04527022	        -26.88487081	         -1.31445860	          2.85768747	        -10.70954483	        -17.72529930	        -15.62962770	          0.45128976	          2.40846861	          3.03868328	          2.52839336	        -19.18798446	          7.22714678	         -1.45837204	         -4.74223658	          0.54263677	         -0.46712221	          1.53046308	          0.38750571	         -0.21703489	          0.09942410	          1.28758123	         -0.01237291	         -0.03977998	
          7.12933330	         -0.00000233	         -0.00000424	         -0.00000004	         -0.00000069	          0.00000555	          0.00000451	         16.94187148	         -3.69110373	         -1.33267039	         23.54807358	        -19.96520981	         -1.09730164	         -2.31147111	        -10.57209045	        -22.48282712	        -21.53461687	          1.51003830	          4.35856544	          3.82729356	          3.50837875	        -35.82536929	          7.28455008	          0.64842329	         -2.66794822	          0.18479607	         -0.22655078	          2.91252490	          0.13141872	         -0.39214951	          1.04309639	          1.68982073	         -0.03509857	         -0.05309722	
          7.18066664	         -0.00000314	         -0.00000044	          0.00000013	         -0.00000047	          0.00001001	          0.00000149	         -3.73343321	          7.35468358	          0.32357292	         38.54469942	         -3.45276975	          1.15021574	         12.67616433	        -13.31432286	        -29.14071517	        -22.94582905	          3.48876388	          7.27682147	          4.91852288	          3.96957778	        -31.18972613	          4.53316414	         -4.70056155	         -2.70690823	          0.00665891	         -0.20730441	          1.65981124	         -0.15977863	         -0.32984482	          0.94477466	          1.37563172	         -0.02425717	         -0.04787513	
          7.23199997	         -0.00000160	          0.00000167	          0.00000059	         -0.00000002	          0.00000660	         -0.00000009	          9.89246748	         -2.91437815	         -0.39011521	          9.33990978	        -10.90740933	         -0.58500390	          4.60025181	         -1.08767537	        -26.07154220	        -18.18540079	          1.44722127	          3.34002079	          4.74311963	          3.46108486	        -17.24629260	          8.44906222	         -0.29234677	         -3.04066654	          0.40341904	         -0.30715734	          0.88447686	         -0.17187528	         -0.10906738	          0.46693628	          0.84998439	         -0.01993485	         -0.02253906	
