Coordinates
version=1
nRows=21
nColumns=114
inDegrees=yes

Units are S.I. units (second, meters, Newtons, ...)
If the header above contains a line with 'inDegrees', this indicates whether rotational values are in degrees (yes) or radians (no).

endheader 
time	pelvis_tilt	pelvis_list	pelvis_rotation	pelvis_tx	pelvis_ty	pelvis_tz	hip_flexion_l	hip_adduction_l	hip_rotation_l	hip_flexion_r	hip_adduction_r	hip_rotation_r	knee_angle_l	knee_angle_r	ankle_angle_l	ankle_angle_r	subtalar_angle_l	subtalar_angle_r	mtp_angle_l	mtp_angle_r	lumbar_extension	lumbar_bending	lumbar_rotation	arm_flex_l	arm_add_l	arm_rot_l	arm_flex_r	arm_add_r	arm_rot_r	elbow_flex_l	elbow_flex_r	pro_sup_l	pro_sup_r	addbrev_l/activation	addlong_l/activation	addmagDist_l/activation	addmagIsch_l/activation	addmagMid_l/activation	addmagProx_l/activation	bflh_l/activation	bfsh_l/activation	edl_l/activation	ehl_l/activation	fdl_l/activation	fhl_l/activation	gaslat_l/activation	gasmed_l/activation	glmax1_l/activation	glmax2_l/activation	glmax3_l/activation	glmed1_l/activation	glmed2_l/activation	glmed3_l/activation	glmin1_l/activation	glmin2_l/activation	glmin3_l/activation	grac_l/activation	iliacus_l/activation	perbrev_l/activation	perlong_l/activation	piri_l/activation	psoas_l/activation	recfem_l/activation	sart_l/activation	semimem_l/activation	semiten_l/activation	soleus_l/activation	tfl_l/activation	tibant_l/activation	tibpost_l/activation	vasint_l/activation	vaslat_l/activation	vasmed_l/activation	addbrev_r/activation	addlong_r/activation	addmagDist_r/activation	addmagIsch_r/activation	addmagMid_r/activation	addmagProx_r/activation	bflh_r/activation	bfsh_r/activation	edl_r/activation	ehl_r/activation	fdl_r/activation	fhl_r/activation	gaslat_r/activation	gasmed_r/activation	glmax1_r/activation	glmax2_r/activation	glmax3_r/activation	glmed1_r/activation	glmed2_r/activation	glmed3_r/activation	glmin1_r/activation	glmin2_r/activation	glmin3_r/activation	grac_r/activation	iliacus_r/activation	perbrev_r/activation	perlong_r/activation	piri_r/activation	psoas_r/activation	recfem_r/activation	sart_r/activation	semimem_r/activation	semiten_r/activation	soleus_r/activation	tfl_r/activation	tibant_r/activation	tibpost_r/activation	vasint_r/activation	vaslat_r/activation	vasmed_r/activation	
          3.00000000	        -21.70121700	          1.46818262	        -12.19969940	          2.67278835	          0.81050759	         -0.04150621	         16.28596299	        -13.19769126	        -11.92262446	          6.03161929	          9.34767340	        -21.08266993	         11.43848576	          0.89843455	          5.39810935	         17.57699742	         -5.96455481	         11.89138618	        -19.48092539	         -4.31179432	         20.58326429	        -22.04784547	        -36.32758841	        -47.88654817	         14.28895732	        -39.76615436	         24.52316019	         -6.47295477	         42.45986926	         49.97531830	         34.97727966	        100.07362005	         95.35676049	          0.16444100	          0.15182539	          0.01133305	          0.01042934	          0.11680044	          0.42430579	          0.01116647	          0.02252157	          0.01274564	          0.01589268	          0.03619815	          0.11255659	          0.06927321	          0.10994096	          0.01095456	          0.01059354	          0.10328376	          0.01011713	          0.01033721	          0.01207201	          0.01032159	          0.01066348	          0.01441996	          0.07421779	          0.01109292	          0.01870485	          0.01919982	          0.30842126	          0.24997168	          0.40702149	          0.18507171	          0.01019802	          0.01076543	          0.08729159	          0.01096647	          0.01040133	          0.10882453	          0.03178699	          0.04604701	          0.03411194	          0.01550471	          0.01527047	          0.03430796	          0.02973823	          0.02730910	          0.02791468	          0.05235551	          0.02018029	          0.39523211	          0.21374114	          0.01629990	          0.01213115	          0.01052434	          0.01034967	          0.05095988	          0.04649258	          0.06576429	          0.01324269	          0.03849508	          0.06812681	          0.01327362	          0.01934777	          0.03016205	          0.02191404	          0.01443053	          0.01378380	          0.01162899	          0.07490417	          0.01445268	          0.01685613	          0.02134475	          0.02143104	          0.02374188	          0.01012068	          0.01566851	          0.55045522	          0.01111444	          0.03634809	          0.05674660	          0.04139069	
          3.05000000	        -22.36612908	          1.62892588	         -9.83885444	          2.66318469	          0.80370182	         -0.04201930	         16.64400463	        -12.67915864	        -13.58864270	          6.14761433	          8.70441100	        -20.55677713	          8.85347902	          0.70894181	         11.07885363	         18.55390089	         -1.79047502	         11.54492397	        -14.05123405	         -4.08608550	         20.25430622	        -26.79846681	        -36.75946071	        -47.45765563	         13.41533897	        -40.00853290	         23.73404894	         -6.89847682	         42.03764386	         45.30148910	         40.37037607	         98.99841805	         92.24719523	          0.14120237	          0.21094020	          0.01058818	          0.01027859	          0.02174217	          0.37419607	          0.01028846	          0.01673945	          0.01387473	          0.01582633	          0.07740555	          0.02159113	          0.01163311	          0.01836378	          0.01049850	          0.01027290	          0.01743386	          0.01011577	          0.01032364	          0.01107727	          0.01031528	          0.01068065	          0.01493972	          0.01812245	          0.18170310	          0.01072403	          0.01031939	          0.26033869	          0.67438856	          0.45319092	          0.34761457	          0.01011162	          0.01040132	          0.01456789	          0.01221884	          0.68136736	          0.20094744	          0.07285161	          0.18148090	          0.09701979	          0.01230671	          0.01118444	          0.01595431	          0.02993847	          0.01625622	          0.01579300	          0.07593214	          0.02025303	          0.22390361	          0.11111885	          0.04940152	          0.01603266	          0.01042746	          0.01027966	          0.08119089	          0.13988501	          0.04698687	          0.12594845	          0.09580768	          0.09525607	          0.04838107	          0.05013308	          0.05499982	          0.01590998	          0.01687974	          0.01114917	          0.01059380	          0.05497144	          0.01406579	          0.01549048	          0.01690636	          0.14464968	          0.04814957	          0.01009275	          0.03421258	          0.57720285	          0.06594471	          0.02768236	          0.02943619	          0.02810817	
          3.10000000	        -22.43104071	          2.08814976	         -6.65029766	          2.65503848	          0.79904149	         -0.04411477	         15.57931396	        -11.51559120	        -16.29809521	          6.16593550	          7.87148180	        -19.48490548	          4.68160497	          0.84204791	         17.08584235	         21.52120755	          7.52890603	         10.92956477	         -8.24484160	         -4.37885326	         18.53720721	        -31.46447424	        -37.17219978	        -44.94021055	         10.91267171	        -41.42609084	         23.92251533	         -6.52386131	         41.89243222	         42.23281361	         42.88459325	         98.37612600	         89.90713941	          0.23044890	          0.23654827	          0.01061057	          0.01027079	          0.03813298	          0.57410212	          0.01034007	          0.01711584	          0.58481838	          0.53378286	          0.01576501	          0.08780907	          0.01013446	          0.01007765	          0.01037485	          0.01020287	          0.01071508	          0.01007117	          0.01021531	          0.01092406	          0.01018751	          0.01038278	          0.01169571	          0.02121615	          0.09181906	          0.01029241	          0.01015445	          0.29206970	          0.78750460	          0.38683737	          0.43881593	          0.01011236	          0.01040103	          0.01003265	          0.01061186	          0.99470714	          0.45498143	          0.07363070	          0.19039065	          0.10267824	          0.01050318	          0.01032800	          0.01148132	          0.01332955	          0.01107216	          0.01118195	          0.08066973	          0.03354471	          0.46005077	          0.34939239	          0.07460194	          0.01204197	          0.01016791	          0.01011026	          0.14567992	          0.27540982	          0.01507745	          0.30707869	          0.18660113	          0.15164818	          0.09883610	          0.09706312	          0.09427829	          0.01237519	          0.01556463	          0.01050151	          0.01024077	          0.07199345	          0.01163687	          0.01103979	          0.02137607	          0.20791724	          0.04446855	          0.01003572	          0.10209750	          0.90263927	          0.01177132	          0.01205996	          0.01064763	          0.01151129	
          3.15000000	        -22.55848783	          3.33499789	         -2.99276613	          2.65292653	          0.79693558	         -0.04770291	         15.61772726	         -9.41643424	        -20.65377397	          5.60219353	          6.28670260	        -17.57904401	          2.70785460	          1.05832610	         18.98316637	         24.26653100	         15.70641281	          9.28577526	         -4.49509466	         -3.73129582	         17.28602278	        -36.07919462	        -36.91818631	        -41.78636900	          7.95394471	        -42.31886449	         24.17974615	         -5.37752013	         41.03372153	         41.70387722	         43.43545355	         97.90751046	         88.24332894	          0.60628444	          0.82693824	          0.04541749	          0.01034973	          0.50683919	          0.80977614	          0.01161795	          0.01669615	          0.42806326	          0.38415474	          0.35780498	          0.08838995	          0.01010331	          0.01006652	          0.01031056	          0.01015785	          0.29282205	          0.01005668	          0.01017457	          0.01073097	          0.01014766	          0.01026443	          0.01073755	          0.15820074	          0.01734822	          0.01018385	          0.01009615	          0.25415526	          0.71484775	          0.18162054	          0.24164778	          0.01013722	          0.01050615	          0.01002507	          0.01028352	          0.99966420	          0.50065634	          0.05323997	          0.05749178	          0.05420864	          0.19148173	          0.33685094	          0.16867096	          0.18544939	          0.13979537	          0.07761747	          0.18258627	          0.01890437	          0.83971163	          0.64674094	          0.01304726	          0.01065903	          0.01009369	          0.01006386	          0.02475568	          0.04638385	          0.15278460	          0.05158511	          0.03136002	          0.02545284	          0.01980973	          0.01712917	          0.01623612	          0.09260833	          0.01651670	          0.01034803	          0.01015986	          0.01222772	          0.01821917	          0.01118269	          0.01563200	          0.31855445	          0.16052735	          0.01002191	          0.01777005	          0.99924741	          0.77520687	          0.03295095	          0.04176338	          0.03507390	
          3.20000000	        -22.55651149	          4.49642171	          0.28601915	          2.65847878	          0.79358074	         -0.05242224	         16.23913142	         -7.54279668	        -23.78383314	          4.96020577	          6.29410354	        -15.09984670	          3.40766485	          1.74050507	         18.01395057	         24.83755513	         19.60735829	          4.98086530	         -2.48649288	         -3.45444964	         16.89702106	        -39.16678740	        -34.92379715	        -38.42024151	          5.89733982	        -43.23582566	         22.58565750	         -4.15883746	         40.54374536	         42.49962732	         43.38693948	         97.52872731	         87.55063220	          0.53164236	          0.79068990	          0.27032232	          0.01333743	          0.40428454	          0.41880314	          0.55587186	          0.12163133	          0.08517980	          0.22657886	          0.06010538	          0.41480463	          0.01022523	          0.01014197	          0.01051441	          0.01026260	          0.16285164	          0.01013082	          0.01034355	          0.01068834	          0.01033402	          0.01050541	          0.01089864	          0.24922484	          0.06350727	          0.01039464	          0.01020162	          0.04411963	          0.33879096	          0.03041104	          0.07428511	          0.04729480	          0.07826252	          0.01004321	          0.01042219	          0.78011125	          0.55326888	          0.01040955	          0.01014461	          0.01029094	          0.50357045	          0.96202442	          0.25843720	          0.32977767	          0.24715498	          0.09703190	          0.03093722	          0.01766841	          0.99964143	          0.99960438	          0.66169217	          0.01074289	          0.01003009	          0.01002011	          0.01040696	          0.01047031	          0.02591232	          0.01521820	          0.01035235	          0.01018652	          0.13043057	          0.01124744	          0.01049546	          0.16039525	          0.20965559	          0.01008477	          0.01003839	          0.01016039	          0.13438438	          0.01209753	          0.01385947	          0.21458388	          0.15838692	          0.01000703	          0.01503847	          0.99994959	          0.67852696	          0.06501610	          0.14549182	          0.08425645	
          3.25000000	        -22.30421358	          5.15554058	          2.38339453	          2.67139594	          0.78842594	         -0.05641745	         15.50381749	         -6.27281395	        -23.11554276	          4.70648015	          8.11588737	        -11.42690102	          3.67183905	          3.07749248	         16.67537054	         24.41987166	         20.36415121	         -0.69329391	         -2.14226511	         -3.72593400	         17.55863506	        -40.38320262	        -29.61275328	        -35.04740963	          6.00265328	        -44.54808731	         15.85406975	         -3.95717502	         40.90707217	         43.67388166	         43.69900747	         97.21108377	         87.46824544	          0.31010596	          0.52212905	          0.17635273	          0.18634741	          0.20853807	          0.10963918	          0.09299965	          0.02406028	          0.01437189	          0.03848537	          0.29511683	          0.29729315	          0.01102216	          0.01046587	          0.01174515	          0.01109274	          0.06159897	          0.01138703	          0.01118223	          0.01086814	          0.01620346	          0.01326232	          0.01196354	          0.11474051	          0.11747252	          0.01045302	          0.01023587	          0.01085137	          0.12599517	          0.01116228	          0.01616598	          0.12303494	          0.08089248	          0.01023153	          0.01303149	          0.38210487	          0.57556998	          0.01705418	          0.01228931	          0.01489112	          0.33114929	          0.59102704	          0.15117901	          0.20139769	          0.13717156	          0.04230281	          0.01137119	          0.01760636	          0.58763977	          0.55085158	          0.11097671	          0.01085938	          0.01007680	          0.01005107	          0.01039659	          0.01042089	          0.01084991	          0.09345728	          0.01043025	          0.01020803	          0.16469833	          0.01164230	          0.01060367	          0.08384548	          0.20446079	          0.01026682	          0.01012063	          0.01016016	          0.07018211	          0.01323636	          0.01410859	          0.17803236	          0.09522074	          0.01001790	          0.03703627	          0.99936810	          0.28475932	          0.06564870	          0.15713612	          0.08693266	
          3.30000000	        -22.35954958	          5.77979796	          3.79351300	          2.68929560	          0.78680013	         -0.05996452	         14.47138738	         -5.01691386	        -19.71080809	          4.82076689	          9.66891842	         -6.82575557	          3.58482353	          4.70899239	         15.04559898	         20.41308865	         18.03669497	         -8.57231778	         -3.24558433	         -4.29700284	         19.37715694	        -40.40779607	        -21.56361457	        -30.02188260	          8.75156236	        -46.17269326	          5.75373011	         -5.74847645	         38.06257397	         45.34027346	         45.17217408	         97.06238744	         87.21289465	          0.17263834	          0.46438261	          0.07627644	          0.03219253	          0.13789485	          0.19466792	          0.01769963	          0.02520721	          0.01173056	          0.06298249	          0.04954903	          0.04980050	          0.01111491	          0.01071554	          0.01114951	          0.01063617	          0.03416620	          0.01041640	          0.01080617	          0.01103745	          0.01110682	          0.01136998	          0.01175109	          0.04569116	          0.02012703	          0.01122490	          0.01066367	          0.01750673	          0.03792652	          0.03509102	          0.05137281	          0.02075748	          0.01657515	          0.01029094	          0.01121396	          0.22444899	          0.80533125	          0.02137833	          0.02006878	          0.02117848	          0.16374885	          0.19037587	          0.18830861	          0.31005495	          0.10307881	          0.01797074	          0.10813975	          0.01702013	          0.23823336	          0.15179670	          0.01909045	          0.01085140	          0.01041402	          0.01024744	          0.01033720	          0.01039894	          0.01252624	          0.19730255	          0.01059083	          0.01024399	          0.14954215	          0.01388999	          0.01090712	          0.05044894	          0.06335554	          0.09597578	          0.06541693	          0.01015227	          0.01655752	          0.01065134	          0.01398505	          0.03021029	          0.24288513	          0.01014062	          0.01797835	          0.39834975	          0.04757408	          0.05162331	          0.06234749	          0.05818686	
          3.35000000	        -22.54154596	          6.76041444	          5.67399236	          2.70679987	          0.78725208	         -0.06534146	         14.46388685	         -3.08841840	        -15.60214336	          4.87709575	          9.80137914	         -3.37334834	          5.01725194	          6.34842528	         14.31764638	         10.99553993	         14.12330224	        -19.73050392	         -4.58017691	        -10.08916910	         20.69990844	        -39.91420380	        -11.63998143	        -17.14616635	         10.78995083	        -48.49294660	         -7.62779641	         -7.53119613	         29.37648774	         48.24573394	         47.46889442	         98.04143287	         86.43123456	          0.99884864	          0.99980733	          0.29921486	          0.08259370	          0.62616161	          0.56019653	          0.01024276	          0.01577957	          0.01066049	          0.01281552	          0.51179913	          0.86540433	          0.01329269	          0.01061170	          0.01013286	          0.01008408	          0.01037389	          0.01018347	          0.01014500	          0.01010045	          0.01100606	          0.01039332	          0.01023558	          0.39396963	          0.90292691	          0.01017979	          0.01010202	          0.01016415	          0.99883197	          0.37097168	          0.02597755	          0.01017527	          0.01093583	          0.01067130	          0.01150212	          0.74569585	          0.67321928	          0.07439424	          0.14067289	          0.08934710	          0.02753579	          0.03186076	          0.03291896	          0.05847515	          0.01816250	          0.01165653	          0.06028333	          0.03304262	          0.04030262	          0.02579534	          0.01263513	          0.01184389	          0.20250308	          0.01150047	          0.02517470	          0.09706066	          0.05657817	          0.17184987	          0.01173868	          0.01091549	          0.02555463	          0.01103184	          0.01095694	          0.01484870	          0.01134983	          0.01959218	          0.02610726	          0.01128737	          0.01127061	          0.01095875	          0.01351807	          0.81628573	          0.11532000	          0.21910153	          0.01075027	          0.06646143	          0.01049868	          0.01096453	          0.01058336	          0.01076244	
          3.40000000	        -22.34289938	          7.70916996	          8.26762384	          2.72138393	          0.78557379	         -0.07518317	         13.72957099	         -3.83759182	        -11.60263245	          4.72817188	          8.41529523	         -2.20979009	          5.99370901	          8.31065449	         15.73296420	          2.29920068	         11.56944002	        -27.74500614	         -3.94619670	        -20.56285232	         20.12631037	        -37.29836656	          1.20732045	          4.56053786	          7.66656712	        -46.51270970	        -28.08399903	         -6.13774463	          3.18657231	         52.61097400	         53.99111332	        102.07530922	         88.30600591	          0.16654493	          0.16667678	          0.04998961	          0.01395588	          0.10444977	          0.09348614	          0.01068176	          0.06316302	          0.69738405	          0.35023101	          0.08546046	          0.14430408	          0.01021880	          0.01016137	          0.20983582	          0.21699242	          0.01043261	          0.40255752	          0.38989858	          0.45605470	          0.14001829	          0.20365365	          0.20906986	          0.06584065	          0.15067403	          0.06338916	          0.06146010	          0.42086037	          0.16662520	          0.12507665	          0.14025092	          0.01072864	          0.01134003	          0.01004960	          0.36688642	          0.65979589	          0.11226219	          0.01308088	          0.02359901	          0.01526140	          0.01002314	          0.01001435	          0.01004553	          0.01010445	          0.01004346	          0.01003709	          0.01008166	          0.17774421	          0.29593762	          0.01263729	          0.01114516	          0.01089988	          0.03431191	          0.77018362	          0.01018193	          0.01627903	          0.01002601	          0.99998115	          0.99995520	          0.99935698	          0.99993617	          0.99991098	          0.99987745	          0.01005757	          0.53328906	          0.46311640	          0.63780336	          0.01009429	          0.01007609	          0.71467380	          0.14925032	          0.13612259	          0.01928361	          0.03675408	          0.99997576	          0.01119038	          0.01082880	          0.01024307	          0.01007790	          0.01016927	
          3.45000000	        -22.00376549	          8.41972467	         10.10561312	          2.73637344	          0.78311911	         -0.09002328	         10.86525966	         -8.50201319	         -8.37082046	          4.54337695	          5.78619895	         -1.88622689	          4.88365946	         11.34784168	         18.01288995	         -1.08436648	         10.70564605	        -25.51665286	         -2.11038265	        -32.90894948	         18.99380719	        -30.78237990	         15.23798539	         31.64369619	         -0.84743595	        -28.35873340	        -57.63393577	          0.02859344	        -53.17696543	         57.41313194	         67.75462225	        106.16453166	         99.37219455	          0.04965436	          0.09184488	          0.01442598	          0.01103135	          0.02750834	          0.13369929	          0.01387380	          0.01748106	          0.47670196	          0.30988200	          0.09354763	          0.02441785	          0.01016066	          0.01010415	          0.03604562	          0.03676896	          0.05977483	          0.06724231	          0.06528526	          0.07659324	          0.02378956	          0.03459593	          0.03626488	          0.03286698	          0.02667074	          0.01112651	          0.01052253	          0.07669856	          0.11932998	          0.20182959	          0.06702350	          0.01056144	          0.01205564	          0.01004064	          0.06146961	          0.94200258	          0.01962674	          0.03128181	          0.03584864	          0.03188051	          0.01003015	          0.01001969	          0.01006180	          0.01030427	          0.01004513	          0.01003734	          0.01004624	          0.03189948	          0.04958218	          0.01297267	          0.14230929	          0.21727630	          0.39907252	          0.30153192	          0.01006806	          0.01006350	          0.01002593	          0.99997084	          0.99979226	          0.16660861	          0.99991411	          0.99968089	          0.16837639	          0.01006452	          0.81803801	          0.07736903	          0.10645304	          0.01004799	          0.01008182	          0.12013490	          0.02531365	          0.39876587	          0.01030027	          0.51052042	          0.64121734	          0.01081100	          0.38988324	          0.01381512	          0.01094860	          0.01234106	
          3.50000000	        -21.38053128	          7.57142580	         12.10822449	          2.76372879	          0.79429758	         -0.10734009	          7.50147631	        -14.20926052	         -6.42860507	          5.32621713	          3.99980012	         -1.45610726	          3.16976086	         15.15164035	         19.28619830	          1.18040165	         10.59660947	        -21.18757442	         -1.14117969	        -31.02947798	         18.58483006	        -21.33897428	         22.76617449	         58.31699206	         -7.74734132	         -2.04657253	        -93.43135489	          4.64943181	       -117.61047043	         66.47838126	         76.64386733	        105.31946646	        109.06721178	          0.01199350	          0.01561950	          0.01540600	          0.02615985	          0.01287985	          0.02285623	          0.02856971	          0.01850052	          0.48416597	          0.37013080	          0.03926497	          0.01134435	          0.01015135	          0.01009981	          0.07078950	          0.10624806	          0.01756082	          0.08759502	          0.06162257	          0.05178601	          0.04536609	          0.03771382	          0.03445063	          0.01516085	          0.01593084	          0.01051378	          0.01025024	          0.02203515	          0.02073787	          0.03454423	          0.01724887	          0.08613821	          0.02736332	          0.01003764	          0.04634513	          0.96140377	          0.07471896	          0.04923376	          0.10284349	          0.06131199	          0.07438822	          0.18402453	          0.02213496	          0.01702392	          0.03507233	          0.03855529	          0.01414104	          0.02236226	          0.58087683	          0.27384657	          0.02411262	          0.03634144	          0.06654062	          0.05027448	          0.01385371	          0.01187742	          0.01269910	          0.16674847	          0.16677743	          0.02874822	          0.16692144	          0.16682570	          0.02886411	          0.03533244	          0.13662234	          0.32598659	          0.53625367	          0.07960684	          0.07365249	          0.14344467	          0.03495212	          0.06660269	          0.01534707	          0.08509483	          0.10706757	          0.89736601	          0.06503412	          0.03097119	          0.03999146	          0.03272568	
          3.55000000	        -19.95278293	          4.46356232	         15.23739966	          2.79703175	          0.81879099	         -0.12540776	          4.85593721	        -20.05667163	         -5.98224666	          7.88136110	          3.89432421	         -2.45325312	          1.90298281	         18.43262093	         19.40062821	          5.49306017	         11.53687160	        -21.51620945	         -0.66579469	        -16.47652363	         17.96682219	        -10.86391408	         21.20492459	         77.33610254	         -9.50239956	         12.74754238	       -113.57853770	          5.88986378	       -148.17944701	         73.12378022	         72.99539948	        100.73401459	        107.19107641	          0.01117374	          0.01060792	          0.01159480	          0.01367404	          0.01105776	          0.01117500	          0.01284758	          0.01905940	          0.48475711	          0.36663559	          0.08644212	          0.01261011	          0.01016313	          0.01010726	          0.15507179	          0.20905226	          0.01273622	          0.24791383	          0.17208588	          0.15816366	          0.09141050	          0.07569941	          0.02645777	          0.01310723	          0.01658907	          0.01045787	          0.01023203	          0.03142045	          0.01242874	          0.05927222	          0.03345755	          0.01783807	          0.01492482	          0.01003944	          0.08009988	          0.97806209	          0.10744158	          0.04083312	          0.07223505	          0.04909582	          0.12104815	          0.20811021	          0.01476967	          0.01177282	          0.05238990	          0.10328563	          0.01102079	          0.02113573	          0.38295334	          0.17013615	          0.01163862	          0.01056571	          0.01114640	          0.01008590	          0.01443010	          0.01134133	          0.01274693	          0.02801767	          0.02828809	          0.02473233	          0.02831873	          0.02878670	          0.02984299	          0.05794163	          0.04914461	          0.20528632	          0.38531823	          0.15684312	          0.12442552	          0.30264880	          0.05143216	          0.01131209	          0.01148719	          0.01419498	          0.04871879	          0.44276293	          0.01102494	          0.03228223	          0.04662670	          0.03534168	
          3.60000000	        -18.78335752	          0.95703092	         18.12787055	          2.82639518	          0.83412343	         -0.14232217	          2.67446501	        -25.23982570	         -6.44160762	         10.69914318	          4.62519997	         -5.78770604	          1.03121103	         18.44342922	         18.92811625	          6.78370047	         13.33885337	        -22.26813431	         -0.44231355	         -7.58449834	         18.44592976	         -1.25063882	         17.00065818	         86.08032451	         -9.80957252	         19.32806545	       -112.80134572	          9.08914683	       -145.50112540	         68.68508032	         68.21747842	         94.83169698	        103.00568048	          0.01175659	          0.01110469	          0.01262842	          0.01580891	          0.01133224	          0.01147368	          0.01420653	          0.01736755	          0.50590830	          0.35625881	          0.08310758	          0.01523386	          0.01017048	          0.01011240	          0.12067623	          0.14328342	          0.01303054	          0.19923500	          0.11998644	          0.08340272	          0.08711382	          0.04940511	          0.09349250	          0.01425038	          0.01701694	          0.01044608	          0.01022507	          0.07809856	          0.01307614	          0.02179706	          0.01881991	          0.06372811	          0.01790200	          0.01004065	          0.03983480	          0.97347574	          0.18052664	          0.05708565	          0.12170012	          0.07246281	          0.15504220	          0.28988688	          0.01294283	          0.01101148	          0.04380743	          0.12026975	          0.01051440	          0.02192761	          0.25935699	          0.13979035	          0.01234061	          0.01079798	          0.01019924	          0.01015611	          0.01142756	          0.01058138	          0.01089183	          0.01045744	          0.01118720	          0.01454659	          0.01160798	          0.01549693	          0.01657154	          0.05527006	          0.15716891	          0.19685387	          0.25647159	          0.11668617	          0.25116820	          0.60315647	          0.09133479	          0.01023899	          0.01084957	          0.01005832	          0.03630908	          0.37629300	          0.01039380	          0.02979178	          0.03785650	          0.03186127	
          3.65000000	        -18.51330887	         -2.30385324	         20.17356813	          2.85082671	          0.83176951	         -0.15512376	          0.97033978	        -29.18344473	         -6.11441545	         12.84090645	          7.34554132	        -10.36154101	          0.32866938	         13.56365966	         18.89844933	          8.39323704	         14.14996376	        -19.90733380	         -0.33900638	         -2.73976372	         19.90793192	          7.45318895	         13.31133442	         85.95201466	         -9.83203183	         20.40887255	       -103.86028728	         11.30343792	       -129.94347053	         61.61665515	         67.93603997	         90.51620694	        102.02975351	          0.01181469	          0.01122338	          0.01206535	          0.02155820	          0.01111515	          0.01107570	          0.01185179	          0.01692077	          0.72580497	          0.54729119	          0.10440611	          0.01515486	          0.01012818	          0.01008485	          0.10962715	          0.13291631	          0.01115727	          0.21224377	          0.16124488	          0.14254655	          0.10728840	          0.06930615	          0.07463786	          0.01375817	          0.01939396	          0.01037875	          0.01018703	          0.03611235	          0.01244665	          0.01720897	          0.01836805	          0.09691434	          0.01470490	          0.01002929	          0.05412491	          0.99911607	          0.24934544	          0.06341947	          0.14069391	          0.08302960	          0.27743986	          0.51750960	          0.01110589	          0.01059149	          0.04521182	          0.14937246	          0.01020825	          0.01850932	          0.17409114	          0.10708266	          0.01503254	          0.01318528	          0.01031742	          0.01017782	          0.01046293	          0.01022580	          0.01034795	          0.01045081	          0.01067650	          0.01064133	          0.01122445	          0.01345502	          0.01258796	          0.05642484	          0.30748817	          0.03355230	          0.04301068	          0.01983860	          0.49601781	          0.70793460	          0.17939589	          0.01012229	          0.01042374	          0.01010444	          0.14784597	          0.59607237	          0.01254443	          0.04598099	          0.10840226	          0.05934711	
          3.70000000	        -17.82146004	         -5.42971596	         21.97389773	          2.86364802	          0.81583354	         -0.16374697	         -0.37138712	        -31.08566698	         -4.39210357	         14.41234134	         11.90921441	        -16.47590628	          0.00097894	          7.50077574	         19.89348641	         14.42989282	         13.91644623	        -12.21353570	         -0.29314616	         -1.83531363	         19.39312770	         16.35500125	          8.70463015	         75.41480007	         -7.87938984	         20.56400621	        -86.16909013	         10.22285431	       -106.67954289	         54.01647878	         68.68414870	         89.21480269	        102.58554709	          0.01107593	          0.01075569	          0.01203158	          0.06056998	          0.01077472	          0.01049819	          0.01295615	          0.01711745	          0.95439189	          0.80425463	          0.20795882	          0.01103841	          0.01006402	          0.01004241	          0.41425611	          0.20191214	          0.01060171	          0.53795754	          0.32929733	          0.02479834	          0.28953477	          0.01492671	          0.01718322	          0.01180870	          0.01074966	          0.01019612	          0.01009562	          0.01542739	          0.01047535	          0.01044454	          0.01062453	          0.13362072	          0.05993963	          0.01001412	          0.01464469	          0.99979598	          0.26651007	          0.05964793	          0.13015636	          0.07757491	          0.34312538	          0.63089234	          0.01365590	          0.01128421	          0.07426348	          0.09943529	          0.01014733	          0.01592123	          0.29733367	          0.26578643	          0.13441267	          0.05689955	          0.01020377	          0.01015981	          0.01015807	          0.01010216	          0.01024994	          0.01045681	          0.01023995	          0.01015018	          0.11078014	          0.01074351	          0.01039360	          0.07103074	          0.84887822	          0.01030978	          0.01016271	          0.01054745	          0.81352838	          0.47817533	          0.10432705	          0.01011800	          0.01049156	          0.01003785	          0.26876572	          0.82014614	          0.49202606	          0.09382169	          0.20913502	          0.12250663	
          3.75000000	        -16.64621921	         -8.28917517	         24.47856739	          2.86705725	          0.79352086	         -0.16910389	         -1.62420653	        -30.13565207	         -2.54307819	         15.23316206	         15.78267836	        -22.74383403	          0.57604551	          5.01368486	         20.57150760	         19.88025323	         13.63723289	         -7.26127841	         -0.26829175	         -4.93619742	         17.64149981	         26.22882982	          1.45647693	         42.91829829	         -2.71218355	         36.81186148	        -58.21199657	          8.32943124	        -76.23895257	         42.48709716	         70.09293326	         89.51496136	        102.99648007	          0.01049563	          0.01046302	          0.01011586	          0.01018633	          0.01015630	          0.01035105	          0.01007286	          0.01743498	          0.83228791	          0.69790404	          0.14230753	          0.01072148	          0.01005834	          0.01003863	          0.06998697	          0.03380562	          0.01008612	          0.37808439	          0.68429210	          0.92485359	          0.40336644	          0.57311015	          0.04285713	          0.01069657	          0.80931277	          0.01017712	          0.01008609	          0.06416996	          0.29196762	          0.71685993	          0.88128447	          0.02228723	          0.01021040	          0.01001273	          0.36284710	          0.99985743	          0.19003249	          0.05968819	          0.12578060	          0.07604202	          0.05724828	          0.10518097	          0.01033596	          0.01027935	          0.01278238	          0.01716457	          0.01071508	          0.05927817	          0.05001007	          0.04469681	          0.02320273	          0.01621774	          0.23317474	          0.36015028	          0.56453291	          0.24076161	          0.01047662	          0.70752304	          0.99948364	          0.99980140	          0.02142737	          0.42539031	          0.84765291	          0.01205261	          0.14159470	          0.07431716	          0.18018361	          0.99980403	          0.13570222	          0.13458124	          0.19808723	          0.01027974	          0.01061054	          0.02384349	          0.35454658	          0.13678297	          0.08218755	          0.01606108	          0.03496776	          0.02066880	
          3.80000000	        -16.09159476	         -9.86632297	         26.75422152	          2.88206634	          0.78001081	         -0.16926178	         -2.46018135	        -27.79263320	         -1.42269919	         15.42282120	         17.77481336	        -26.21665109	          1.77286844	          6.27892308	         19.21160050	         20.48948083	         12.85114199	        -10.24655749	         -0.25681909	         -9.55316673	         17.36647564	         34.74261779	         -6.89832282	          4.73134622	          3.32966276	         58.06604041	        -33.16828889	          7.79726840	        -49.50240601	         29.96853236	         71.81053022	         91.25496398	        103.19645694	          0.01055836	          0.01041983	          0.01032021	          0.01042008	          0.01028656	          0.01033893	          0.01025171	          0.02016760	          0.44790019	          0.32220325	          0.05669324	          0.01299750	          0.01016486	          0.01010826	          0.34974836	          0.03076564	          0.01019109	          0.75967819	          0.60035873	          0.35337624	          0.45692158	          0.19419692	          0.02465564	          0.01089454	          0.13534691	          0.01041629	          0.01021093	          0.01741095	          0.04889795	          0.19820481	          0.14762368	          0.01019665	          0.01063493	          0.01003891	          0.19914699	          0.82101620	          0.06640928	          0.03665062	          0.05942860	          0.04203306	          0.01027702	          0.01758917	          0.01048259	          0.01043240	          0.01161226	          0.01397810	          0.01054793	          0.05379265	          0.02474143	          0.02642637	          0.02569491	          0.01970710	          0.11787879	          0.33087773	          0.09453371	          0.04047289	          0.01035543	          0.41132745	          0.53172408	          0.81897915	          0.10795151	          0.18506116	          0.18293594	          0.01073563	          0.02416029	          0.02240527	          0.03158433	          0.32735447	          0.02301102	          0.25523303	          0.12233895	          0.01035745	          0.01083486	          0.11437768	          0.46433874	          0.05087083	          0.01632409	          0.01086934	          0.01027074	          0.01058690	
          3.85000000	        -16.30601763	         -9.30692529	         28.53190774	          2.91690457	          0.77915081	         -0.16394337	         -2.88300638	        -25.72969631	         -0.98622582	         15.04939256	         18.08878056	        -27.38259748	          2.63981466	          9.19536538	         15.83487709	         18.68238084	         11.70546164	        -14.72776406	         -0.25728866	        -12.75509513	         19.39397427	         38.76711183	         -9.88528277	        -19.07084265	          8.99317044	         62.84696479	        -22.32856878	          8.95888409	        -37.67695380	         14.90078093	         72.84217803	         99.06280626	        102.68342428	          0.01067133	          0.01048847	          0.01051222	          0.01090654	          0.01040161	          0.01043126	          0.01044102	          0.01861429	          0.29689232	          0.14799774	          0.01493598	          0.01105599	          0.01043659	          0.01030308	          0.20064782	          0.07745956	          0.01028646	          0.66597881	          0.44663922	          0.24331780	          0.34079209	          0.14727672	          0.02273181	          0.01101718	          0.02660026	          0.01586763	          0.01245545	          0.01599996	          0.01083353	          0.03449563	          0.07049878	          0.01097295	          0.01127792	          0.01011469	          0.15475688	          0.54138790	          0.01146603	          0.04225277	          0.07807363	          0.05052104	          0.01034109	          0.01020875	          0.01042060	          0.01041956	          0.01175720	          0.01396476	          0.01034841	          0.06884790	          0.01596622	          0.02148426	          0.04031120	          0.06773017	          0.19619013	          0.24837368	          0.01609274	          0.01064246	          0.01025609	          0.52454010	          0.29219435	          0.22353064	          0.19133175	          0.21461123	          0.19666228	          0.01090847	          0.19539293	          0.01460712	          0.01171967	          0.25714305	          0.01415452	          0.47278035	          0.17730774	          0.01027595	          0.01071946	          0.05388564	          0.55242239	          0.04392460	          0.25299721	          0.01087705	          0.01029350	          0.01062142	
          3.90000000	        -17.00303560	         -7.33610664	         30.67018518	          2.95511034	          0.77879628	         -0.15617585	         -2.83419726	        -23.81258041	         -0.58740654	         14.32867223	         16.81365823	        -27.42552777	          3.00606801	         12.53979352	         11.75350864	         16.81202303	         10.61795613	        -17.28482114	         -0.26323490	        -15.58633433	         22.23536676	         39.75100926	         -7.76395619	        -35.79011336	         13.53583595	         53.16688199	        -18.15869398	         10.24471905	        -34.64855934	          0.64085424	         74.53505999	        113.82772851	        101.38074933	          0.01133112	          0.01092060	          0.01127937	          0.01534302	          0.01089317	          0.01091009	          0.01118529	          0.02017237	          0.19749414	          0.11115299	          0.01537673	          0.01180739	          0.01048997	          0.01029051	          0.09862300	          0.07319916	          0.01064463	          0.33327677	          0.19241993	          0.09752406	          0.14068630	          0.06378356	          0.02325665	          0.01276281	          0.01530678	          0.03515128	          0.02503277	          0.01438375	          0.01220144	          0.01412093	          0.03024560	          0.03226936	          0.01660810	          0.01012085	          0.07442945	          0.37377437	          0.01089975	          0.04539434	          0.08371360	          0.05554486	          0.01037740	          0.01021849	          0.01035029	          0.01033577	          0.01130452	          0.01320803	          0.01022696	          0.05358334	          0.01647682	          0.04305255	          0.08776771	          0.13636708	          0.17799327	          0.16454946	          0.01052875	          0.01043348	          0.01018561	          0.39666598	          0.18266878	          0.09731923	          0.18808010	          0.18307467	          0.14739108	          0.01081127	          0.27433454	          0.01129610	          0.01051071	          0.08374861	          0.05703123	          0.46239928	          0.16869902	          0.01018209	          0.01052000	          0.24466843	          0.44037788	          0.24602981	          0.26835968	          0.01078292	          0.01023979	          0.01053998	
          3.95000000	        -17.48264175	         -3.68021846	         32.82146718	          2.98822122	          0.77786607	         -0.14664339	         -2.58783827	        -20.31275799	         -0.55916407	         12.00660130	         14.24561227	        -26.49021191	          3.59634237	         15.04615906	          6.31651819	         16.13440417	          8.67226983	        -16.98735182	         -0.24441255	        -19.25562627	         22.28707796	         40.16893178	         -5.12470292	        -50.43770040	         14.48128845	         45.76263176	        -13.32370667	          9.01418915	        -35.57394834	         -4.50728555	         77.11472581	        121.73379693	        100.73593794	          0.01374123	          0.01347210	          0.01474787	          0.01958132	          0.01443169	          0.01527522	          0.02739764	          0.01774221	          0.03385558	          0.02710792	          0.02396867	          0.02116146	          0.02706475	          0.07767235	          0.08021344	          0.10955366	          0.04008351	          0.10505867	          0.04886755	          0.08431750	          0.03474360	          0.04265369	          0.02773222	          0.01639689	          0.01502121	          0.01609290	          0.01431660	          0.03465820	          0.01492754	          0.04895552	          0.01808810	          0.03390148	          0.01977905	          0.04578005	          0.03700719	          0.10145019	          0.02341817	          0.03920831	          0.09897219	          0.04577420	          0.01067645	          0.03127176	          0.01396085	          0.01715703	          0.01434345	          0.01417523	          0.01913334	          0.01725274	          0.01985403	          0.02019738	          0.05854738	          0.10001284	          0.04402135	          0.03437195	          0.08102092	          0.21777606	          0.01594024	          0.27924512	          0.13858772	          0.09310305	          0.08002430	          0.05243545	          0.02876358	          0.01496857	          0.04636261	          0.01763219	          0.02246171	          0.05259488	          0.01209490	          0.07764245	          0.03006924	          0.02554561	          0.01772178	          0.22219112	          0.07872618	          0.12612266	          0.20131785	          0.02709073	          0.03041127	          0.02740035	
          4.00000000	        -17.22843525	          2.99272726	         34.02191453	          3.01893530	          0.78054581	         -0.13423124	         -3.15753321	        -12.74033670	         -1.88731150	          6.69451572	          9.56846534	        -25.48430132	          5.54375947	         15.43414738	         -2.52203688	         16.88040277	          4.47529104	        -12.18407593	        -12.67627455	        -27.87632903	         17.50153929	         39.86527202	         -1.28367135	        -65.96799637	         12.97572034	         44.30196095	         -4.17011097	          3.67028372	        -37.25262492	         -4.66274228	         78.02010895	        119.80581811	        101.89424564	          0.04684258	          0.04684593	          0.04252776	          0.03846107	          0.04509993	          0.04587247	          0.03801829	          0.04401003	          0.03389566	          0.03513494	          0.03741165	          0.03832395	          0.04045074	          0.02761451	          0.02659195	          0.02200641	          0.03575643	          0.02004796	          0.03234817	          0.02651256	          0.03301671	          0.03398932	          0.03780394	          0.04673649	          0.04637344	          0.04290184	          0.04008339	          0.03698321	          0.04818337	          0.03187934	          0.04358654	          0.03692542	          0.04217763	          0.03381731	          0.03480713	          0.02034394	          0.03798601	          0.03265228	          0.02066794	          0.03057804	          0.05760464	          0.04258517	          0.04976643	          0.04123113	          0.04911880	          0.04922510	          0.03934295	          0.04252681	          0.04073332	          0.03811317	          0.02760274	          0.02037886	          0.03104390	          0.03338474	          0.02170817	          0.03780853	          0.04722159	          0.04749897	          0.02590381	          0.02005476	          0.02184904	          0.02889143	          0.04006788	          0.04878262	          0.03790354	          0.04415837	          0.04086145	          0.02964316	          0.05316989	          0.02709730	          0.03983976	          0.03570359	          0.04123639	          0.03839639	          0.01997433	          0.02290709	          0.03520792	          0.03707959	          0.03553366	          0.03691429	
