Coordinates
version=1
nRows=21
nColumns=114
inDegrees=yes

Units are S.I. units (second, meters, Newtons, ...)
If the header above contains a line with 'inDegrees', this indicates whether rotational values are in degrees (yes) or radians (no).

endheader 
time	pelvis_tilt	pelvis_list	pelvis_rotation	pelvis_tx	pelvis_ty	pelvis_tz	hip_flexion_l	hip_adduction_l	hip_rotation_l	hip_flexion_r	hip_adduction_r	hip_rotation_r	knee_angle_l	knee_angle_r	ankle_angle_l	ankle_angle_r	subtalar_angle_l	subtalar_angle_r	mtp_angle_l	mtp_angle_r	lumbar_extension	lumbar_bending	lumbar_rotation	arm_flex_l	arm_add_l	arm_rot_l	arm_flex_r	arm_add_r	arm_rot_r	elbow_flex_l	elbow_flex_r	pro_sup_l	pro_sup_r	addbrev_l/activation	addlong_l/activation	addmagDist_l/activation	addmagIsch_l/activation	addmagMid_l/activation	addmagProx_l/activation	bflh_l/activation	bfsh_l/activation	edl_l/activation	ehl_l/activation	fdl_l/activation	fhl_l/activation	gaslat_l/activation	gasmed_l/activation	glmax1_l/activation	glmax2_l/activation	glmax3_l/activation	glmed1_l/activation	glmed2_l/activation	glmed3_l/activation	glmin1_l/activation	glmin2_l/activation	glmin3_l/activation	grac_l/activation	iliacus_l/activation	perbrev_l/activation	perlong_l/activation	piri_l/activation	psoas_l/activation	recfem_l/activation	sart_l/activation	semimem_l/activation	semiten_l/activation	soleus_l/activation	tfl_l/activation	tibant_l/activation	tibpost_l/activation	vasint_l/activation	vaslat_l/activation	vasmed_l/activation	addbrev_r/activation	addlong_r/activation	addmagDist_r/activation	addmagIsch_r/activation	addmagMid_r/activation	addmagProx_r/activation	bflh_r/activation	bfsh_r/activation	edl_r/activation	ehl_r/activation	fdl_r/activation	fhl_r/activation	gaslat_r/activation	gasmed_r/activation	glmax1_r/activation	glmax2_r/activation	glmax3_r/activation	glmed1_r/activation	glmed2_r/activation	glmed3_r/activation	glmin1_r/activation	glmin2_r/activation	glmin3_r/activation	grac_r/activation	iliacus_r/activation	perbrev_r/activation	perlong_r/activation	piri_r/activation	psoas_r/activation	recfem_r/activation	sart_r/activation	semimem_r/activation	semiten_r/activation	soleus_r/activation	tfl_r/activation	tibant_r/activation	tibpost_r/activation	vasint_r/activation	vaslat_r/activation	vasmed_r/activation	
          1.00000000	        -22.19858984	         -4.92690665	          0.50512905	          1.43452792	          0.76504709	         -0.16037617	         10.60769493	         -7.37034417	        -18.51368582	          2.90044491	         -2.11971248	        -16.09030351	          1.52362586	         17.00335680	         17.17621090	         13.62810183	         21.94710159	         -7.69866914	          0.93568473	        -44.99982620	         11.30604035	         -2.64973332	          4.40909737	         14.00838736	        -19.09895846	         19.52163008	        -26.67383488	          7.36800146	        -28.19873784	         53.43855846	         53.98520823	         90.38544780	         92.45059519	          0.01000288	          0.01000152	          0.01000406	          0.01000438	          0.01000353	          0.01000636	          0.01002898	          0.08974573	          0.08239139	          0.16401740	          0.11256286	          0.01001215	          0.01000377	          0.01000266	          0.23542302	          0.22621658	          0.01000594	          0.20835182	          0.31740142	          0.46824021	          0.03045945	          0.12825952	          0.18755361	          0.01001012	          0.01001196	          0.01000897	          0.01000432	          0.24657823	          0.01001735	          0.01000481	          0.15317804	          0.01001910	          0.01002457	          0.01000069	          0.30947303	          0.60384272	          0.34360585	          0.01000472	          0.01000167	          0.01000337	          0.03195916	          0.09499185	          0.01000583	          0.01000515	          0.01001503	          0.06283602	          0.01000438	          0.06972158	          0.24361611	          0.12014515	          0.01003250	          0.01001314	          0.01000723	          0.01000491	          0.01000808	          0.01000354	          0.01000266	          0.01000665	          0.01002676	          0.03482241	          0.01002340	          0.01078515	          0.06949196	          0.02750095	          0.11640611	          0.01007701	          0.26957150	          0.12139916	          0.20771942	          0.18392935	          0.13834032	          0.01000520	          0.01001320	          0.01000117	          0.05942736	          0.42594652	          0.01000607	          0.01000242	          0.01000079	          0.01000169	
          1.05000000	        -20.01782950	         -9.65183452	          2.57806763	          1.44661686	          0.78472903	         -0.16808055	          7.68992357	        -11.99040088	        -15.57121586	          6.42306536	          2.37895888	        -16.50544193	          0.90922328	         20.58447889	         18.16902403	         13.51562978	         22.80277372	        -11.90359369	         -0.68988622	        -24.31496364	         10.18999621	          3.24877456	          2.63401898	          9.06420110	        -18.09769597	         23.21933530	        -30.54212702	          5.33793941	        -30.62343249	         55.88664397	         48.97895379	         90.61210156	         91.94865361	          0.01000237	          0.01000135	          0.01000210	          0.01000208	          0.01000209	          0.01000414	          0.01000253	          0.14136484	          0.01373562	          0.02735784	          0.01876803	          0.31794360	          0.01008399	          0.01001696	          0.04099277	          0.03770709	          0.01000207	          0.09116980	          0.26842298	          0.36768226	          0.06159745	          0.16754463	          0.12183592	          0.01000684	          0.01122731	          0.01000766	          0.01000393	          0.04120240	          0.01001677	          0.07921496	          0.22927847	          0.01000187	          0.01000521	          0.01000172	          0.05159085	          0.22080774	          0.46225445	          0.01000247	          0.01000091	          0.01000177	          0.07807653	          0.09591506	          0.04625816	          0.01003811	          0.06888219	          0.07164835	          0.02794060	          0.01164261	          0.26806943	          0.13897710	          0.01002865	          0.01001005	          0.01000261	          0.01000169	          0.01003768	          0.01001511	          0.08088278	          0.01000507	          0.01001538	          0.02736473	          0.01001257	          0.01002001	          0.01159614	          0.04401522	          0.01941473	          0.18703092	          0.17804118	          0.10594609	          0.03465539	          0.03099523	          0.02307303	          0.01001361	          0.01003646	          0.01000084	          0.01001504	          0.44347528	          0.01000561	          0.01769376	          0.03990799	          0.02164270	
          1.10000000	        -18.98518345	        -14.43100769	          2.56695451	          1.46528750	          0.80158376	         -0.17022523	          5.14600087	        -17.47219329	        -15.98728039	          9.83457352	          7.86089129	        -22.18693357	          0.48021882	         15.81698774	         18.73798007	         13.19540913	         24.71083561	         -9.82173814	         -3.63039566	        -13.07276051	         11.59832451	          9.90005925	          1.46078559	          1.07410853	        -16.86934785	         24.69095301	        -33.92535434	          2.24127706	        -32.77675736	         58.06409510	         44.26450493	         91.11282232	         91.28828657	          0.01000417	          0.01000298	          0.01000126	          0.01000098	          0.01000179	          0.01000877	          0.01000071	          0.02356955	          0.01000855	          0.01003230	          0.35311486	          0.42607682	          0.01000291	          0.01000186	          0.01000354	          0.01000165	          0.01000105	          0.01519580	          0.04474079	          0.13369785	          0.01026895	          0.11351339	          0.03998990	          0.01000564	          0.32738319	          0.01000417	          0.01000206	          0.10069061	          0.55338052	          0.72724972	          0.46825328	          0.01000043	          0.01000143	          0.01000076	          0.53782211	          0.49042067	          0.62729208	          0.03421854	          0.09259198	          0.04310332	          0.01303940	          0.01600762	          0.02701362	          0.02032013	          0.01213772	          0.01224717	          0.07029527	          0.01008355	          0.26575175	          0.14495744	          0.01003236	          0.01001056	          0.01000224	          0.01000144	          0.03213366	          0.01602857	          0.06863925	          0.01001316	          0.01026527	          0.04234376	          0.01002658	          0.01003027	          0.01003831	          0.01093215	          0.01003864	          0.10105443	          0.13508953	          0.04709260	          0.01011332	          0.01004179	          0.01005104	          0.03529854	          0.01416116	          0.01000087	          0.01003973	          0.44642940	          0.01000695	          0.02497976	          0.07188429	          0.03558922	
          1.15000000	        -19.51577880	        -16.91657641	          1.01162377	          1.48168151	          0.81246809	         -0.16571521	          3.86631225	        -20.84079735	        -17.57031688	         13.31751773	         12.42904914	        -31.73943707	          0.34243771	          5.71485666	         19.28049230	         12.13398709	         25.89980802	         -2.78692301	         -6.16913984	         -7.03018853	         13.97170660	         13.75785699	          2.41049761	         -5.31378375	        -16.16605439	         23.43419336	        -32.14903327	         -1.14140629	        -32.70746330	         60.80901791	         43.02269880	         92.08433284	         90.51551487	          0.01000335	          0.01000251	          0.01000051	          0.01000035	          0.01000091	          0.22075740	          0.01000023	          0.01001086	          0.01000678	          0.28374250	          0.29232272	          0.44872921	          0.01000095	          0.01000066	          0.01000078	          0.01000044	          0.01000042	          0.01000038	          0.01000149	          0.10581387	          0.01000117	          0.05014911	          0.04942498	          0.01000297	          0.99996735	          0.01000187	          0.01000087	          0.06302849	          0.99999752	          0.91302448	          0.99999775	          0.01000012	          0.01000049	          0.01000024	          0.47486535	          0.89348379	          0.62229084	          0.09318803	          0.21593884	          0.13725404	          0.01001437	          0.01000802	          0.01004953	          0.01004649	          0.01004426	          0.01003490	          0.03778449	          0.01007011	          0.29854082	          0.13948718	          0.01004106	          0.01001272	          0.01000264	          0.01000173	          0.05998010	          0.05998890	          0.03778141	          0.05241389	          0.06083889	          0.12037669	          0.01076632	          0.03111671	          0.06111145	          0.01004199	          0.01001781	          0.08173534	          0.08260195	          0.02872263	          0.01000550	          0.01001171	          0.01002535	          0.01768437	          0.01009355	          0.01000093	          0.01003220	          0.48770401	          0.01000956	          0.02201584	          0.05632384	          0.03142874	
          1.20000000	        -21.58539348	        -16.30037187	         -0.74384988	          1.48662821	          0.81562453	         -0.15784562	          5.01378933	        -20.86802913	        -17.92005017	         19.73949460	         13.86344438	        -38.66252328	          0.57914869	          0.11644404	         19.80020100	         11.06355293	         25.45245190	          1.37690113	         -7.49790361	         -3.78327097	         15.20110370	         13.94877644	          7.55838347	         -4.20257759	        -15.79505823	         23.16520292	        -27.68360924	         -3.03323973	        -30.46291437	         61.64220764	         45.35555452	         93.62694987	         89.64961327	          0.01000512	          0.01000344	          0.01000246	          0.01000212	          0.01000302	          0.03679455	          0.01000584	          0.14503397	          0.01003801	          0.11334589	          0.21836815	          0.35720288	          0.01000331	          0.01000131	          0.01002533	          0.01000889	          0.01000254	          0.01000786	          0.22109736	          0.47119004	          0.01001911	          0.19668191	          0.02155913	          0.01001292	          0.16666290	          0.01000321	          0.01000150	          0.01862114	          0.16666870	          0.15217151	          0.16669597	          0.01000485	          0.01000562	          0.01000036	          0.09149301	          0.63836953	          0.54404482	          0.01553188	          0.03599000	          0.02287606	          0.02475291	          0.07276564	          0.01000275	          0.01000143	          0.01002048	          0.02008053	          0.01000071	          0.01004588	          0.35904330	          0.16129187	          0.01002353	          0.01000826	          0.01000301	          0.01000204	          0.01000133	          0.01000066	          0.01000090	          0.01000272	          0.01014127	          0.02006479	          0.01000937	          0.01001266	          0.01019331	          0.01000846	          0.11442781	          0.07024585	          0.07215111	          0.16480644	          0.77391765	          0.51544761	          0.19862973	          0.01000047	          0.01000172	          0.01000074	          0.20494686	          0.53433682	          0.01000541	          0.04253011	          0.10785658	          0.05752486	
          1.25000000	        -23.26909462	        -15.30987338	         -0.28205209	          1.48946244	          0.81185822	         -0.15257214	          6.67881753	        -20.16004102	        -15.52280444	         26.04250697	         13.39037075	        -39.99999598	          0.80876098	          0.35735851	         20.15799266	         10.20351598	         24.02059467	         -0.88213648	         -8.21727661	         -2.03994769	         14.96457378	         13.63608271	         14.41252738	          2.80996412	        -14.59643626	         32.75861077	        -29.32777061	         -1.57399143	        -30.86871994	         56.00048505	         49.80707980	         94.83653345	         88.09978218	          0.01000327	          0.01000206	          0.01000194	          0.01000180	          0.01000214	          0.01000421	          0.22547860	          0.48174648	          0.01000951	          0.05615887	          0.19119940	          0.33018678	          0.23493613	          0.01001755	          0.15971626	          0.12536383	          0.01000230	          0.05463576	          0.38229218	          0.58534498	          0.01087412	          0.22722503	          0.06633141	          0.01001257	          0.02778820	          0.01000416	          0.01000201	          0.05157530	          0.02778755	          0.02536258	          0.50580701	          0.35063188	          0.01076100	          0.01000068	          0.24029469	          0.44107882	          0.50700236	          0.01000096	          0.01000034	          0.01000069	          0.17757394	          0.21271263	          0.01000138	          0.01000075	          0.01000696	          0.04517975	          0.01000046	          0.01004275	          0.34467624	          0.16933663	          0.01001873	          0.01000654	          0.01000266	          0.01000180	          0.01000067	          0.01000035	          0.01000051	          0.01000175	          0.01000220	          0.01000279	          0.01000541	          0.01000656	          0.01001142	          0.01000368	          0.99998179	          0.05691099	          0.10806480	          0.32259143	          0.99999880	          0.43560446	          0.67418976	          0.01000034	          0.01000115	          0.01000063	          0.03418046	          0.56398741	          0.01000451	          0.10132870	          0.25773794	          0.14503728	
          1.30000000	        -23.59118369	        -15.93778970	          2.42773653	          1.50616448	          0.80449910	         -0.14915709	          6.56995017	        -21.05276998	        -12.16886191	         27.60516149	         13.49829378	        -39.48768854	          0.51884221	          1.39880845	         20.20596195	          9.50917945	         23.07103755	         -3.64137653	         -8.88482307	         -1.11787981	         15.19222471	         15.07652328	         17.11455460	          7.24057840	        -13.01224143	         49.73532717	        -38.92524003	          2.82205637	        -35.57587115	         47.12403235	         54.76482031	         93.52386656	         86.99547353	          0.01000539	          0.01000334	          0.01000334	          0.01000322	          0.01000350	          0.01000669	          0.03758532	          0.12697138	          0.01000679	          0.01002657	          0.17248401	          0.27110500	          0.03915941	          0.01000815	          0.08602254	          0.08529722	          0.01000363	          0.01043314	          0.11160766	          0.24158853	          0.01030081	          0.09338715	          0.01657216	          0.01002037	          0.01197680	          0.01000483	          0.01000244	          0.02344487	          0.01178027	          0.01000370	          0.20514001	          0.05844135	          0.01003793	          0.01000109	          0.10336645	          0.33452453	          0.47704993	          0.01000188	          0.01000069	          0.01000134	          0.06000127	          0.03549082	          0.01002192	          0.01000678	          0.01261358	          0.01974789	          0.01000657	          0.01004784	          0.23562621	          0.13411626	          0.01001971	          0.01000892	          0.01000293	          0.01000204	          0.01000465	          0.01000205	          0.01000587	          0.01000422	          0.01001431	          0.07177174	          0.01000840	          0.01001249	          0.01003532	          0.01003658	          0.16666535	          0.08017103	          0.07665375	          0.22113778	          0.16669809	          0.07260684	          0.11236916	          0.01000366	          0.01000983	          0.01000071	          0.01000732	          0.45411883	          0.01000394	          0.03353562	          0.08174263	          0.04383962	
          1.35000000	        -23.56499780	        -17.33744742	          5.74249424	          1.53907678	          0.79838965	         -0.14420676	          5.48894817	        -23.01756700	        -10.98456212	         25.73386771	         14.56590964	        -39.36464763	          0.09380448	          1.26667369	         19.12609037	          9.01492767	         23.54907299	         -3.75224881	         -8.94239477	         -0.91055279	         17.77279506	         17.47405784	         13.99783964	          3.43934213	        -13.11933913	         61.61711386	        -49.64650401	          7.56555399	        -39.06785332	         42.25338721	         59.27317202	         90.19311542	         87.43824099	          0.01001299	          0.01000728	          0.01000588	          0.01000420	          0.01000781	          0.02318357	          0.01000654	          0.02117248	          0.03008810	          0.23821700	          0.18661989	          0.26590850	          0.01000161	          0.01000121	          0.01443307	          0.03400032	          0.01002943	          0.01000348	          0.01861016	          0.06434420	          0.01000802	          0.01558488	          0.01365039	          0.01002841	          0.01002003	          0.01000367	          0.01000179	          0.02078710	          0.04187216	          0.22817781	          0.07758329	          0.01000214	          0.01000865	          0.01000046	          0.04097129	          0.71351743	          0.50896933	          0.02423044	          0.07055643	          0.03364022	          0.01000465	          0.01000275	          0.01000362	          0.01000329	          0.01000893	          0.01004073	          0.01000251	          0.01007975	          0.03927665	          0.04474229	          0.11133481	          0.13699104	          0.01000972	          0.01000501	          0.01000539	          0.01000353	          0.01000236	          0.02921087	          0.09191100	          0.12674801	          0.01868719	          0.05615267	          0.09178315	          0.01000626	          0.11491796	          0.01336380	          0.01277656	          0.21814206	          0.13617904	          0.26821890	          0.16643418	          0.01000191	          0.01000504	          0.01000244	          0.48528575	          0.41181934	          0.01003979	          0.03215069	          0.07855729	          0.04340707	
          1.40000000	        -23.59263499	        -18.18254490	          9.29080083	          1.57494760	          0.79612086	         -0.13735508	          5.09223258	        -24.28822774	        -11.96751043	         23.40876493	         15.54764662	        -39.30280443	          0.00773013	          0.50137237	         15.49366912	          9.68235178	         24.31750494	         -2.52087991	         -8.83916773	         -1.58566326	         21.24881446	         19.02089823	          7.29941049	         -2.89271786	        -14.22420901	         67.10413388	        -51.89768118	         11.08343798	        -37.69731874	         39.39264012	         63.85409693	         86.05417280	         88.54308206	          0.06395814	          0.15400048	          0.01124507	          0.01116869	          0.03751783	          0.01004717	          0.01000540	          0.01002981	          0.01000653	          0.05873353	          0.20657260	          0.38373248	          0.01000369	          0.01000155	          0.01000769	          0.01000396	          0.01000642	          0.12642916	          0.01002156	          0.01072768	          0.08270297	          0.01003270	          0.01023741	          0.01134354	          0.12922095	          0.01000379	          0.01000190	          0.01037676	          0.06268713	          0.03888996	          0.01294730	          0.01000925	          0.01001933	          0.01000072	          0.02631676	          0.55814515	          0.54995669	          0.06002228	          0.09753889	          0.06057167	          0.01000270	          0.01000211	          0.01000280	          0.01000232	          0.01001006	          0.01004662	          0.01000143	          0.01004720	          0.05282631	          0.08469871	          0.01856526	          0.02283748	          0.01000694	          0.01000414	          0.01000308	          0.01000193	          0.01000159	          0.01336329	          0.01533956	          0.02113430	          0.03866894	          0.06161245	          0.06549555	          0.01000517	          0.38783188	          0.01000853	          0.01000408	          0.06554814	          0.38159786	          0.37410127	          0.26040254	          0.01000106	          0.01000333	          0.01000167	          0.46163516	          0.36722533	          0.42635490	          0.04062634	          0.11749937	          0.06012899	
          1.45000000	        -23.86757847	        -17.07585756	         11.66040737	          1.60036219	          0.79581649	         -0.12863296	          4.96093349	        -23.20781733	        -12.74331819	         22.04862490	         14.61332497	        -38.93131616	          0.24582942	          0.97529131	          9.75664021	         11.74766603	         22.89377047	         -0.73740917	        -11.43533989	         -2.87277701	         22.28874155	         18.91701386	          1.07767740	         -4.24903251	        -14.38397077	         65.78168650	        -47.01493273	         11.01679748	        -33.58054186	         35.45247110	         69.15219140	         81.27898548	         89.84999107	          0.01066691	          0.02567030	          0.01002279	          0.01937192	          0.01001311	          0.01002148	          0.05995743	          0.05393268	          0.01000354	          0.01002773	          0.15511634	          0.28634402	          0.18723526	          0.01072952	          0.03725356	          0.01947293	          0.01001838	          0.28746039	          0.09903375	          0.02576051	          0.09141402	          0.05433781	          0.01142623	          0.01005428	          0.02154537	          0.01000675	          0.01000347	          0.01042436	          0.01045730	          0.01000374	          0.01139615	          0.34454573	          0.06630292	          0.03456694	          0.01721256	          0.22300621	          0.42501199	          0.01000826	          0.01625730	          0.01009695	          0.01004638	          0.06001564	          0.01000287	          0.01000227	          0.01001537	          0.01004799	          0.01000168	          0.01003762	          0.01001240	          0.01433595	          0.18865318	          0.33371089	          0.01001550	          0.01000571	          0.01000174	          0.01000115	          0.01000101	          0.01001666	          0.01000359	          0.01000197	          0.04976606	          0.01029675	          0.01092411	          0.01000973	          0.65869084	          0.01000498	          0.01000251	          0.01092655	          0.64813001	          0.35968781	          0.22687134	          0.01000132	          0.01000227	          0.01000437	          0.34154890	          0.29943559	          0.35850723	          0.06039284	          0.11057987	          0.06681064	
          1.50000000	        -24.18951914	        -13.04837220	         11.71116373	          1.62008874	          0.80030743	         -0.11728692	          3.57742614	        -19.15399821	        -11.70335505	         20.65102372	         11.03354419	        -38.09569651	          1.17930784	          2.64950118	          4.83995219	         13.10761603	         18.34984350	          2.16628904	        -12.45721183	         -5.05022912	         19.83663471	         16.84957667	         -4.62857501	         -5.75706641	        -13.31501784	         54.95381585	        -40.64555913	          6.36526562	        -27.08727004	         30.75233085	         72.49784519	         76.62990583	         92.41216739	          0.11066726	          0.30456303	          0.01709297	          0.02274790	          0.05314373	          0.01002552	          0.01000503	          0.01002923	          0.01001410	          0.01030826	          0.07925124	          0.12588102	          0.03120883	          0.01001109	          0.01000514	          0.01000309	          0.01000368	          0.14567594	          0.01650951	          0.01000294	          0.12383797	          0.01004437	          0.01002019	          0.01089935	          0.24212627	          0.01000990	          0.01000528	          0.01001733	          0.09582836	          0.07090990	          0.01002773	          0.05742540	          0.01105627	          0.01001013	          0.06813815	          0.28789882	          0.21609932	          0.01372045	          0.02546234	          0.01554046	          0.01000444	          0.01000404	          0.01002053	          0.01001802	          0.01001875	          0.01005138	          0.29403552	          0.04356950	          0.01001772	          0.01233597	          0.03145122	          0.09333375	          0.26828212	          0.08100755	          0.06735513	          0.04127081	          0.01089660	          0.01003511	          0.03924736	          0.21082924	          0.01002672	          0.01147798	          0.02408232	          0.01002277	          0.10978279	          0.01000865	          0.01000481	          0.32553249	          0.10802268	          0.05994889	          0.03781848	          0.26730521	          0.04439151	          0.01051553	          0.05692716	          0.04992632	          0.30077833	          0.01006830	          0.01843086	          0.01113691	
          1.55000000	        -23.99112201	         -5.68878155	         10.18485363	          1.65153677	          0.81220855	         -0.10220363	          1.85079210	        -12.55518302	        -10.94477103	         16.64114762	          4.94976934	        -36.17772536	          3.99997449	          2.95888008	          2.89784773	         13.23019240	         13.04162883	          7.80250670	         -8.50435682	         -7.84384462	         16.73402078	         10.58171647	        -11.32465226	        -21.65841763	         -9.02537310	         25.92378816	        -28.62275205	         -0.33124108	         -6.14065985	         32.26142425	         64.16090903	         79.11272307	         96.55595031	          0.06073227	          0.05952543	          0.01001880	          0.01000587	          0.02413124	          0.15420277	          0.01001896	          0.04856363	          0.25020789	          0.08941580	          0.01321422	          0.02098267	          0.01001059	          0.01000792	          0.01001235	          0.01000544	          0.01003297	          0.02427995	          0.01000481	          0.05889342	          0.02064135	          0.01001867	          0.07924493	          0.05066724	          0.04038019	          0.02403155	          0.03279603	          0.11130342	          0.16829160	          0.21211009	          0.12316355	          0.01000310	          0.01000998	          0.01000135	          0.01136753	          0.26152717	          0.03601797	          0.01000418	          0.01000149	          0.01000302	          0.01000086	          0.01000045	          0.01000192	          0.01000208	          0.01000169	          0.01000382	          0.04900693	          0.04359923	          0.01000973	          0.01046552	          0.16839793	          0.01556258	          0.10193383	          0.18013239	          0.04118575	          0.02628718	          0.01000290	          0.27712655	          0.71103094	          0.93481834	          0.01100309	          0.16253824	          0.28212366	          0.01000265	          0.01829835	          0.01000564	          0.01000319	          0.27847780	          0.01800480	          0.15981523	          0.18928013	          0.04455148	          0.01000516	          0.03761342	          0.46065252	          0.25113098	          0.38415553	          0.01000934	          0.01000311	          0.01000622	
          1.60000000	        -23.73311712	          3.21905274	          8.14173501	          1.69390554	          0.82407216	         -0.08511120	          2.84523103	         -4.91537266	        -13.50281104	         11.38550164	         -2.43763946	        -33.08272643	          7.98524179	          1.37539789	          2.39816791	         12.95040523	          9.29073050	         13.68247825	         -4.58213847	        -10.00612035	         15.78072736	          0.99319433	        -18.69054298	        -52.25661805	          2.43582919	        -21.89149117	         -5.37045920	         -7.12949469	         35.66914801	         42.37725142	         40.63850519	         93.45951565	         95.69666249	          0.01013255	          0.01001934	          0.01004508	          0.01005426	          0.01003829	          0.02570714	          0.01113278	          0.01003443	          0.13022802	          0.07783213	          0.01002515	          0.01001063	          0.01000583	          0.01000357	          0.06475159	          0.09070495	          0.01187285	          0.07640407	          0.08686384	          0.09344562	          0.01788610	          0.03989911	          0.03379472	          0.01003487	          0.01003257	          0.04274490	          0.07616421	          0.03004291	          0.02805458	          0.03535986	          0.02054142	          0.01100208	          0.01021231	          0.01000147	          0.03832658	          0.26455396	          0.01000657	          0.01639620	          0.03481889	          0.01950421	          0.01000095	          0.01000057	          0.01000107	          0.01000115	          0.01000102	          0.01000124	          0.01000072	          0.03269477	          0.01000635	          0.01004227	          0.10611626	          0.42802344	          0.13440436	          0.03003342	          0.01000432	          0.01000275	          0.01000086	          0.06000512	          0.12049318	          0.15580556	          0.06001526	          0.24123960	          0.04710428	          0.01000228	          0.34771180	          0.01000502	          0.01000283	          0.04642102	          0.01000860	          0.69634071	          0.38897637	          0.01000056	          0.01000174	          0.02411597	          0.07677962	          0.20162024	          0.38236630	          0.01001254	          0.01000470	          0.01000904	
          1.65000000	        -24.46095152	         10.23323885	          6.25327278	          1.73168481	          0.82806694	         -0.07197434	          6.95475831	          1.00357262	        -20.48118734	          8.64046770	         -8.61290450	        -31.19328928	          8.51522032	          0.07673754	          0.25167904	         12.33193815	          7.68037136	         16.61174863	         -2.45061457	        -11.44852072	         17.19730863	         -6.78324164	        -20.82172881	        -66.10282774	         11.37684677	        -48.93863492	          8.88016104	        -10.01188583	         61.34672725	         46.87574770	         26.83535517	        103.29451850	         89.61239936	          0.01002994	          0.01002733	          0.01003856	          0.01004128	          0.01004019	          0.01003144	          0.01014251	          0.01046879	          0.15404523	          0.02332239	          0.01004217	          0.01001745	          0.01000617	          0.01000388	          0.03160994	          0.04570294	          0.01043646	          0.04643447	          0.05043120	          0.06117425	          0.01209265	          0.02457799	          0.03872086	          0.01004581	          0.01004381	          0.02448503	          0.02282346	          0.04024764	          0.01003072	          0.02928827	          0.01111202	          0.01004131	          0.01004079	          0.01000217	          0.01921392	          0.19184032	          0.01001002	          0.01603515	          0.03811327	          0.02103254	          0.01000114	          0.01000054	          0.01000058	          0.01000038	          0.01000085	          0.13055838	          0.01000036	          0.01003965	          0.01000759	          0.01005100	          0.11393301	          0.19866504	          0.02241172	          0.01002252	          0.01000073	          0.01000037	          0.01000045	          0.01000119	          0.02008343	          0.91144231	          0.01000330	          0.04020876	          0.41547231	          0.01000166	          0.38136374	          0.01000727	          0.01000406	          0.10749386	          0.99999781	          0.95552829	          0.99999628	          0.01000018	          0.01000060	          0.09321940	          0.58689365	          0.15131855	          0.38562746	          0.02277518	          0.05481689	          0.02974962	
          1.70000000	        -25.42365353	         14.25733713	          4.79583548	          1.75728643	          0.82428424	         -0.06505193	         12.57197448	          3.89831419	        -27.37944590	          8.11160891	        -12.35587955	        -31.26674931	          5.39155193	          0.23020973	          0.34780837	         13.34337433	          7.87948691	         17.52299379	         -1.29904691	        -12.55254443	         18.01274267	        -10.40774356	        -18.21866579	        -58.09621010	         11.03564994	        -46.77332760	         10.91090058	         -9.12645669	         56.33571025	         43.25900550	         31.30388773	        102.36942896	         86.28650282	          0.01004548	          0.01003867	          0.01016782	          0.01009423	          0.01005702	          0.01033486	          0.03705678	          0.01039582	          0.02568158	          0.16907187	          0.01001011	          0.01000398	          0.01000186	          0.01000114	          0.03694228	          0.03774824	          0.03489713	          0.01004670	          0.03732061	          0.06522904	          0.01004056	          0.01068426	          0.01695013	          0.01005439	          0.01003613	          0.06718003	          0.08617650	          0.02840376	          0.01003582	          0.01002147	          0.01003405	          0.01295224	          0.01072481	          0.01000050	          0.01003265	          0.42558482	          0.01000282	          0.01578937	          0.03530975	          0.02015022	          0.01000152	          0.01000078	          0.01000082	          0.01000059	          0.01000112	          0.02176575	          0.01000057	          0.01010701	          0.01000788	          0.01005038	          0.13585039	          0.24192427	          0.06154027	          0.01001640	          0.01000119	          0.01000066	          0.01000069	          0.01000072	          0.01000416	          0.21600753	          0.01000178	          0.01001250	          0.18087223	          0.01000244	          0.11844084	          0.01000659	          0.01000359	          0.04302382	          0.60492851	          0.65424690	          0.85324065	          0.01000031	          0.01000099	          0.09071143	          0.09782039	          0.17411752	          0.38681746	          0.01010686	          0.01005572	          0.01008466	
          1.75000000	        -25.37607005	         16.17225049	          3.71063215	          1.77552834	          0.81579023	         -0.06144871	         18.04634669	          4.69887367	        -29.63301062	          7.18441237	        -14.16827448	        -30.62183673	          2.11650256	          1.28887928	          7.02700614	         16.63701642	         11.10964195	         16.99241769	         -0.73146538	        -13.53609945	         16.12604505	        -11.35221298	        -17.59060387	        -48.25069998	          8.36779300	        -40.94324698	         17.38624473	         -8.37613423	         46.66869741	         41.65160064	         36.49160524	        100.51528672	         85.64500302	          0.01001328	          0.01000901	          0.01000774	          0.01000566	          0.01001263	          0.01004495	          0.01000358	          0.01040668	          0.52508938	          0.02818208	          0.06000106	          0.01003633	          0.01000120	          0.01000069	          0.01001204	          0.01000564	          0.01000458	          0.01003031	          0.03845600	          0.09562405	          0.01004526	          0.02611473	          0.07144111	          0.01001756	          0.03398391	          0.01119784	          0.01436329	          0.15255942	          0.04854191	          0.20412168	          0.06347214	          0.01000232	          0.01000757	          0.01000027	          0.09037530	          0.81644116	          0.08044884	          0.01301598	          0.02508310	          0.01576119	          0.01000164	          0.01000083	          0.01000109	          0.01000082	          0.01000135	          0.01001524	          0.01000112	          0.04389203	          0.01000927	          0.01004236	          0.12176421	          0.23444036	          0.01027165	          0.24311458	          0.01000188	          0.01000108	          0.01000119	          0.01000095	          0.01001429	          0.71483830	          0.01000217	          0.01002455	          0.23141071	          0.01000311	          0.01974573	          0.01000730	          0.01000393	          0.05774998	          0.20145813	          0.55172329	          0.71172913	          0.01000054	          0.01000154	          0.02851157	          0.39741778	          0.10081198	          0.36595652	          0.01000855	          0.01000312	          0.01000623	
          1.80000000	        -24.96487111	         17.33560718	          2.82725430	          1.79896668	          0.80543042	         -0.05849355	         22.53891983	          4.41258092	        -30.14872282	          5.22706099	        -15.32136748	        -28.39840136	          0.24427411	          2.30358956	         14.09045175	         19.80204686	         15.96837113	         15.51070790	         -0.48026835	        -14.42314397	         13.97761799	        -12.18398379	        -17.98603327	        -40.17910507	          6.27635157	        -36.11023301	         23.88756700	         -7.81449067	         40.28285717	         42.85908738	         38.89760815	         99.39537251	         85.23714419	          0.01000582	          0.01000409	          0.01000435	          0.01000374	          0.01000536	          0.01001744	          0.01000255	          0.01011676	          0.22420149	          0.65289976	          0.01001088	          0.01000189	          0.01000077	          0.01000052	          0.01000880	          0.01000444	          0.01000282	          0.01001861	          0.01058452	          0.08424533	          0.01005013	          0.01103706	          0.05975723	          0.01001001	          0.09211125	          0.01001048	          0.01000384	          0.20580620	          0.15019117	          0.16248792	          0.13346809	          0.01000193	          0.01000606	          0.01000016	          0.07136288	          0.99999660	          0.01340946	          0.02875577	          0.07291047	          0.03921947	          0.01000182	          0.01000103	          0.01000137	          0.01000124	          0.01000146	          0.01000320	          0.01000150	          0.05832378	          0.01001107	          0.01004109	          0.10044376	          0.19409109	          0.37217114	          0.04052564	          0.01000646	          0.01000339	          0.01000153	          0.01000382	          0.26494998	          0.55433192	          0.01000762	          0.18986138	          0.12496201	          0.01000387	          0.01003720	          0.01000925	          0.01000500	          0.02860875	          0.03358960	          0.50335276	          0.44317021	          0.01000086	          0.01000232	          0.02837536	          0.31531355	          0.08920850	          0.31570237	          0.01000785	          0.01000283	          0.01000567	
          1.85000000	        -24.91719440	         18.96021921	          1.57932490	          1.83653988	          0.79560243	         -0.05507163	         25.61444057	          4.20169582	        -31.89187852	          2.82007335	        -16.99388680	        -26.40085226	          0.04268784	          3.07865865	         16.43427539	         20.17626281	         18.72300335	         13.66931490	         -0.35977588	        -15.69620592	         13.85915129	        -14.02860677	        -18.19912016	        -36.35180503	          5.21566219	        -33.21978964	         26.09380904	         -7.58913841	         36.16323395	         43.05009524	         40.58051177	         98.06821449	         85.05179341	          0.06020929	          0.04372675	          0.01004910	          0.01001012	          0.05106637	          0.10015202	          0.01001717	          0.01004787	          0.60789151	          0.10881938	          0.15354469	          0.01003767	          0.01000119	          0.01000078	          0.01000835	          0.01000341	          0.01002094	          0.01000294	          0.01000929	          0.03864270	          0.01000630	          0.01000882	          0.01001666	          0.01006044	          0.01536051	          0.01000325	          0.01000165	          0.20924126	          0.12199958	          0.02710560	          0.02237173	          0.01000571	          0.01001698	          0.01000026	          0.01189618	          0.98999769	          0.27852392	          0.03811481	          0.09527548	          0.05137794	          0.01000401	          0.01000199	          0.01000202	          0.01000144	          0.01000273	          0.13929159	          0.01000238	          0.01119537	          0.01001103	          0.01004274	          0.06577478	          0.12650449	          0.06203106	          0.32372411	          0.01000416	          0.01000235	          0.01000323	          0.01000138	          0.04416117	          0.34002806	          0.01000309	          0.03164939	          0.03085667	          0.01000714	          0.01002539	          0.01000970	          0.01000581	          0.04131832	          0.20719886	          0.52327310	          0.38986307	          0.01000091	          0.01000260	          0.06780347	          0.05256135	          0.05636431	          0.20672924	          0.01001518	          0.01000546	          0.01001091	
          1.90000000	        -25.12249358	         20.68162145	         -0.19561547	          1.88657207	          0.78542927	         -0.05258489	         26.15209865	          4.74219708	        -32.73120162	          0.50144122	        -18.91185560	        -25.38181203	          0.23960378	          4.23598686	         17.06703428	         16.91511940	         20.51688825	         10.73548142	         -0.30367732	        -19.02914823	         15.42521564	        -15.93871633	        -18.20918522	        -33.70257153	          4.81355063	        -31.45654613	         25.55509478	         -8.08245998	         32.23392285	         42.30209481	         42.01670115	         96.23588170	         84.88550988	          0.01003788	          0.01000343	          0.01000336	          0.01000263	          0.01000505	          0.01670458	          0.01000211	          0.01004603	          0.43150836	          0.55739869	          0.12477036	          0.05766342	          0.01000047	          0.01000030	          0.01000409	          0.01000208	          0.01000199	          0.01000512	          0.01002112	          0.06452648	          0.01001287	          0.01002641	          0.01361579	          0.01000690	          0.12639635	          0.01000160	          0.01000068	          0.24951261	          0.37866250	          0.19198989	          0.19941468	          0.01000133	          0.01000459	          0.01000010	          0.02083791	          0.99999512	          0.22412490	          0.05939995	          0.15412517	          0.08493392	          0.01000387	          0.01000184	          0.01000171	          0.01000109	          0.01000241	          0.21704696	          0.01000274	          0.08833183	          0.01005345	          0.01004665	          0.01097901	          0.02109299	          0.53626842	          0.05396302	          0.01000465	          0.01000241	          0.01000469	          0.01000106	          0.01001741	          0.47081320	          0.01000249	          0.01004055	          0.02021142	          0.01000829	          0.01001156	          0.01772127	          0.04402136	          0.04217270	          0.12661720	          0.42592815	          0.43577271	          0.01000078	          0.01000252	          0.22039348	          0.09719408	          0.01001281	          0.03445962	          0.01000327	          0.01000115	          0.01000235	
          1.95000000	        -25.42719639	         21.84347636	         -2.28260454	          1.94383303	          0.77509580	         -0.05149259	         23.82003281	          5.84552804	        -30.29216051	         -1.29828544	        -20.60308875	        -23.51129609	          0.26312169	          6.26304328	         16.80183476	         10.34159354	         19.56485433	          5.82196387	         -0.25196936	        -24.87514146	         17.36711888	        -17.19736276	        -18.07192763	        -30.39007597	          5.01658049	        -29.38018186	         24.96748274	         -9.32640385	         29.71879097	         44.47433063	         41.12547651	         94.28170712	         84.47488152	          0.20514645	          0.21793328	          0.07457591	          0.01004616	          0.12201548	          0.11454958	          0.05168494	          0.01004400	          0.07192175	          0.09290242	          0.02081841	          0.03649310	          0.18507573	          0.27022225	          0.01003867	          0.01001674	          0.07910068	          0.01000953	          0.01003496	          0.05048476	          0.01000787	          0.01001582	          0.01003523	          0.02373812	          0.02107227	          0.01792923	          0.13246152	          0.20415443	          0.09704424	          0.03201437	          0.03324738	          0.03321637	          0.01004807	          0.08227696	          0.02597473	          0.16667019	          0.05872560	          0.01887322	          0.05330076	          0.01932035	          0.01004190	          0.01004690	          0.01002251	          0.01005160	          0.01002475	          0.03618375	          0.02605863	          0.01474312	          0.01003559	          0.01003786	          0.01103154	          0.02192123	          0.08938097	          0.31768818	          0.01003728	          0.01009655	          0.01002162	          0.01003663	          0.01003545	          0.07847206	          0.01004141	          0.01153619	          0.02085612	          0.01004902	          0.04645982	          0.01017378	          0.01003291	          0.01008721	          0.04312463	          0.19213197	          0.07263522	          0.02864166	          0.01004881	          0.22478660	          0.04984551	          0.01004378	          0.01518023	          0.01419892	          0.02524540	          0.01453491	
          2.00000000	        -26.31868526	         22.55348803	         -3.92689496	          2.00774241	          0.76737416	         -0.05302155	         20.06616867	          6.91534882	        -25.28419629	         -2.38041150	        -22.03845823	        -19.65256535	          0.39016489	          8.42049836	         13.60607267	          0.50616403	         12.14363802	         -0.60723094	        -14.89261600	        -18.40418221	         19.51658979	        -17.82609843	        -18.34903038	        -28.40824249	          6.37960354	        -27.57254208	         24.98674431	        -12.10937323	         29.68294702	         51.92803873	         38.37833851	         92.33344691	         83.49976685	          0.03420125	          0.03633174	          0.01245425	          0.01331409	          0.02035454	          0.01911118	          0.01004041	          0.01437149	          0.01200821	          0.01550748	          0.01040901	          0.01018070	          0.03085709	          0.04504474	          0.01540306	          0.01679659	          0.01321149	          0.01780874	          0.01592168	          0.01004164	          0.01774737	          0.01681244	          0.01523301	          0.01038996	          0.01159596	          0.01038997	          0.02209268	          0.03403616	          0.01619810	          0.01018002	          0.01013501	          0.01024996	          0.01463078	          0.01374036	          0.01035536	          0.02779102	          0.01003697	          0.01036127	          0.01004428	          0.01035774	          0.01497360	          0.01178553	          0.01606985	          0.01409345	          0.01580004	          0.01018608	          0.01022694	          0.01267873	          0.01377129	          0.01337776	          0.01198096	          0.01028007	          0.01492205	          0.05295449	          0.01507595	          0.01529048	          0.01600887	          0.01522932	          0.01389595	          0.01310616	          0.01501986	          0.01259457	          0.01071499	          0.01451081	          0.01004661	          0.01441854	          0.01508680	          0.01260116	          0.01006139	          0.03203286	          0.01212906	          0.01043729	          0.01439398	          0.03747363	          0.01004439	          0.01461438	          0.01210089	          0.01100594	          0.01021915	          0.01099169	
