Coordinates
version=1
nRows=21
nColumns=114
inDegrees=yes

Units are S.I. units (second, meters, Newtons, ...)
If the header above contains a line with 'inDegrees', this indicates whether rotational values are in degrees (yes) or radians (no).

endheader 
time	pelvis_tilt	pelvis_list	pelvis_rotation	pelvis_tx	pelvis_ty	pelvis_tz	hip_flexion_l	hip_adduction_l	hip_rotation_l	hip_flexion_r	hip_adduction_r	hip_rotation_r	knee_angle_l	knee_angle_r	ankle_angle_l	ankle_angle_r	subtalar_angle_l	subtalar_angle_r	mtp_angle_l	mtp_angle_r	lumbar_extension	lumbar_bending	lumbar_rotation	arm_flex_l	arm_add_l	arm_rot_l	arm_flex_r	arm_add_r	arm_rot_r	elbow_flex_l	elbow_flex_r	pro_sup_l	pro_sup_r	addbrev_l/activation	addlong_l/activation	addmagDist_l/activation	addmagIsch_l/activation	addmagMid_l/activation	addmagProx_l/activation	bflh_l/activation	bfsh_l/activation	edl_l/activation	ehl_l/activation	fdl_l/activation	fhl_l/activation	gaslat_l/activation	gasmed_l/activation	glmax1_l/activation	glmax2_l/activation	glmax3_l/activation	glmed1_l/activation	glmed2_l/activation	glmed3_l/activation	glmin1_l/activation	glmin2_l/activation	glmin3_l/activation	grac_l/activation	iliacus_l/activation	perbrev_l/activation	perlong_l/activation	piri_l/activation	psoas_l/activation	recfem_l/activation	sart_l/activation	semimem_l/activation	semiten_l/activation	soleus_l/activation	tfl_l/activation	tibant_l/activation	tibpost_l/activation	vasint_l/activation	vaslat_l/activation	vasmed_l/activation	addbrev_r/activation	addlong_r/activation	addmagDist_r/activation	addmagIsch_r/activation	addmagMid_r/activation	addmagProx_r/activation	bflh_r/activation	bfsh_r/activation	edl_r/activation	ehl_r/activation	fdl_r/activation	fhl_r/activation	gaslat_r/activation	gasmed_r/activation	glmax1_r/activation	glmax2_r/activation	glmax3_r/activation	glmed1_r/activation	glmed2_r/activation	glmed3_r/activation	glmin1_r/activation	glmin2_r/activation	glmin3_r/activation	grac_r/activation	iliacus_r/activation	perbrev_r/activation	perlong_r/activation	piri_r/activation	psoas_r/activation	recfem_r/activation	sart_r/activation	semimem_r/activation	semiten_r/activation	soleus_r/activation	tfl_r/activation	tibant_r/activation	tibpost_r/activation	vasint_r/activation	vaslat_r/activation	vasmed_r/activation	
          5.00000000	        -12.70095093	        -19.51679302	         12.82030454	          3.54551300	          0.80866539	         -0.14838475	         -3.65810272	        -21.69765606	         -8.84029179	          5.91763536	         15.23824299	        -12.01125812	          2.98244682	         16.95462062	         17.41959931	          9.85217267	         13.44353486	        -26.92736368	          3.23960623	          3.39890569	         13.86985475	         14.47802786	        -25.53492878	        -14.00926940	         -7.48174620	        -14.06297518	        -11.11081474	         -3.01626952	        -18.85959668	         57.03321424	         52.69727217	        111.39035112	        103.46636435	          0.01220345	          0.01226273	          0.01026946	          0.01016624	          0.01057923	          0.04536858	          0.01012715	          0.01842686	          0.01071698	          0.01432143	          0.08669136	          0.13575749	          0.01059758	          0.01056048	          0.01218959	          0.01081189	          0.01031995	          0.01012888	          0.01340601	          0.16010129	          0.01047488	          0.07125703	          0.02857864	          0.01290733	          0.05590557	          0.01063050	          0.01032613	          0.04078226	          0.13228854	          0.44994222	          0.12623021	          0.01006385	          0.01021554	          0.01854743	          0.15846145	          0.10561326	          0.16579521	          0.01968572	          0.01669804	          0.01840147	          0.01555340	          0.01370142	          0.02462444	          0.03656870	          0.02084947	          0.01670726	          0.02598417	          0.01565421	          0.38851434	          0.18082046	          0.01057611	          0.01020168	          0.01006142	          0.01003859	          0.01270980	          0.02887565	          0.02303199	          0.04498272	          0.01363987	          0.01118154	          0.03389204	          0.01733314	          0.01227140	          0.01535270	          0.01100822	          0.31534325	          0.51430695	          0.01076697	          0.01308392	          0.01243280	          0.01136065	          0.05146566	          0.03385920	          0.01002032	          0.06568483	          0.50765303	          0.01014472	          0.03220193	          0.04615651	          0.03511101	
          5.05000000	        -12.07237526	        -20.32049817	         13.10657400	          3.53514809	          0.81415657	         -0.14632146	         -3.81465295	        -22.85026489	         -8.03113238	          8.84510665	         16.61456479	        -15.34766457	          2.24558710	         11.51371327	         17.05544670	         11.84010703	         14.11537954	        -21.65136069	         -7.96641337	         -4.20212575	         13.88074556	         16.85469590	        -24.28531068	        -15.37309450	         -6.38810953	        -14.04715319	         -8.78522212	         -3.68832891	        -17.25577462	         56.40652182	         52.00029376	        111.22272107	        104.35718390	          0.01054127	          0.01049780	          0.01014488	          0.01013454	          0.01018287	          0.01043621	          0.01008091	          0.03410460	          0.01072321	          0.01230269	          0.09486536	          0.17606346	          0.22247007	          0.17338346	          0.01072822	          0.01032995	          0.01009239	          0.15820161	          0.16796647	          0.14861437	          0.11042681	          0.12702217	          0.02063878	          0.01085697	          0.13001307	          0.01050479	          0.01025909	          0.02488255	          0.07351844	          0.32708754	          0.15749508	          0.01004792	          0.01021474	          0.09095371	          0.21343729	          0.09155305	          0.34861576	          0.01048917	          0.01016097	          0.01033541	          0.01167992	          0.01251032	          0.03244607	          0.04080825	          0.01765408	          0.01310825	          0.02497286	          0.01376851	          0.40060457	          0.12867471	          0.01104340	          0.01027521	          0.01004377	          0.01002785	          0.01230674	          0.02784363	          0.02949702	          0.02090218	          0.01071584	          0.01088141	          0.01851247	          0.01311759	          0.01133185	          0.01359486	          0.01537273	          0.21289492	          0.29602979	          0.01156903	          0.01016005	          0.02259582	          0.01159544	          0.04131095	          0.02734434	          0.01001359	          0.01263320	          0.77422795	          0.01020723	          0.02684468	          0.04082631	          0.03047635	
          5.10000000	        -11.52069472	        -20.59530153	         13.07392260	          3.52651040	          0.81307746	         -0.14387366	         -4.36437555	        -23.48847301	         -7.32252753	         11.49223848	         17.04373769	        -19.54212670	          1.70558363	          6.46014570	         18.26778765	         15.58737667	         14.71074332	        -12.27563986	        -12.55957770	         -2.25753033	         13.29921827	         19.28192997	        -22.60872757	        -17.86059274	         -4.64674919	        -15.94380969	         -5.43096176	         -5.37853519	        -13.84794843	         57.78106870	         52.64307919	        110.87204266	        105.43560397	          0.01029203	          0.01021893	          0.01011718	          0.01010064	          0.01012181	          0.01019476	          0.01007226	          0.04338607	          0.01049830	          0.01233335	          0.10052919	          0.19928649	          0.15697699	          0.12892220	          0.07772758	          0.01031551	          0.01007757	          0.37985103	          0.18448239	          0.27464689	          0.09561147	          0.16882584	          0.02376059	          0.01054324	          0.06849627	          0.01039099	          0.01020601	          0.02297415	          0.01281060	          0.12886756	          0.16611900	          0.01026681	          0.01016156	          0.08827478	          0.22203404	          0.07601652	          0.32225152	          0.01038012	          0.01013352	          0.01027235	          0.11071036	          0.10495974	          0.01071525	          0.01022383	          0.03078727	          0.04516012	          0.01009294	          0.01167176	          0.76982939	          0.51088012	          0.01066269	          0.01011596	          0.01002152	          0.01001390	          0.01037895	          0.01010069	          0.01015463	          0.01025968	          0.01139266	          0.06444402	          0.01070080	          0.01207216	          0.01370601	          0.02755786	          0.01052652	          0.24890560	          0.09223777	          0.01074021	          0.01363296	          0.01492571	          0.01154879	          0.01004690	          0.01017587	          0.01000578	          0.01040300	          0.99989928	          0.01011448	          0.04876268	          0.09856202	          0.05927237	
          5.15000000	        -11.39429436	        -20.19671999	         13.31940343	          3.52755166	          0.81085093	         -0.13893928	         -4.92005812	        -23.59029806	         -6.22220306	         13.45618546	         17.08125662	        -22.00426142	          1.88419904	          4.21667456	         19.26187461	         18.03745209	         14.04158706	         -5.34383794	        -13.89601483	         -1.23588365	         13.79253025	         20.56407743	        -21.43691530	        -23.74840630	         -1.76040549	        -20.28678974	         -4.31310689	         -6.90069089	         -8.85991309	         59.11932942	         50.48549395	        111.20984221	        105.82191716	          0.01005822	          0.01004036	          0.01009951	          0.01180466	          0.01004476	          0.01004038	          0.01037000	          0.04956217	          0.01050104	          0.01301935	          0.10886992	          0.19655557	          0.17484690	          0.10726621	          0.39312943	          0.22777016	          0.01005757	          0.99994511	          0.82659639	          0.14809786	          0.83988988	          0.19757213	          0.01219061	          0.01014365	          0.01154769	          0.01043144	          0.01019111	          0.01143332	          0.01006792	          0.02149603	          0.02817563	          0.88621171	          0.07733135	          0.06395127	          0.17735558	          0.12502044	          0.31073394	          0.01028742	          0.01010333	          0.01020485	          0.25822020	          0.58672381	          0.01005247	          0.01002938	          0.01088857	          0.08138310	          0.01001314	          0.01399045	          0.83062962	          0.73195989	          0.01030522	          0.01005729	          0.01001434	          0.01000955	          0.01002993	          0.01001336	          0.01001757	          0.01006116	          0.01012420	          0.01096840	          0.01025408	          0.01085203	          0.02517500	          0.01038497	          0.99978571	          0.21678027	          0.01561462	          0.60426473	          0.99994561	          0.99984773	          0.58240438	          0.01000811	          0.01002754	          0.01000357	          0.60847775	          0.99997611	          0.01004858	          0.09910540	          0.23754681	          0.13527087	
          5.20000000	        -11.77859140	        -19.03742716	         13.95659043	          3.53689009	          0.80713304	         -0.13047344	         -5.19354174	        -23.09608228	         -4.80840492	         13.97948454	         16.63261410	        -22.31508852	          2.29199759	          3.81017760	         19.16333842	         17.68728831	         12.66332068	         -3.48708409	        -13.60596198	         -0.71529086	         15.64263850	         20.15948699	        -26.08862144	        -34.51655067	          6.41124868	        -32.84682124	          3.92349185	         -7.12710501	          6.27335898	         62.68635429	         34.04154081	        112.97932906	        103.81943389	          0.03317991	          0.08512609	          0.01061324	          0.01075512	          0.01105125	          0.01044326	          0.01005108	          0.01138124	          0.01045790	          0.01244635	          0.07846787	          0.13376584	          0.02951340	          0.01815716	          0.06554369	          0.03797438	          0.01004610	          0.22887100	          0.13780103	          0.02470780	          0.14043437	          0.03304470	          0.01235899	          0.01143562	          0.43467153	          0.01029046	          0.01018687	          0.01074920	          0.12228912	          0.24085952	          0.02733655	          0.14771195	          0.01295156	          0.03053202	          0.02985905	          0.07589111	          0.22237998	          0.03449611	          0.04404110	          0.03680507	          0.04307429	          0.09780405	          0.01023855	          0.01020537	          0.01097878	          0.01394712	          0.01010106	          0.01234981	          0.46909467	          0.25438948	          0.01065501	          0.01017004	          0.01004858	          0.01003305	          0.01048573	          0.01013870	          0.01011383	          0.01177247	          0.02701784	          0.06333649	          0.03062170	          0.04355541	          0.02838568	          0.01053465	          0.16674798	          0.12300870	          0.07164140	          0.10083893	          0.16673924	          0.18007489	          0.09728944	          0.01006718	          0.01021598	          0.01001240	          0.10145880	          0.62886938	          0.01012024	          0.05673287	          0.11376155	          0.07275728	
          5.25000000	        -12.31332882	        -17.17127771	         14.68473760	          3.55228753	          0.80509901	         -0.12045415	         -5.47816544	        -22.03871709	         -3.31661623	         13.43677338	         15.41614766	        -21.58034032	          2.54705997	          4.14793516	         17.78494861	         16.25667504	         10.66888686	         -4.70160104	        -11.69606865	         -0.57852514	         17.86156829	         18.37435504	        -33.69491640	        -45.31681711	         16.64122992	        -46.34960806	         13.10500942	         -6.43696497	         22.72395260	         63.15870805	          7.45780576	        113.42663293	        104.51565333	          0.01020609	          0.01422982	          0.01010481	          0.01011597	          0.01010281	          0.01019358	          0.01008827	          0.03907616	          0.32002458	          0.09999903	          0.01330988	          0.02235227	          0.01017219	          0.01012538	          0.07602952	          0.01178632	          0.01009286	          0.47992402	          0.38972778	          0.39339177	          0.24573657	          0.26907422	          0.03778847	          0.01046741	          0.07284123	          0.10025955	          0.17683558	          0.03741408	          0.02179213	          0.40830127	          0.21455979	          0.02463758	          0.01015684	          0.01001718	          0.36666449	          0.24938099	          0.03708954	          0.01054400	          0.01023160	          0.01042052	          0.01005083	          0.01631212	          0.01010544	          0.01014729	          0.01028868	          0.01032062	          0.01008584	          0.02039320	          0.28611401	          0.13476017	          0.01068923	          0.01018781	          0.01009370	          0.01006556	          0.01096235	          0.05471899	          0.01007499	          0.99360682	          0.54955378	          0.40922060	          0.31631924	          0.30583514	          0.27613206	          0.01018895	          0.05706543	          0.10532517	          0.17233132	          0.33545305	          0.02785780	          0.45839931	          0.08338752	          0.01007627	          0.01023511	          0.01002337	          0.91535263	          0.49610778	          0.01010792	          0.01666691	          0.01919422	          0.01534359	
          5.30000000	        -13.24103557	        -15.08164031	         15.80997161	          3.56944717	          0.80672504	         -0.11165493	         -5.29582714	        -21.80529678	         -1.98506561	         13.28671334	         13.64134348	        -19.88171028	          2.85834079	          5.07699438	         15.55475365	         16.18088883	          7.83747848	         -6.04026177	         -8.08966297	         -0.86661905	         20.35516647	         15.93749345	        -37.44375149	        -49.38749616	         21.12977306	        -50.30955100	         12.94621901	         -6.11710303	         24.44041134	         59.52138289	         -4.28414154	        112.32926576	        110.17358660	          0.01018758	          0.01009622	          0.01013685	          0.01022768	          0.01010798	          0.01014072	          0.01012598	          0.01095658	          0.30141869	          0.16095699	          0.01066847	          0.01018739	          0.01012439	          0.01008830	          0.19841298	          0.14299280	          0.01010002	          0.56850805	          0.35631489	          0.20335520	          0.21633852	          0.10749191	          0.02809801	          0.01034925	          0.01417552	          0.10961050	          0.19924341	          0.01014612	          0.01042306	          0.08527723	          0.04164395	          0.01013342	          0.01038550	          0.01003206	          0.14021335	          0.45560382	          0.01010407	          0.03345629	          0.04350608	          0.03639510	          0.01006800	          0.01003710	          0.01007894	          0.01008724	          0.01018794	          0.01028323	          0.01004355	          0.01325976	          0.11006782	          0.10696651	          0.04573402	          0.01670085	          0.01016093	          0.01009394	          0.01039414	          0.01016999	          0.01004571	          0.69731725	          0.33571262	          0.20426526	          0.27686551	          0.26549217	          0.21061599	          0.01017227	          0.31287136	          0.01769459	          0.02876334	          0.12814748	          0.01118004	          0.50854770	          0.16840478	          0.01003505	          0.01010643	          0.01003516	          0.51135898	          0.48348004	          0.01374011	          0.02253785	          0.02795963	          0.02650100	
          5.35000000	        -13.87457227	        -12.72184784	         17.48974942	          3.58287074	          0.80861108	         -0.10463664	         -4.69936014	        -22.36439694	         -1.37985054	         13.01456518	         11.43857203	        -17.97507401	          3.74255715	          6.31411631	         11.37543450	         17.25328820	          4.23753542	         -6.28493633	         -4.69999389	         -1.66575665	         21.90988905	         13.42207151	        -39.59123256	        -48.66473413	         20.99805776	        -50.30077881	         11.81688809	         -5.56805997	         21.06448390	         58.49649751	         -1.75759285	        111.93569022	        113.90548804	          0.01034861	          0.01023655	          0.01024519	          0.01036578	          0.01019323	          0.01025251	          0.01020858	          0.01437744	          0.23654099	          0.09767149	          0.01084981	          0.01033812	          0.01018782	          0.01011759	          0.11314802	          0.06686462	          0.01015335	          0.37685692	          0.22871158	          0.14719266	          0.17064621	          0.09387179	          0.02101562	          0.01066323	          0.01211560	          0.11072452	          0.19052657	          0.01263082	          0.01091372	          0.09557815	          0.06109195	          0.01033057	          0.01056798	          0.01004036	          0.11771244	          0.30133804	          0.01018083	          0.02771295	          0.03510873	          0.02982405	          0.01010322	          0.01007259	          0.01017990	          0.01030033	          0.01026604	          0.01030225	          0.01012832	          0.01304707	          0.07020923	          0.06900537	          0.05263515	          0.06888957	          0.01044681	          0.01018477	          0.01122226	          0.04807867	          0.01011298	          0.66339102	          0.28029360	          0.13961357	          0.25674251	          0.19471113	          0.12005902	          0.01032792	          0.05586308	          0.01047816	          0.01019745	          0.02189014	          0.01042487	          0.37034481	          0.03545359	          0.01014129	          0.01040417	          0.01006030	          0.30552017	          0.31009155	          0.29557552	          0.02204611	          0.03275219	          0.02346642	
          5.40000000	        -13.63976159	         -8.95273146	         18.23713408	          3.59733863	          0.81258597	         -0.09769392	         -4.73310522	        -21.15134746	         -1.99805485	         10.61738113	          8.33187268	        -16.74031145	          5.51613466	          6.49382943	          3.91458866	         18.61006968	         -0.28845337	         -4.76775241	         -2.68303438	         -2.62310221	         21.55071366	          9.88153881	        -39.55859400	        -46.63481841	         19.36772509	        -49.80337399	         11.19013830	         -4.45959175	         20.46771289	         56.03436590	          0.15598329	        111.65315685	        114.88292300	          0.01050616	          0.01030394	          0.01054139	          0.01148992	          0.01035758	          0.01038242	          0.01079425	          0.01343272	          0.18031687	          0.06957393	          0.01095255	          0.01050829	          0.01042314	          0.01030500	          0.11282771	          0.09663765	          0.01043186	          0.34093495	          0.20665567	          0.13146373	          0.13333727	          0.07804702	          0.03618455	          0.01090285	          0.01359023	          0.08040239	          0.17126915	          0.01871707	          0.01078424	          0.01606512	          0.03035155	          0.01154744	          0.01293767	          0.01011349	          0.08542972	          0.15215089	          0.01022944	          0.02668634	          0.03909478	          0.03308799	          0.01009147	          0.01005929	          0.01012822	          0.01015210	          0.01015795	          0.01021997	          0.01008497	          0.01243074	          0.01260208	          0.03089434	          0.02646813	          0.06373536	          0.01016088	          0.01009351	          0.01069527	          0.01034341	          0.01008615	          0.38928528	          0.22265809	          0.18574077	          0.17094978	          0.16666558	          0.11929539	          0.01025252	          0.18346355	          0.01026507	          0.01011008	          0.20088710	          0.02468365	          0.55154162	          0.12712812	          0.01006605	          0.01017685	          0.01003467	          0.39185899	          0.46292389	          0.21147257	          0.02924590	          0.04786494	          0.03374527	
          5.45000000	        -13.64788545	         -3.24902906	         16.82685520	          3.61607070	          0.82259239	         -0.08712936	         -4.78313312	        -16.98822203	         -2.96269990	          6.55539868	          3.66673797	        -16.23585473	          8.42359380	          4.53632687	         -3.27281467	         20.89067655	         -4.16517958	          0.59403461	         -1.46688508	         -2.56720930	         20.35861156	          3.94398156	        -35.50195525	        -46.74992515	         17.08527114	        -48.77418152	          9.12568644	         -3.93711630	         21.37595675	         51.25275522	          4.90524021	        110.78559621	        114.45866627	          0.01086084	          0.01063093	          0.01170055	          0.01445102	          0.01082114	          0.01071923	          0.02210294	          0.01350301	          0.14320265	          0.04906397	          0.01161596	          0.01067255	          0.01043376	          0.01026544	          0.05337337	          0.06556867	          0.01108327	          0.23396727	          0.09493552	          0.04039504	          0.07993407	          0.04677507	          0.02305373	          0.01212705	          0.01112876	          0.07278674	          0.07030769	          0.01080266	          0.01109921	          0.01043129	          0.01230835	          0.12559255	          0.02250964	          0.01011405	          0.03478979	          0.11618344	          0.01034083	          0.02517713	          0.03570490	          0.02658824	          0.01010000	          0.01006650	          0.01010157	          0.01011152	          0.01011016	          0.01019785	          0.01005633	          0.01174773	          0.51956702	          0.38866322	          0.20838097	          0.11536570	          0.01004671	          0.01002749	          0.01055081	          0.01019743	          0.01006395	          0.28000852	          0.19061308	          0.19503604	          0.13619756	          0.15894172	          0.11766594	          0.01023737	          0.21579335	          0.01005444	          0.01002757	          0.14840741	          0.14916881	          0.66483502	          0.17494908	          0.01004319	          0.01011855	          0.01001145	          0.35218777	          0.99362387	          0.03528971	          0.03257769	          0.05453347	          0.03656725	
          5.50000000	        -14.06298766	          3.25536459	         14.22814458	          3.63328210	          0.83274474	         -0.07417415	         -3.16812282	        -11.09164727	         -2.86041859	          2.86763905	         -2.07245357	        -15.83372450	         13.88592592	          1.79752471	         -6.69751012	         22.84007368	         -6.97616104	          7.65527193	         -0.79765875	         -1.84349740	         18.75149118	         -3.11254781	        -29.30092919	        -48.38185430	         13.95591066	        -47.42765116	          5.01364512	         -5.19396538	         24.05033036	         47.00772792	         18.41003566	        109.00202431	        110.28811288	          0.01283108	          0.01144341	          0.01806445	          0.04440535	          0.01367966	          0.01248327	          0.06451581	          0.01476093	          0.11021207	          0.04314269	          0.01231853	          0.01073691	          0.01046378	          0.01028055	          0.03553266	          0.05793275	          0.01900227	          0.12121469	          0.04443810	          0.01489741	          0.04275772	          0.02017207	          0.01089534	          0.01355456	          0.01369205	          0.04453563	          0.10443698	          0.01076017	          0.01185627	          0.01031360	          0.01117397	          0.09769683	          0.04856015	          0.01010591	          0.01102410	          0.13319516	          0.01044043	          0.02162371	          0.02554302	          0.02194639	          0.01008355	          0.01005065	          0.01007864	          0.01008173	          0.01007966	          0.01016584	          0.01004595	          0.01291458	          0.70607283	          0.63496702	          0.03484290	          0.01930156	          0.01002301	          0.01001521	          0.01059754	          0.01019979	          0.01005600	          0.39314439	          0.22091000	          0.18187167	          0.17121739	          0.16761663	          0.10494263	          0.01020495	          0.16497033	          0.01005781	          0.01002882	          0.11068941	          0.07171215	          0.66666921	          0.16405745	          0.01003285	          0.01009561	          0.01000572	          0.12431195	          0.99971890	          0.52507670	          0.02096231	          0.02372433	          0.02124502	
          5.55000000	        -14.39096768	          8.68656749	         12.12888223	          3.64905750	          0.83854328	         -0.06412082	         -0.17857155	         -5.48122875	         -3.09389196	          0.44810428	         -7.18270896	        -15.67097062	         19.25996677	          0.21169085	         -6.43293050	         23.12202990	         -8.26748776	         12.03980161	         -0.47554552	         -1.54810306	         17.71559851	         -9.02969771	        -23.96662721	        -49.25101914	         11.18040472	        -46.02519793	         -1.07129471	         -7.06488094	         25.19120253	         43.02506089	         30.11770336	        107.18474792	        103.91254013	          0.01221012	          0.01130523	          0.02016943	          0.04915515	          0.01218314	          0.01225923	          0.04713028	          0.01352587	          0.13168651	          0.04795575	          0.01186877	          0.01070507	          0.01016780	          0.01008203	          0.02886949	          0.05378486	          0.01896441	          0.15928171	          0.05602070	          0.01410255	          0.05801036	          0.02487879	          0.01249281	          0.01329708	          0.01388185	          0.05898819	          0.08718693	          0.01090327	          0.01162113	          0.01053411	          0.01259142	          0.12816671	          0.04854992	          0.01004142	          0.01365563	          0.19150082	          0.01041707	          0.02373859	          0.03278201	          0.02681986	          0.01020565	          0.01014600	          0.01007587	          0.01006426	          0.01010123	          0.01034033	          0.01003539	          0.01148181	          0.66634407	          0.56265964	          0.31671345	          0.03857413	          0.01001715	          0.01001135	          0.01019989	          0.01008299	          0.01004711	          0.06568506	          0.18111504	          0.27169705	          0.08048580	          0.19478820	          0.15485598	          0.01031887	          0.29802658	          0.01003454	          0.01001757	          0.08688292	          0.32480380	          0.71022140	          0.29637647	          0.01002360	          0.01007220	          0.01000399	          0.58134909	          0.99994178	          0.43194249	          0.04080611	          0.07171562	          0.04887160	
          5.60000000	        -14.79793751	         11.35599592	         10.94364304	          3.66418360	          0.83976245	         -0.05929980	          2.58393731	         -1.85223841	         -4.19285016	         -0.42647335	         -9.79252450	        -15.69763276	         19.41432774	          0.08083886	         -1.25042906	         22.34402056	         -6.43241961	         12.85169024	         -0.33815653	         -1.99291010	         17.86774797	        -11.82652760	        -21.69698823	        -49.04716520	         10.24268142	        -44.91120709	         -4.22546286	         -7.69209121	         23.96141377	         40.54594289	         32.88745403	        106.11327511	        100.31139586	          0.01185473	          0.01078856	          0.01666239	          0.04053265	          0.01297971	          0.01252447	          0.04480171	          0.01427732	          0.25244809	          0.12327057	          0.01088780	          0.01024406	          0.01005663	          0.01002172	          0.02825228	          0.05353771	          0.01680810	          0.13863070	          0.05153511	          0.01752350	          0.05228885	          0.02884656	          0.01614497	          0.01302399	          0.01354578	          0.07127000	          0.07473999	          0.01189750	          0.01206233	          0.01136248	          0.01137792	          0.10056441	          0.04611637	          0.01001093	          0.02611580	          0.42623266	          0.01017412	          0.02343845	          0.03300027	          0.02629775	          0.01069277	          0.01235187	          0.01007258	          0.01005166	          0.01013165	          0.01527409	          0.01002997	          0.01150421	          0.31461286	          0.27359965	          0.10992097	          0.16047512	          0.01004743	          0.01003083	          0.01013085	          0.01005252	          0.01004307	          0.01099326	          0.03062270	          0.17106539	          0.01369014	          0.15230432	          0.18821410	          0.01051827	          0.33537248	          0.01008981	          0.01004482	          0.06780344	          0.44480466	          0.76229468	          0.32813074	          0.01001806	          0.01005786	          0.01001086	          0.27349145	          0.77928714	          0.36252367	          0.03161203	          0.05108059	          0.03728958	
          5.65000000	        -15.18465998	         11.36249595	         10.09454684	          3.67749065	          0.83623112	         -0.05743398	          4.57641067	         -0.42950072	         -4.92114432	         -0.25044852	         -9.74457883	        -15.40311506	         15.21898665	          0.98720311	          6.93939252	         21.91857696	         -2.59840218	         12.19914092	         -0.29320360	         -3.28752883	         18.06805022	        -11.54229451	        -21.97590770	        -48.52321111	         10.57188537	        -44.00242894	         -3.56429261	         -7.91584425	         23.54482253	         40.85365667	         33.16354386	        105.42519269	         99.64137781	          0.01087761	          0.01047749	          0.01117070	          0.02292736	          0.01208928	          0.01152309	          0.02181521	          0.01406303	          0.40409632	          0.10602653	          0.01088343	          0.01017697	          0.01001285	          0.01000754	          0.03736869	          0.05957692	          0.01130271	          0.14526287	          0.06581237	          0.04281361	          0.05336634	          0.03855340	          0.02937120	          0.01268293	          0.01200953	          0.08230846	          0.04744266	          0.01092817	          0.01196848	          0.01112544	          0.01138823	          0.06260393	          0.02401073	          0.01000385	          0.04197766	          0.61187445	          0.01013346	          0.02544229	          0.03646319	          0.02784601	          0.01053766	          0.02739110	          0.01008354	          0.01005938	          0.01016169	          0.07920505	          0.01003338	          0.01219767	          0.10334470	          0.15087958	          0.11610914	          0.09755801	          0.01006491	          0.01004138	          0.01011930	          0.01005110	          0.01004458	          0.01013584	          0.01102493	          0.16030308	          0.01099988	          0.14086836	          0.19773358	          0.01063365	          0.34043241	          0.01013020	          0.01006272	          0.08931862	          0.45111012	          0.74569300	          0.32524601	          0.01002064	          0.01006423	          0.01001392	          0.36872862	          0.65409318	          0.33413611	          0.02807076	          0.04146428	          0.03201817	
          5.70000000	        -15.21434276	         10.21254968	          9.21995943	          3.68849916	          0.83103402	         -0.05519986	          6.33849759	         -0.18085838	         -5.85399464	          0.16346973	         -8.44248340	        -15.08249145	         10.39885627	          2.72208360	         13.42412133	         23.32241997	          2.01786720	         11.62965198	         -0.27846048	         -4.20788611	         17.10862184	        -10.40875139	        -23.11559384	        -46.96532299	         10.56111586	        -43.04144406	         -0.15465843	         -7.91627540	         23.97839868	         43.46794064	         34.96461286	        104.73911097	         99.39988795	          0.01090758	          0.01050263	          0.01108494	          0.02427478	          0.01198837	          0.01179087	          0.02622773	          0.01202667	          0.41266713	          0.28467034	          0.01071202	          0.01018572	          0.01004106	          0.01002596	          0.04483202	          0.07120344	          0.01386743	          0.14716546	          0.06501714	          0.04856325	          0.04965923	          0.03585768	          0.02876204	          0.01282752	          0.01391929	          0.07653440	          0.04652243	          0.01994529	          0.01209685	          0.01330123	          0.01124464	          0.06728077	          0.02464918	          0.01001111	          0.02500404	          0.70229251	          0.01011783	          0.03042442	          0.04928079	          0.03511539	          0.01063399	          0.01050215	          0.01010342	          0.01007632	          0.01017850	          0.02026231	          0.01004531	          0.01162246	          0.45395883	          0.32188998	          0.12946968	          0.07560822	          0.01004922	          0.01003161	          0.01020427	          0.01007446	          0.01005939	          0.01025253	          0.02136326	          0.18339059	          0.01106560	          0.14014878	          0.20417805	          0.01063504	          0.26401892	          0.01009772	          0.01004831	          0.10589856	          0.34733985	          0.72646801	          0.26013694	          0.01002689	          0.01008471	          0.01001091	          0.37344054	          0.77981512	          0.29500312	          0.02691623	          0.03551067	          0.02906298	
          5.75000000	        -14.91815488	          8.83281406	          7.90912784	          3.69744879	          0.82509159	         -0.05267691	          7.86307254	         -0.27474478	         -7.61665045	          0.51759324	         -6.92375230	        -14.65998311	          6.43468233	          4.78190281	         16.95690465	         25.67650806	          7.41056732	         11.10360304	         -0.27197283	         -4.20146313	         14.90532116	         -9.19344938	        -23.95904165	        -42.42309964	          9.38353683	        -41.01654776	          5.38474996	         -7.26007607	         24.65702685	         47.24001454	         36.66256165	        103.94973706	         98.95125618	          0.01032675	          0.01020646	          0.01207193	          0.01688870	          0.01055271	          0.01043022	          0.01590701	          0.01216712	          0.53836480	          0.11966390	          0.01186924	          0.01023672	          0.01004219	          0.01002830	          0.07107209	          0.09623676	          0.01170387	          0.13458627	          0.10454344	          0.08843807	          0.06227283	          0.06160887	          0.05213946	          0.01078410	          0.01108125	          0.01287321	          0.01014858	          0.01108006	          0.01043446	          0.01064904	          0.01279617	          0.05821710	          0.01850313	          0.01001189	          0.06681704	          0.86748193	          0.01035641	          0.03248266	          0.05564938	          0.03780906	          0.01036969	          0.01031090	          0.01010024	          0.01007522	          0.01016632	          0.01072772	          0.01004867	          0.01736437	          0.40649665	          0.33114150	          0.10104044	          0.01290160	          0.01003421	          0.01002276	          0.01025415	          0.01008420	          0.01005187	          0.09529158	          0.19859418	          0.26792083	          0.08972660	          0.20789892	          0.22674723	          0.01052466	          0.14571508	          0.01010283	          0.01004733	          0.11758758	          0.13556067	          0.54947989	          0.19113391	          0.01003724	          0.01008000	          0.01000819	          0.31386443	          0.77919691	          0.26085556	          0.01234780	          0.01123733	          0.01251456	
          5.80000000	        -14.65401540	          7.49569087	          6.34906322	          3.71051792	          0.81786895	         -0.05215196	          8.49602879	         -0.35178897	         -9.23611193	          0.54550205	         -5.60884414	        -13.75085089	          4.17577801	          6.94753436	         18.31821783	         27.31656127	         11.85497985	         10.35913557	         -0.26930109	         -4.43186425	         12.89739862	         -7.93067110	        -24.62308852	        -37.19301035	          7.45730861	        -37.65936313	         10.27845834	         -6.27212148	         25.44063798	         51.16403401	         36.25384179	        103.15889063	         98.51611232	          0.18985400	          0.37176082	          0.01089473	          0.01032691	          0.08421935	          0.18429839	          0.01020802	          0.01270385	          0.52700985	          0.59756837	          0.12951954	          0.01049762	          0.01002376	          0.01001529	          0.01220376	          0.01611968	          0.01060036	          0.02246999	          0.01756730	          0.03664202	          0.01068169	          0.01114213	          0.01504899	          0.05961310	          0.09188515	          0.01006435	          0.01003474	          0.27935727	          0.25324886	          0.37631052	          0.08018924	          0.01007482	          0.01034713	          0.01000583	          0.01258960	          0.99992808	          0.19048217	          0.05059295	          0.10722830	          0.06483534	          0.01058841	          0.01027167	          0.01153161	          0.01324517	          0.01093417	          0.01097259	          0.07346244	          0.01515883	          0.21574173	          0.16162993	          0.11926138	          0.10562216	          0.01006378	          0.01004091	          0.15023084	          0.22112937	          0.03126252	          0.24995191	          0.15531087	          0.13784722	          0.06825539	          0.05354233	          0.04103151	          0.01138798	          0.02450465	          0.01013637	          0.01006528	          0.03441664	          0.02277068	          0.09161349	          0.03221919	          0.13547493	          0.03421750	          0.01001579	          0.05252669	          0.47701177	          0.32655043	          0.01755116	          0.01712187	          0.01722188	
          5.85000000	        -14.78089117	          6.29442222	          5.22511252	          3.73270186	          0.81030089	         -0.05516975	          8.02904706	         -0.98501700	         -9.79499044	          0.24210965	         -4.58557209	        -12.41364250	          4.18125733	          9.25209940	         18.10728005	         27.68367439	         13.13113739	          8.60403632	         -0.44588446	         -5.36105841	         12.20091214	         -6.83892036	        -24.89922149	        -34.73511561	          6.06534391	        -34.75037045	         13.52496922	         -5.62053352	         26.24420398	         54.93857363	         36.34107211	        102.41100822	         98.19581576	          0.03789144	          0.06278890	          0.01632174	          0.01167401	          0.03208464	          0.04139287	          0.01073988	          0.01116413	          0.25371160	          0.15390285	          0.05027871	          0.01291976	          0.01004299	          0.01002721	          0.01087158	          0.01045625	          0.01754300	          0.01019400	          0.01062606	          0.01319164	          0.01079744	          0.01221542	          0.01212653	          0.01902041	          0.01598761	          0.01019129	          0.01008070	          0.04695244	          0.04437733	          0.06978838	          0.01638442	          0.01031586	          0.01089778	          0.01001034	          0.01668922	          0.63979953	          0.13777730	          0.04494888	          0.08454020	          0.05446454	          0.01122740	          0.01085625	          0.01146572	          0.01171824	          0.01139955	          0.01100582	          0.01242573	          0.01136352	          0.36860319	          0.20819754	          0.13112186	          0.02536404	          0.01004511	          0.01002972	          0.02529775	          0.03713598	          0.01051768	          0.04450567	          0.03881262	          0.05247323	          0.01866391	          0.03026150	          0.03818701	          0.01258350	          0.01305376	          0.01009882	          0.01004798	          0.04693798	          0.01302880	          0.14379121	          0.01643399	          0.02266814	          0.01123256	          0.01001223	          0.04407846	          0.70801989	          0.26831601	          0.03485857	          0.05523582	          0.03973632	
          5.90000000	        -15.40226613	          5.06752671	          4.57208459	          3.76263779	          0.80571875	         -0.06038676	          7.18484575	         -2.21935221	         -9.28521985	         -0.22043528	         -3.48140143	        -11.12719587	          5.53137460	         10.89897333	         17.23026102	         26.83893112	         11.65015147	          5.21455845	         -1.95578661	         -5.18144002	         12.67529989	         -5.65726316	        -24.28769622	        -33.11686872	          6.08787733	        -33.69492057	         15.73506472	         -5.61863482	         27.09897066	         57.81107029	         38.32847447	        101.55161397	         97.88802738	          0.01054243	          0.01057886	          0.01266582	          0.01296429	          0.01082311	          0.01079087	          0.02039888	          0.01698747	          0.04235921	          0.02592064	          0.03878288	          0.09849006	          0.02414894	          0.01274830	          0.07376413	          0.10653045	          0.01352334	          0.14241537	          0.10367452	          0.09588481	          0.05354400	          0.05567397	          0.05439125	          0.01204113	          0.01259646	          0.01091016	          0.01038528	          0.05763217	          0.01094660	          0.01195135	          0.01699531	          0.02225110	          0.01917364	          0.04866913	          0.05539312	          0.10670012	          0.08427751	          0.02091828	          0.02496871	          0.02181788	          0.01150237	          0.01012103	          0.01075905	          0.01062713	          0.01099544	          0.01219157	          0.01038218	          0.01510674	          0.68962634	          0.65631135	          0.07733074	          0.01010294	          0.01001046	          0.01000667	          0.01139435	          0.01086580	          0.01056080	          0.01059049	          0.02492424	          0.02595522	          0.02349167	          0.04032402	          0.04577587	          0.01189078	          0.06187691	          0.01005686	          0.01002181	          0.04741362	          0.06460537	          0.28126684	          0.04730019	          0.01017059	          0.01067667	          0.01000285	          0.08174944	          0.99986916	          0.04819322	          0.02952798	          0.03453379	          0.03068214	
          5.95000000	        -16.38534789	          3.74563906	          4.33866244	          3.79251363	          0.80222955	         -0.06667658	          6.93754906	         -3.38398055	         -7.86565574	         -0.34866853	         -2.12431786	        -10.43888531	          7.34687590	         11.20470749	         16.68402734	         25.89379166	          9.44139755	          1.71092045	         -5.63795640	         -3.52307825	         13.17847095	         -3.79058855	        -24.36064192	        -27.57301347	          6.28646665	        -33.38144118	         19.79699252	         -5.85725891	         27.58371116	         61.29293128	         40.96896606	        100.85651422	         97.54392452	          0.01063761	          0.01060774	          0.01081963	          0.02259261	          0.01122189	          0.01104770	          0.05782767	          0.01326320	          0.01290432	          0.01112187	          0.05427127	          0.08635616	          0.01247418	          0.01307003	          0.05440567	          0.08580005	          0.04066183	          0.12198874	          0.04421363	          0.04538676	          0.03214161	          0.02216067	          0.01513526	          0.01245340	          0.01187916	          0.01317835	          0.02199112	          0.01651215	          0.01118264	          0.01393949	          0.01243278	          0.18099099	          0.01593750	          0.13373589	          0.01757479	          0.03268966	          0.17819636	          0.02695150	          0.05755779	          0.03197265	          0.07857505	          0.19082123	          0.01517858	          0.01298659	          0.04323973	          0.07294337	          0.01230686	          0.01347715	          0.11501271	          0.10946413	          0.01349100	          0.02070793	          0.12936319	          0.24616344	          0.01339964	          0.01108535	          0.02272813	          0.01055257	          0.01233805	          0.03229277	          0.01085399	          0.01282226	          0.01268971	          0.01974799	          0.01587302	          0.01416855	          0.03417254	          0.05655419	          0.04183764	          0.24215860	          0.01285323	          0.01481473	          0.01176312	          0.22350292	          0.01518343	          0.16676505	          0.05771751	          0.02997951	          0.07722298	          0.03630327	
          6.00000000	        -17.53396800	          2.62446344	          4.75003996	          3.81996844	          0.79819010	         -0.07445581	          7.20537559	         -4.33739965	         -5.83601047	          0.05099967	         -0.78031789	        -10.11351487	          9.35384857	         10.92307497	         16.63148507	         25.32605612	          7.40635218	         -0.86725766	        -19.88391719	        -14.49538850	         13.05721125	         -1.04277003	        -26.21957097	        -18.70418669	          5.57224628	        -32.02641158	         24.56656233	         -6.51021089	         27.38943890	         65.70003961	         41.10640285	        100.66521270	         97.06645561	          0.04907478	          0.04737136	          0.04355894	          0.03624743	          0.04762717	          0.04998232	          0.03110392	          0.04613048	          0.04532578	          0.04159461	          0.02979597	          0.01954698	          0.04881153	          0.02713123	          0.03712584	          0.02900270	          0.03977688	          0.02099315	          0.03586847	          0.04157445	          0.03376563	          0.04041625	          0.04420642	          0.04812155	          0.04886584	          0.05039864	          0.04626555	          0.04626514	          0.05222950	          0.04361089	          0.04759133	          0.03074066	          0.04128604	          0.02233288	          0.03824639	          0.03534945	          0.03024997	          0.03773832	          0.03070628	          0.03666546	          0.02001802	          0.03228842	          0.04578403	          0.04629705	          0.03508338	          0.02748785	          0.04682248	          0.04396176	          0.01937336	          0.02119448	          0.04228000	          0.02938325	          0.02160973	          0.04142481	          0.05260636	          0.05634017	          0.05129515	          0.04943212	          0.05130615	          0.04739432	          0.04431621	          0.04645601	          0.04489564	          0.04176339	          0.03869355	          0.04257191	          0.03918170	          0.03712374	          0.03246439	          0.04078411	          0.04125646	          0.04706714	          0.05029597	          0.03766183	          0.03810168	          0.02841933	          0.02770350	          0.03895719	          0.02889366	          0.03780335	
