Inverse Dynamics Generalized Forces
version=1
nRows=20
nColumns=34
inDegrees=no
endheader 
time	pelvis_tilt_moment	pelvis_list_moment	pelvis_rotation_moment	pelvis_tx_force	pelvis_ty_force	pelvis_tz_force	hip_flexion_l_moment	hip_adduction_l_moment	hip_rotation_l_moment	hip_flexion_r_moment	hip_adduction_r_moment	hip_rotation_r_moment	knee_angle_l_moment	knee_angle_r_moment	ankle_angle_l_moment	ankle_angle_r_moment	subtalar_angle_l_moment	subtalar_angle_r_moment	mtp_angle_l_moment	mtp_angle_r_moment	lumbar_extension_moment	lumbar_bending_moment	lumbar_rotation_moment	arm_flex_l_moment	arm_add_l_moment	arm_rot_l_moment	arm_flex_r_moment	arm_add_r_moment	arm_rot_r_moment	elbow_flex_l_moment	elbow_flex_r_moment	pro_sup_l_moment	pro_sup_r_moment	
          3.00000000	         -0.00000225	         -0.00000139	          0.00000059	         -0.00000426	         -0.00000209	          0.00000073	         18.95100353	         30.49604967	         -4.04335139	        -10.37565136	          1.86642545	         -2.34810684	         -2.97038457	          5.98581833	        -45.92239629	         -3.42965349	          7.84406381	         -1.92326797	          5.51750132	          0.78715132	        -11.93619076	         62.13713236	          1.78538372	          0.28985638	         -0.09024973	         -0.55208175	          8.74659833	         -5.35235953	         -1.65689216	          1.91442917	          0.20175523	         -0.07001576	         -0.06262976	
          3.05000000	         -0.00000048	          0.00000531	          0.00000135	          0.00000020	          0.00000509	         -0.00000618	         47.47583796	         31.52190464	         -1.35805521	        -36.11328139	         -4.26040666	         -1.15519698	        -26.26169532	         18.34037027	        -10.85571646	        -11.63929455	          6.20307106	          1.02857841	          1.15332836	          2.54407094	        -11.39731176	         60.69163134	         13.47108431	          4.23278656	          3.20097697	          0.96848528	          5.28889879	          1.91171150	         -0.04371880	          2.73206335	          1.42659408	         -0.03844982	         -0.02284498	
          3.10000000	         -0.00000153	          0.00000198	          0.00000070	         -0.00000033	          0.00000459	         -0.00000107	         48.20887205	         36.50826463	         -2.77261248	        -54.20528872	        -21.27741820	         -0.96465473	        -20.66195784	         24.30054682	          0.07049381	        -11.69686948	          2.61821260	         -0.32075029	          0.06254844	          1.57661037	          5.06262260	         78.22932041	          2.68989879	         -1.46162569	          4.37244788	          0.35743409	          8.99350691	         -3.69582624	         -2.09551630	          1.19062876	          1.05950117	         -0.01815629	         -0.10951116	
          3.15000000	         -0.00000109	         -0.00000222	          0.00000025	         -0.00000053	          0.00000270	          0.00000297	         44.26559350	        113.70727043	         -5.34024242	        -44.18953183	         59.68964946	          0.52472518	          0.81648413	         36.45747981	         -2.00130700	        -12.06192416	          3.93621929	          3.52765624	         -0.00186278	          1.01001557	         -4.95589503	         71.19495950	         16.16938126	         -1.29603040	          6.74985780	          0.73507095	         -7.15224636	          2.99249969	          2.74426658	          0.12737246	         -0.25863201	          0.00038986	          0.13100211	
          3.20000000	         -0.00000014	         -0.00000051	          0.00000002	          0.00000061	          0.00000510	          0.00000177	        -20.60378116	        140.40240669	         -5.10290608	         26.60133271	        100.37717846	          6.60691775	         39.12768574	          7.60881143	        -10.84930627	        -10.16273480	          5.11105398	         13.06019186	          0.09405506	          1.71497195	        -10.35276072	         75.93550913	          7.83042534	         -4.98566011	         11.32205341	          1.27508312	         -7.44020841	         -8.21496514	          0.78977520	         -1.43225079	         -2.76047233	          0.06213424	          0.08388485	
          3.25000000	          0.00000375	          0.00000220	         -0.00000048	          0.00000571	          0.00000469	         -0.00000178	         -4.10232991	         84.31417044	          2.86487077	         13.82184509	         51.36130773	          5.74514675	         23.60416730	          0.22224664	        -21.65444529	         -6.67399416	          8.24340495	          9.65717933	          1.39925726	          1.81155825	        -10.94118350	         85.43604550	         10.00204274	          9.69122483	         11.28340135	          3.05530307	          8.90851807	        -12.24726164	         -3.27749198	          2.73362085	         -0.06877241	          0.01568485	         -0.14660180	
          3.30000000	          0.00000167	          0.00000008	         -0.00000024	          0.00000218	          0.00000104	          0.00000065	          9.60037300	         46.62159903	          1.03207260	         -6.66393666	         19.28563518	          3.34016448	         11.38518436	          5.93658529	        -23.42989606	         -6.63316926	          4.33842712	          6.12213773	          2.55268702	          2.52351182	         -1.16278019	         61.27094555	         -0.69777273	         29.17629389	         -8.30387267	          1.86402947	         -6.29977109	         -5.57799339	          0.60043127	         11.19399949	         -1.45209102	         -0.21803536	          0.02675552	
          3.35000000	         -0.00000066	          0.00000190	          0.00000040	         -0.00000050	          0.00000219	         -0.00000153	        120.72393841	        142.59315884	          5.27274994	        -90.78287381	         23.79152667	         -0.90540691	        -30.39164027	         61.97416093	        -16.67125780	        -44.40894643	         22.99057588	         13.97919974	          2.81449837	         12.24445992	        -28.21769112	        129.13567851	         27.32735858	         10.68844127	        -25.90081803	         -4.43965019	          3.26900582	        -11.91841938	         -4.32912585	         12.70451033	          0.91615838	         -0.39965221	         -0.26307176	
          3.40000000	          0.00000124	          0.00000018	         -0.00000008	          0.00000134	         -0.00000077	         -0.00000067	        -15.71384498	        -25.72882988	          0.50194814	         37.93694218	       -179.75684030	         -7.65761427	          3.30799639	         -8.24516760	          0.69547028	        -81.72644111	         -0.40797783	         12.78312902	         -0.02573588	         16.48523765	        -15.33575211	         89.53702272	        -11.89036699	         18.55683917	        -17.76311602	          0.53853546	        -19.37207464	        -45.47938441	        -16.22407040	         16.32946419	         -6.51139875	         -0.26047583	         -0.43878880	
          3.45000000	          0.00000123	          0.00000221	          0.00000016	          0.00000139	         -0.00000055	         -0.00000211	         15.09236454	         13.66997655	         -0.88468873	        -11.75067855	       -113.09379587	         11.77338739	         -2.75536776	         41.89059747	          1.16231208	       -153.28441468	          0.16489234	         51.92400940	         -0.03809103	         24.94678725	         -1.22364449	         15.60279231	        -17.23213131	         -0.13698864	         35.13497266	         11.67692460	        -42.59508654	        -33.13033699	        -19.55311511	          9.12735199	         13.10029481	          0.09995691	         -0.54643929	
          3.50000000	          0.00001048	         -0.00000282	          0.00000052	          0.00001045	         -0.00000773	          0.00000295	        -14.70471831	         15.69402093	         -0.18208001	         20.96730010	         -9.68643044	          1.04703371	          4.83398912	        -10.43076584	          0.38899078	          0.54422230	          0.27937800	         -0.05393597	         -0.02226888	          0.19651636	         -1.88115157	         31.97076858	        -14.55868724	        -46.82343298	         21.65300189	         11.86367407	         99.40367754	          1.36167105	         47.90556400	         -8.98977407	         19.14327083	          0.51062307	          0.21803284	
          3.55000000	         -0.00000003	         -0.00000023	         -0.00000011	          0.00000020	          0.00000028	         -0.00000006	        -13.31062323	          0.69382933	          0.28896382	         26.06165845	          8.16675473	         -2.63156337	          4.76957491	        -18.16064657	          0.20336786	          2.22240444	          0.01275826	         -2.53348187	         -0.01054123	         -0.80372174	        -11.93251409	        -14.06102234	          1.04677618	        -32.51658157	          1.03388621	          6.16011633	         18.13471802	         -2.06885662	          8.03079613	         -7.69503063	         -0.83367338	          0.32843009	          0.24445957	
          3.60000000	         -0.00000013	          0.00000016	         -0.00000001	         -0.00000004	          0.00000015	         -0.00000019	        -11.26935915	         17.46760379	          0.90772472	         58.55297640	          6.55892597	         -0.85419759	          3.66701600	        -36.96159029	          0.17427536	          2.67937145	          0.32064556	         -0.76650150	         -0.01811176	         -1.73408033	        -41.73042595	          7.73398546	         -7.44406084	        -15.51835297	         -0.11178543	          1.14836245	         19.28470998	         -9.33343869	          9.80626283	         -4.00569831	          0.54860932	          0.08034293	          0.25996403	
          3.65000000	         -0.00000013	         -0.00000004	          0.00000004	         -0.00000046	          0.00000018	          0.00000048	        -11.49160110	         23.41118835	          0.56681070	         69.86291482	         18.34452938	          3.04072516	          4.09334090	        -36.32409660	          0.13887067	         -0.28211140	          0.43168698	          5.77535758	         -0.01612162	         -0.87018727	        -57.81008150	          1.17063230	        -23.02892400	        -42.41333827	         11.59099008	         12.90604976	         20.53645240	          7.35100149	          6.44402806	         -9.24780769	          0.29076204	          0.60115452	          0.12234006	
          3.70000000	         -0.00000118	         -0.00000077	         -0.00000006	         -0.00000092	          0.00000085	          0.00000109	        -27.37204630	         22.54249537	          0.40327476	        106.98735623	         24.19502156	         10.21235661	         10.34190981	        -51.60537883	          0.26557147	         -1.79700751	          0.41090320	         17.40548026	         -0.01995078	          1.51506966	        -82.21120384	        -11.39912799	        -46.90096521	        -90.64359775	         20.32469178	         23.91902176	         28.74955322	         25.79933164	         11.77128170	        -16.17927066	          1.22678363	          1.19547547	          0.23858158	
          3.75000000	         -0.00000200	         -0.00000106	          0.00000030	         -0.00000212	          0.00000323	          0.00000086	         26.48664191	        -53.33293732	         -1.00443526	       -109.38686978	       -108.87248958	        -29.52407520	        -11.66937705	         23.24866961	          1.47960932	        -58.19439091	         -0.94371496	          4.38948623	         -0.02692272	          5.96619261	         69.87593778	       -123.10292571	         86.39665533	         63.03320305	        -52.69623977	        -20.69944560	        -65.15281003	          6.21731360	        -24.76017102	         23.39324375	         15.36570281	         -1.43001147	         -0.98223651	
          3.80000000	         -0.00000017	         -0.00000029	          0.00000006	          0.00000023	          0.00000187	          0.00000037	          0.21047169	        -37.08688615	         -0.66990205	        -41.59574621	        -59.34636072	        -14.26865072	         -2.07189729	         11.10657619	          0.86677827	        -57.02627033	         -0.65586472	          9.01218306	         -0.02189678	          7.12438509	         37.84531840	        -86.16206403	         40.65040698	         32.11771835	        -19.96262210	         -9.23259917	        -22.07459846	        -10.41629458	        -10.39569673	          3.24689319	          5.94055018	         -0.64987079	         -0.35059536	
          3.85000000	          0.00000017	         -0.00000041	         -0.00000006	          0.00000023	         -0.00000017	          0.00000049	         -4.58629146	        -25.57632985	         -0.26062627	         12.15945805	        -50.91386770	          1.81596365	         -0.34552959	        -10.59633317	          0.49874099	        -43.09651036	         -0.42488910	         13.18522108	         -0.01597207	          7.30370270	         -9.76821822	        -32.07993705	          0.25542693	          7.63865662	         12.22343495	         -0.66778266	         -7.94545649	          0.40773514	         -2.30416477	          6.35677725	          0.89912864	         -0.20359417	         -0.08054792	
          3.90000000	         -0.00000044	          0.00000023	          0.00000001	         -0.00000026	          0.00000165	         -0.00000028	         -0.78001750	         -1.19427160	         -0.25318784	         40.74092183	        -41.92996170	          7.58443812	         -0.87493704	        -24.21288273	          0.36235997	        -49.43055436	          0.02168496	         20.64258616	         -0.01004043	          9.21339574	        -43.70349667	        -16.23671330	        -24.65790053	         -7.27926940	          3.16180915	          0.59711515	         -0.67658868	         -2.62805770	         -2.09741480	          0.74613128	          1.99486981	          0.03780267	         -0.10239393	
          3.95000000	          0.00000004	         -0.00000084	         -0.00000008	          0.00000035	          0.00000143	          0.00000107	         11.65029243	          6.12736012	         -0.05752112	         -9.54741226	        -18.57981917	          3.80371901	         -3.56198994	          6.68358929	          0.51849791	        -58.24660133	          0.15011175	         20.37112838	         -0.05998882	         11.36874911	         -6.35875765	        -32.87381440	          3.03123669	        -11.01095711	          5.11280059	         -0.33619439	          9.41840666	         -0.40058450	          1.08745662	         -0.51695406	          3.49425113	          0.03010416	         -0.04625454	
