Inverse Dynamics Generalized Forces
version=1
nRows=20
nColumns=34
inDegrees=no
endheader 
time	pelvis_tilt_moment	pelvis_list_moment	pelvis_rotation_moment	pelvis_tx_force	pelvis_ty_force	pelvis_tz_force	hip_flexion_l_moment	hip_adduction_l_moment	hip_rotation_l_moment	hip_flexion_r_moment	hip_adduction_r_moment	hip_rotation_r_moment	knee_angle_l_moment	knee_angle_r_moment	ankle_angle_l_moment	ankle_angle_r_moment	subtalar_angle_l_moment	subtalar_angle_r_moment	mtp_angle_l_moment	mtp_angle_r_moment	lumbar_extension_moment	lumbar_bending_moment	lumbar_rotation_moment	arm_flex_l_moment	arm_add_l_moment	arm_rot_l_moment	arm_flex_r_moment	arm_add_r_moment	arm_rot_r_moment	elbow_flex_l_moment	elbow_flex_r_moment	pro_sup_l_moment	pro_sup_r_moment	
          0.00000000	          0.00001801	         -0.00008293	         -0.00002237	          0.00002668	          0.00008169	          0.00009604	          9.38279254	         31.84303875	          0.98823403	        -23.19695234	         51.89013802	          0.34018341	         -0.78067799	         29.65130854	          0.01424430	         -9.83791389	          0.55622940	          6.31780352	          0.00260192	          0.39496673	         10.00435346	        -18.57452652	         -9.11612571	          0.51413074	          0.82549787	          0.32661538	         -2.41144915	          0.01628419	         -0.20848312	          0.39891264	          0.04254438	          0.01753060	         -0.01167617	
          0.05000000	          0.00003002	         -0.00000404	         -0.00000031	          0.00004307	         -0.00000376	          0.00000131	        -21.49066105	         16.79875209	          0.87547269	        -10.62286666	          7.34279450	         -1.85270301	         20.72201882	          4.17572052	        -11.82327100	         -7.11531188	          2.08806043	          5.02457389	          3.40199437	          0.54085597	         23.05366123	        -30.02858442	         -6.81505513	         -4.77724710	         -0.62135828	          0.39938097	         -0.61878354	         -2.74572175	         -0.89238951	         -0.36163222	          2.01753732	          0.01407390	         -0.05549284	
          0.10000000	         -0.00002298	         -0.00003700	          0.00000178	         -0.00004605	         -0.00003631	          0.00003136	         11.21212844	         12.28045872	          3.07798295	         -5.33172717	        -11.90486412	         -3.02302153	         -2.22438488	         -1.36374461	         -5.98955165	        -16.31025970	          3.83096457	          5.56045062	          2.36600729	          2.09542830	         -7.09125246	        -19.34820972	          3.81345134	          0.24144573	         -2.14689522	         -0.21317547	          4.50609402	         -2.14972779	         -0.27116398	          1.26885464	          2.81046331	         -0.01686844	         -0.03374630	
          0.15000000	          0.00000562	         -0.00000812	          0.00000123	          0.00000453	          0.00004573	         -0.00000500	         22.26891830	         14.94090351	          5.23845776	         -8.86539271	        -14.91064156	         -7.59848124	         -4.74418969	          1.68356867	        -11.21076636	        -18.08327237	          5.87013157	          1.19183766	          4.23162865	          2.47240788	        -14.04548339	         -3.57760376	         11.47375124	          0.70388304	         -2.65153536	         -0.45088925	         -1.48017126	         -0.86120915	         -0.14532004	          1.30336664	          1.39468518	         -0.03029023	         -0.02858891	
          0.20000000	          0.00001150	          0.00001549	         -0.00000121	          0.00001769	          0.00002422	         -0.00001317	        -41.83495181	         29.48986166	          5.92351081	         42.01917197	         12.22204241	         -0.95246084	         39.17906389	         -6.74866219	        -23.73422152	        -15.35085114	          5.15620856	          8.02735857	          8.45244829	          2.42960780	         -2.18210583	         -9.26755931	        -11.10341684	         -0.03007502	         -1.88263813	         -0.19290967	         -5.20465395	          0.44877132	          0.03209887	          0.69870206	          0.23218709	         -0.00814794	         -0.01348772	
          0.25000000	          0.00002703	          0.00002712	         -0.00000616	          0.00003690	          0.00003264	         -0.00003025	        -13.29476596	         18.09529635	          4.18114113	         26.33663196	        -12.35466248	          8.57392636	         21.44472357	         -3.86847060	        -16.62965178	        -23.93308341	          4.24403107	         15.12984363	          5.98486786	          3.83756387	        -11.92882855	        -13.17669311	        -11.27416645	         -3.31826362	         -2.26052555	         -0.01780290	         -1.00989205	          0.32930014	         -0.02351894	         -0.26342886	          1.54750652	          0.02352658	         -0.03346884	
          0.30000000	         -0.00000605	         -0.00001210	         -0.00000177	         -0.00000219	          0.00002432	          0.00001572	         28.42522877	          7.33641919	         -1.94141178	        -10.04255981	        -21.15387194	          5.12814695	        -11.81759922	          4.82411161	          0.90624107	        -19.58815623	          0.26658183	          9.08897844	         -0.08670592	          2.71446072	        -17.01690739	        -11.58474354	         -2.37127834	         -3.89947777	         -2.14896170	         -0.17793943	         -5.45716560	          1.72512628	          0.70262400	         -0.53926316	         -0.17996356	          0.00253172	          0.02137611	
          0.35000000	          0.00000308	          0.00000843	          0.00000244	          0.00000284	          0.00000278	         -0.00001226	          9.07449402	          2.68034805	          0.01026987	        -19.80464236	        -10.36817877	         -1.65768895	         -4.65218455	         11.78703631	          0.46625631	        -15.47071870	          0.00608595	          2.43384519	         -0.03261346	          1.76498408	         10.35582397	         -7.22641895	          4.50394460	         -3.52652028	         -2.03810146	         -0.36140616	         -5.62602862	          1.41326623	          0.75601051	         -0.15467069	         -0.39641038	         -0.02329054	          0.03194079	
          0.40000000	          0.00002665	          0.00001561	          0.00000527	          0.00003002	         -0.00000152	         -0.00002119	        -21.76103237	         -9.37102138	          3.01897738	         11.60905955	        -21.47029829	         -2.06726390	          4.90161570	         -4.86158893	          0.74538916	        -14.29558731	         -0.18479150	          3.48528462	         -0.15042612	          2.13759937	         10.88230796	         -4.50329366	         -3.19502163	         -2.65056675	         -3.10283041	         -0.47827063	         -2.27332073	         -0.19764107	          0.04684260	         -0.03114470	          0.37952210	         -0.02439480	         -0.00547685	
          0.45000000	          0.00002907	         -0.00000998	         -0.00000841	          0.00003596	         -0.00001660	          0.00000558	         -5.79842824	         -2.08043579	          0.33815367	         -5.54918772	        -24.90125707	          1.40166518	          2.13222068	          2.77013179	          0.71447761	        -17.79461478	          0.05904048	          4.93875707	         -0.07893789	          2.61694442	         11.76260574	         -8.96132532	         -5.94165363	         -1.03073232	         -3.28757625	         -0.56139250	         -1.61592343	         -0.20564163	         -0.09259020	          0.29001202	          0.90290951	         -0.03419606	         -0.02749464	
          0.50000000	          0.00001380	          0.00001730	          0.00000686	          0.00002535	          0.00002237	         -0.00002221	          8.11406619	          3.52925270	         -0.37636003	         -1.31562502	        -25.96963446	          3.56385127	          0.38855552	          2.97485771	          0.46053711	        -24.28001038	          0.11686726	          7.15663134	         -0.01143957	          2.88955238	         -4.94182274	        -19.89210312	         -4.61503054	         -1.92669398	         -4.17537924	         -0.59432977	         -2.92563540	          0.19367336	          0.07150118	          0.33761202	          1.14783974	         -0.03117067	         -0.03219310	
          0.55000000	          0.00000638	          0.00000930	          0.00000372	          0.00001074	          0.00002292	         -0.00001433	          5.76495480	          0.29520684	         -0.13873919	         11.05269368	        -25.78832616	         -0.78165664	         -0.32881553	         -5.17854396	          0.35020046	        -18.59030802	         -0.00379307	          2.78132555	          0.00162291	          2.09775856	        -13.44337064	         -8.91911689	         -0.33362955	         -0.44593321	         -3.04888485	         -0.37901851	         -0.45717228	          0.36312694	          0.25754824	          0.78306222	          1.05559874	         -0.02817016	         -0.01488734	
          0.60000000	         -0.00000749	         -0.00001634	         -0.00000406	         -0.00000212	          0.00001975	          0.00001809	        -12.44098403	          0.19424717	         -0.46392595	         21.28001188	        -19.20877110	         -1.06465932	          3.74313002	         -5.71548087	          0.72905481	        -20.94135442	         -0.10896875	          3.30202356	         -0.01319575	          2.54406766	         -3.66355957	         -9.83157660	         -6.49447039	         -0.29001109	         -1.73383424	         -0.10716357	         -0.44076825	         -0.10853566	         -0.09461460	          0.84610236	          1.49889460	         -0.00747301	         -0.03743573	
          0.65000000	         -0.00000106	          0.00000348	         -0.00000047	          0.00000511	          0.00003110	         -0.00000797	          9.03521271	          0.64546358	         -1.72121631	          9.14508478	        -21.85851703	         -1.65501996	         -7.69689216	          6.69988804	          3.96886718	        -39.27940142	         -0.04028105	          3.61893226	         -0.02268344	          5.23482871	        -12.08928106	        -12.73495876	         -1.82150080	         -1.82659093	         -1.90894897	         -0.18529491	         -5.07248840	          1.05490570	          0.42088743	          0.71602565	          0.52218569	         -0.01071395	         -0.00432450	
          0.70000000	         -0.00000212	         -0.00000234	         -0.00000113	          0.00000384	          0.00002701	          0.00000122	        -22.51943038	         16.65874111	          0.66880722	         40.13826458	          2.79486493	          2.99421836	         12.77077373	         -1.16476977	          3.01916788	        -36.04498489	         -0.06900560	          6.60061590	         -0.02417538	          5.84127977	        -18.34712611	          7.17443490	          0.65449898	         -1.75002167	         -2.69404098	         -0.29892643	         -6.30463120	          1.50459373	          0.36137130	          0.73538769	          0.04936471	         -0.00808556	         -0.00368360	
          0.75000000	          0.00000242	          0.00000286	         -0.00000148	          0.00000580	          0.00001701	         -0.00000139	        -25.89649706	         -0.86092393	          1.40768319	         24.61594877	          8.51667142	          3.23238523	          9.56393582	         -2.44351769	          0.92796872	        -17.02009981	          0.30910944	          3.67292078	         -0.01329747	          3.66349305	         -3.77098638	         16.54715379	         -1.24143917	          2.34856465	         -1.40866362	         -0.04937391	          0.26833386	         -1.36356220	         -0.12739689	          2.03551345	          1.70691038	         -0.02282241	         -0.02691920	
          0.80000000	          0.00001241	         -0.00000100	          0.00000391	          0.00001245	          0.00000533	          0.00000271	         -3.59924560	         30.97451390	          1.41067087	         -7.08856106	         43.80501677	          7.04936747	          9.95430251	         19.39628502	         -4.14435527	        -10.80114194	          4.19319102	          6.44507956	          0.16512752	          3.46985522	          5.19626518	         17.74459447	         11.08242258	          4.63169809	         -1.17098525	          0.05090703	          1.98982345	         -0.67151037	          0.17902569	          2.99687077	          2.34565576	         -0.01896683	         -0.03158587	
          0.85000000	         -0.00000802	          0.00003174	          0.00001387	          0.00000876	          0.00006840	         -0.00003858	        -32.55193468	         19.09666305	          1.20132074	         20.18204970	         28.92233907	          4.28462075	         22.74822537	          2.21581267	        -11.45332417	         -4.33732969	          4.23769033	          4.73803404	          0.73401609	          1.65735504	          1.92926983	         31.47168100	         -3.21925359	         -3.68038794	         -3.95362983	         -0.82698116	         -1.63717740	         -1.41543242	          0.05395052	          0.41444090	          0.97667714	         -0.06281519	         -0.00781445	
          0.90000000	          0.00002375	         -0.00003340	         -0.00000744	          0.00002907	          0.00001621	          0.00004644	        -34.98961120	        -11.68783422	          0.42019027	         26.93286824	          8.90834770	          0.48294084	         20.91197068	         -7.14794592	        -20.20488166	         -0.20016911	          3.59993393	          1.86916884	          2.16732189	          0.27817116	         -3.17785245	         35.56655499	         -8.37372013	         -5.96730795	         -2.31364977	          0.22120398	         -5.36844002	          0.10126883	          0.01358795	         -0.55126591	         -0.47413826	          0.00600573	          0.01524642	
          0.95000000	          0.00004985	         -0.00003663	         -0.00001269	          0.00006947	          0.00003781	          0.00006026	        -23.12283011	        -29.45905302	         -2.05149762	         18.78045333	         -1.56603500	         -1.29967460	         11.87684460	         -8.75296293	        -19.16031459	          1.01982795	          0.44252042	          0.08903719	          2.19942847	         -0.12995884	          1.28470977	         16.27627836	         -5.31869596	         -2.78924844	         -0.35787506	          0.49668540	         -4.25190710	          0.66978452	         -0.06436040	          0.02139134	         -0.29391199	          0.01497572	          0.00648406	
