Inverse Dynamics Generalized Forces
version=1
nRows=20
nColumns=34
inDegrees=no
endheader 
time	pelvis_tilt_moment	pelvis_list_moment	pelvis_rotation_moment	pelvis_tx_force	pelvis_ty_force	pelvis_tz_force	hip_flexion_l_moment	hip_adduction_l_moment	hip_rotation_l_moment	hip_flexion_r_moment	hip_adduction_r_moment	hip_rotation_r_moment	knee_angle_l_moment	knee_angle_r_moment	ankle_angle_l_moment	ankle_angle_r_moment	subtalar_angle_l_moment	subtalar_angle_r_moment	mtp_angle_l_moment	mtp_angle_r_moment	lumbar_extension_moment	lumbar_bending_moment	lumbar_rotation_moment	arm_flex_l_moment	arm_add_l_moment	arm_rot_l_moment	arm_flex_r_moment	arm_add_r_moment	arm_rot_r_moment	elbow_flex_l_moment	elbow_flex_r_moment	pro_sup_l_moment	pro_sup_r_moment	
          4.00000000	         -0.00003835	         -0.00001706	          0.00000200	         -0.00002760	          0.00009024	          0.00000848	         -6.60719193	         13.35110862	          0.05732458	         24.85929322	        -14.95400732	          1.28210674	          2.76984702	        -14.37824836	          0.37220916	        -52.58109920	          0.21692465	         19.04019368	         -0.04060118	          5.89208536	        -21.09755429	        -43.57078153	         -6.58465637	          5.04400165	         -5.78948098	         -0.00139103	          4.08129666	         -0.97285195	          0.70469486	         -0.30289397	          3.16629298	         -0.03016728	         -0.05607751	
          4.05000000	         -0.00000860	          0.00000651	          0.00000156	          0.00000542	          0.00004415	         -0.00001190	        -11.27338719	          5.89165024	          3.05171913	         30.83251731	        -13.97389282	          1.36336292	         12.99145749	        -19.90051946	        -16.99878397	        -34.72698574	          3.16359585	         14.24992819	          4.63281728	          4.91849894	        -18.34667264	        -37.33819134	         -2.10095153	          2.37774652	         -2.45068701	         -0.05544676	         -1.89352337	          1.50413764	          0.19995105	         -0.33973214	          2.48340661	         -0.01067730	         -0.04794780	
          4.10000000	         -0.00000714	          0.00002674	         -0.00000260	         -0.00000947	          0.00000194	         -0.00003824	         57.53201857	         34.15958877	          1.35010339	        -52.56359765	         18.17308296	         -0.12858730	        -25.10723427	         29.30359594	         -3.77485763	        -20.83849347	          5.28537566	          5.94726547	          1.10818659	          2.29283994	         -4.41152655	         -5.33168667	         17.72569186	        -12.78927440	         -4.79705068	         -0.05120226	         -4.25447304	          2.06035738	          0.08044821	         -4.75191841	          0.38464122	          0.14962233	          0.01116455	
          4.15000000	         -0.00003397	         -0.00002193	          0.00000357	         -0.00003073	          0.00003202	          0.00002280	         15.68664957	          7.58419070	         -0.65152569	         23.24056491	        -35.18629689	          1.49030660	        -14.80438943	        -19.50067275	          3.03958694	        -13.97973175	          1.36104785	          4.10290467	         -0.86179012	          1.84179832	        -28.43733059	         19.69463712	        -10.32698012	         11.02441868	         -6.76843572	          0.17977829	         -3.15878660	          0.98158986	         -0.48843230	          1.74092714	          0.31630765	         -0.10334218	         -0.03011342	
          4.20000000	         -0.00000691	         -0.00000754	         -0.00000232	          0.00000523	          0.00004448	          0.00000421	         -4.55762839	          6.38257654	         -0.67933673	         56.91380888	        -23.91723387	         -0.16529184	         -4.91026487	        -28.50211978	          2.29851565	        -25.55631755	          0.37988995	          8.84230659	         -0.72202654	          3.42640515	        -36.79669256	         -5.36802932	        -12.27545090	          6.01297253	          0.56137012	         -0.03071869	          6.41856924	          4.94366018	          3.56565605	          1.89574909	          2.86594879	         -0.09252028	         -0.00857238	
          4.25000000	          0.00005829	          0.00000432	         -0.00000384	          0.00006568	         -0.00001447	         -0.00000618	         12.78482050	         -5.33185720	          0.45902353	        -12.35411102	        -22.10449623	         -1.68610163	         -2.92675018	         11.21505659	          1.05113804	        -23.76365329	          0.05118144	          3.78906191	         -0.20949353	          2.97577573	         -0.76523123	        -13.41095648	          8.76695049	        -34.69675937	         21.89469368	         -0.77866733	         19.40369383	         19.91697208	         12.95384023	         -6.23491883	          1.66143395	          0.28510251	          0.23054985	
          4.30000000	          0.00000510	          0.00000319	          0.00000012	          0.00001205	          0.00002109	         -0.00000898	         -9.12565441	          6.56615651	         -0.64928395	         37.30442660	        -21.20233280	          1.86433717	          4.19274506	        -19.18533574	          0.35543775	        -21.80335358	          0.05730643	          7.50592370	         -0.02414182	          3.10057422	        -18.21892553	         -9.12881737	         -7.83827519	         27.24099714	        -51.64102802	         -5.22387479	        -16.54357822	        -38.20280323	        -13.25783086	          7.86874089	         -6.24178272	         -0.67416444	         -0.09598862	
          4.35000000	         -0.00000139	         -0.00000146	         -0.00000033	          0.00000491	          0.00001812	         -0.00000031	         -1.16145266	         -2.50177605	         -0.38255618	         23.08484768	        -40.00239097	          0.71807956	          2.07789616	        -17.17628361	          0.64122464	        -24.31134133	         -0.14961013	          6.06264862	         -0.01660860	          2.50428465	        -14.34861642	        -11.98228453	         -0.52682725	          7.53126303	         -9.40354079	         -0.61492770	         -3.96619809	         -4.79504124	         -2.00013869	          2.35300467	          0.25263425	          0.00739324	         -0.18892004	
          4.40000000	         -0.00000135	         -0.00000305	         -0.00000012	          0.00000069	          0.00001101	          0.00000188	         -9.52900053	         -1.30888468	         -0.11440361	         35.55622735	        -29.28004624	         -2.20395855	          2.97835695	        -22.45695166	          1.07952365	        -16.18851939	         -0.17090859	          2.31773511	         -0.00701062	          1.48035199	        -17.72186207	         -4.10867338	         -3.02921802	          0.27606223	         -0.47040558	          0.09543873	          6.99503940	         -0.49601082	         -0.98231369	          1.63684773	          1.21791595	         -0.03321388	         -0.07206484	
          4.45000000	         -0.00000084	          0.00000402	          0.00000036	          0.00000416	          0.00001241	         -0.00000495	         27.36316936	         12.14415101	         -2.48783010	         14.08453578	        -20.25708574	         -6.81604736	        -18.00212703	         -9.13592528	          5.87021153	        -24.10282826	          0.29137510	          0.61732668	         -0.01302702	          2.46438647	        -31.35578803	         11.31096281	          6.73840176	        -17.69561931	          2.67920886	         -1.20641112	          8.29776663	          2.99059407	         -0.56178200	         -3.77405357	          2.53158019	          0.01611006	         -0.06989561	
          4.50000000	         -0.00000413	         -0.00000675	         -0.00000021	          0.00000023	          0.00001558	          0.00000714	         -3.03479687	         54.17774812	         -1.49319479	         44.98508068	         33.46509720	         -4.24932295	          8.09152004	        -13.34244897	          1.41360942	        -37.23518503	          1.55875441	          9.40377439	         -0.02053063	          5.18667129	        -32.59253670	          3.63722114	         10.28108439	        -13.78961950	          3.65968278	         -0.47173882	          2.28116416	          2.19273895	          0.27174236	         -2.81882838	          1.40924759	          0.03498169	         -0.00674169	
          4.55000000	          0.00000242	         -0.00000097	         -0.00000158	          0.00000508	          0.00001075	          0.00000161	       -101.41318093	         80.96201825	         -1.46424418	        130.91674933	         54.17599351	          5.35264871	         67.39982345	        -53.68317485	        -11.68362581	        -24.69182304	          3.59578414	         16.68949804	          0.01136377	          4.94689149	        -21.65615274	         13.18511285	        -20.12064146	          8.62227969	         -4.69665218	         -0.10583137	         -2.70198663	         -3.29876186	         -0.10079320	          5.09331041	         -0.70520143	         -0.09610806	         -0.00844088	
          4.60000000	         -0.00000141	         -0.00000443	          0.00000038	          0.00000410	          0.00002555	          0.00000768	         -7.02658221	         20.15422620	          1.34157099	         37.02760736	          9.86424837	         -0.22785561	          8.17020792	         -9.77516708	         -9.03152739	        -33.23478968	          4.89633777	          6.84855120	          0.97337424	          6.34313909	        -27.52599134	         15.08350620	          0.31982259	         -5.48449937	          1.45446491	         -0.20666400	         -7.67899607	         -1.71379383	          0.99024201	         -0.10322745	         -1.42369956	          0.00761219	          0.06322687	
          4.65000000	          0.00000070	          0.00000112	          0.00000127	          0.00000504	          0.00001926	          0.00000012	         78.31008388	         22.91128106	          3.43409479	        -56.32669074	         28.35320739	          1.17095481	        -32.62286703	         41.70200757	        -13.10235121	        -39.03833841	          9.18972074	          8.45332932	          2.44272359	          8.40365038	        -22.38213666	         13.34210850	         20.58234393	        -13.13947103	          3.38738359	         -0.71359491	         -2.33519862	          0.81770700	          0.71405149	         -2.81970540	          0.61100059	          0.05346931	          0.02128167	
          4.70000000	         -0.00000245	         -0.00000408	          0.00000143	          0.00000050	          0.00001515	          0.00000908	         74.71050744	         25.92754792	          3.31098589	        -67.83205213	         35.44086765	          1.80249955	        -31.17371374	         48.36309825	        -13.08796599	        -41.66244009	          9.10385533	         12.52069506	          2.43650588	         10.22470132	         -1.53232971	          5.84942863	         18.79482818	          4.97380582	         -0.84818736	          1.02154540	         18.85843335	          3.05390122	         -2.45192830	          2.97867414	          6.82850816	         -0.03518993	         -0.24050529	
          4.75000000	          0.00000224	          0.00001388	          0.00000197	          0.00000655	          0.00000952	         -0.00001616	        -29.42794709	          8.81220144	          0.35655512	         48.79486315	         11.82181356	          3.75608925	         22.80645356	        -15.46146587	        -23.82575555	        -20.52137584	          5.19453829	         10.02200206	          3.18364175	          5.17562569	        -16.92826586	         13.17462228	        -11.50115385	          3.74524167	         -6.30621198	         -0.71792278	          4.53951992	          3.50981531	         -0.54673605	          3.06844968	          3.50342290	         -0.07279555	         -0.09975372	
          4.80000000	          0.00000126	         -0.00000246	         -0.00000168	          0.00000760	          0.00002265	          0.00000105	         -2.18827799	        -23.31239329	         -2.30499034	         31.25678949	         -5.10609398	          0.52611651	          9.39805997	        -15.29756018	        -29.55559572	          1.60763870	          2.47965095	         -0.51717704	          3.86461206	         -0.53733492	        -27.29475293	         10.58459900	         -9.57512619	         -2.62661714	          1.53444152	         -0.20414823	          5.89132952	         -6.39999090	         -1.27790188	          0.82680141	          1.20789533	         -0.06668579	         -0.03427081	
          4.85000000	          0.00000161	         -0.00000537	          0.00000037	          0.00000885	          0.00001866	          0.00001187	         17.35059412	        -33.56288416	         -7.96682064	          7.94585192	          1.23544458	         -0.82505358	          9.49087023	         -3.75962391	        -52.73625389	          0.70834947	          0.81058233	         -0.20036124	          6.34262355	         -0.05803470	        -22.60369257	         15.22900837	         -7.78944804	         -8.73418467	         -0.08010838	         -0.58055735	         -5.33094384	         -0.29320284	          0.38236439	          0.04607919	          0.18460685	         -0.02462213	          0.00886460	
          4.90000000	          0.00000334	         -0.00000131	         -0.00000085	          0.00000673	          0.00000643	          0.00000183	         15.98482870	        -21.38289651	         -4.35900459	          1.85155904	          2.08074780	         -0.52290843	          5.00648583	         -4.32015701	        -41.55769123	          0.35375633	          0.09280900	          0.05257855	          6.45117955	         -0.02656590	         -5.23205931	          1.35461470	          1.99644412	         12.25528095	         -0.40208455	         -0.09892804	         19.60518314	         -0.48085071	          0.85287302	          4.85055282	          7.65935445	         -0.14694404	         -0.17495009	
          4.95000000	          0.00004835	          0.00000610	         -0.00000913	          0.00005503	         -0.00002182	         -0.00000415	         27.10592348	          4.19639939	          1.45065568	         -1.43282146	          3.70991049	         -0.50303134	          1.69320611	         -1.22801793	        -37.36803688	          0.68327274	          4.09229399	         -0.03328738	          6.92864910	         -0.18540576	        -19.81283721	         19.04855571	          2.13409418	          1.33476749	          0.17243982	         -0.01848528	          4.36618251	         -3.65665414	         -0.71812291	          2.29202956	          3.05395958	         -0.07343007	         -0.08665633	
