Coordinates
version=1
nRows=26
nColumns=114
inDegrees=yes

Units are S.I. units (second, meters, Newtons, ...)
If the header above contains a line with 'inDegrees', this indicates whether rotational values are in degrees (yes) or radians (no).

endheader 
time	pelvis_tilt	pelvis_list	pelvis_rotation	pelvis_tx	pelvis_ty	pelvis_tz	hip_flexion_l	hip_adduction_l	hip_rotation_l	hip_flexion_r	hip_adduction_r	hip_rotation_r	knee_angle_l	knee_angle_r	ankle_angle_l	ankle_angle_r	subtalar_angle_l	subtalar_angle_r	mtp_angle_l	mtp_angle_r	lumbar_extension	lumbar_bending	lumbar_rotation	arm_flex_l	arm_add_l	arm_rot_l	arm_flex_r	arm_add_r	arm_rot_r	elbow_flex_l	elbow_flex_r	pro_sup_l	pro_sup_r	addbrev_l/activation	addlong_l/activation	addmagDist_l/activation	addmagIsch_l/activation	addmagMid_l/activation	addmagProx_l/activation	bflh_l/activation	bfsh_l/activation	edl_l/activation	ehl_l/activation	fdl_l/activation	fhl_l/activation	gaslat_l/activation	gasmed_l/activation	glmax1_l/activation	glmax2_l/activation	glmax3_l/activation	glmed1_l/activation	glmed2_l/activation	glmed3_l/activation	glmin1_l/activation	glmin2_l/activation	glmin3_l/activation	grac_l/activation	iliacus_l/activation	perbrev_l/activation	perlong_l/activation	piri_l/activation	psoas_l/activation	recfem_l/activation	sart_l/activation	semimem_l/activation	semiten_l/activation	soleus_l/activation	tfl_l/activation	tibant_l/activation	tibpost_l/activation	vasint_l/activation	vaslat_l/activation	vasmed_l/activation	addbrev_r/activation	addlong_r/activation	addmagDist_r/activation	addmagIsch_r/activation	addmagMid_r/activation	addmagProx_r/activation	bflh_r/activation	bfsh_r/activation	edl_r/activation	ehl_r/activation	fdl_r/activation	fhl_r/activation	gaslat_r/activation	gasmed_r/activation	glmax1_r/activation	glmax2_r/activation	glmax3_r/activation	glmed1_r/activation	glmed2_r/activation	glmed3_r/activation	glmin1_r/activation	glmin2_r/activation	glmin3_r/activation	grac_r/activation	iliacus_r/activation	perbrev_r/activation	perlong_r/activation	piri_r/activation	psoas_r/activation	recfem_r/activation	sart_r/activation	semimem_r/activation	semiten_r/activation	soleus_r/activation	tfl_r/activation	tibant_r/activation	tibpost_r/activation	vasint_r/activation	vaslat_r/activation	vasmed_r/activation	
          6.00000000	        -16.01803108	          2.31213482	          2.37132416	          3.83228521	          0.81428473	         -0.07561083	          5.81590390	          1.01158687	        -11.04590212	          1.44610973	         -2.98241470	        -10.24361753	          5.90887565	          7.86995152	         15.26485016	         25.53452163	          6.29935310	          3.50078558	          1.79491647	          1.48704058	         13.62014870	         -4.03445769	        -25.06904609	        -41.42389400	          7.39007735	        -35.04784906	          1.77449389	         -7.33740179	         29.94751235	         54.03082261	         36.53985056	        101.25409107	         97.51648807	          0.01510933	          0.03920937	          0.01019570	          0.01040048	          0.01008977	          0.02074132	          0.01005315	          0.04692625	          0.01018238	          0.04157486	          0.09063692	          0.13453888	          0.15103626	          0.09255584	          0.01007729	          0.01005466	          0.01006536	          0.05460542	          0.02106246	          0.01885035	          0.06147792	          0.06141026	          0.05350731	          0.01338115	          0.11751536	          0.01449213	          0.01012690	          0.03933559	          0.12629347	          0.36873005	          0.08459145	          0.01005123	          0.01017168	          0.06682923	          0.25214347	          0.12958829	          0.30254547	          0.02313483	          0.01085674	          0.01535443	          0.01046114	          0.01033908	          0.03412297	          0.05601432	          0.01524069	          0.01083678	          0.05865128	          0.03438487	          0.99999215	          0.99998998	          0.01010622	          0.01001450	          0.01000251	          0.01000171	          0.06596734	          0.09133264	          0.03870726	          0.17624389	          0.07164394	          0.05313909	          0.08072656	          0.05464214	          0.04012602	          0.01267270	          0.01239329	          0.01001120	          0.01000410	          0.03124920	          0.01092424	          0.02087200	          0.02661877	          0.11963023	          0.05267567	          0.01000071	          0.10940416	          0.99999538	          0.01002578	          0.05237934	          0.05909650	          0.05098229	
          6.05133333	        -16.44191901	          1.34621555	          2.19670016	          3.81818649	          0.81490318	         -0.08622989	          7.25638474	          0.75718885	         -9.41759619	          2.11307152	         -2.67216792	         -9.73183541	          6.01044745	          7.35036174	         15.34826767	         24.54707542	          5.93314022	          1.96185698	         -5.63648322	         -0.11660475	         14.12356235	         -4.64841365	        -25.58543528	        -42.19933480	          7.01983654	        -34.65309476	         -1.95614189	         -8.09933022	         30.37109380	         54.31139662	         35.65370705	        101.21920943	         97.07069574	          0.01010488	          0.01010674	          0.01014264	          0.01014096	          0.01016939	          0.01042276	          0.01011678	          0.03534712	          0.01371267	          0.02296327	          0.09840599	          0.16329503	          0.10034423	          0.07417147	          0.01137963	          0.01021250	          0.01011435	          0.21672966	          0.09121301	          0.05639871	          0.10846004	          0.10388893	          0.08789502	          0.01123265	          0.13202420	          0.01012310	          0.01012458	          0.06217792	          0.10054954	          0.28107554	          0.08918206	          0.01010121	          0.01017161	          0.08985380	          0.16985441	          0.14938352	          0.29513705	          0.02048479	          0.01052622	          0.01121759	          0.01094415	          0.01025080	          0.02796458	          0.05064397	          0.01279575	          0.01085954	          0.05085066	          0.02964978	          0.84916072	          0.66262293	          0.01008922	          0.01003908	          0.01001342	          0.01000946	          0.05929638	          0.10401295	          0.03179994	          0.17764849	          0.07483148	          0.05014748	          0.07890673	          0.05493608	          0.03916315	          0.01159292	          0.01286688	          0.12545253	          0.01104457	          0.01868698	          0.01072323	          0.02519728	          0.02399881	          0.09703191	          0.04458710	          0.01000381	          0.04562237	          0.99989437	          0.01002860	          0.05301048	          0.05570669	          0.05306293	
          6.10266666	        -16.85698250	          0.70626086	          2.17545081	          3.80899817	          0.81675652	         -0.09668222	          8.15233028	          0.77011970	         -8.32938646	          2.29427131	         -2.72156719	         -9.28430014	          5.67168921	          6.78947004	         15.09408342	         22.25605813	          6.34264624	          0.41668730	         -8.35574082	         -0.40374287	         15.13506808	         -5.02377621	        -25.12106355	        -43.23408689	          6.58554887	        -34.04111194	         -6.84020299	         -9.17764216	         29.86979765	         56.02870768	         33.97182432	        101.74532262	         96.31227810	          0.01095740	          0.01055907	          0.01028002	          0.01025175	          0.01051896	          0.01186958	          0.01010569	          0.03009855	          0.01187083	          0.02629877	          0.08610543	          0.14822386	          0.06421813	          0.02827253	          0.01138114	          0.01027134	          0.01011726	          0.18940415	          0.09328787	          0.06866896	          0.09794688	          0.09314460	          0.07969274	          0.01226265	          0.09602523	          0.01014648	          0.01009669	          0.06836929	          0.06693393	          0.28635561	          0.07382357	          0.01009350	          0.01026664	          0.06269919	          0.15406969	          0.13842257	          0.31876416	          0.03043254	          0.01346312	          0.02357626	          0.01130842	          0.01046758	          0.03425830	          0.04593521	          0.02394825	          0.01741923	          0.03247196	          0.02747253	          0.48104436	          0.36313578	          0.01043488	          0.01009012	          0.01003383	          0.01002403	          0.04629482	          0.05880526	          0.02422656	          0.09685686	          0.04020803	          0.03787638	          0.05037187	          0.03756259	          0.03115353	          0.01693304	          0.02313443	          0.18191923	          0.07218918	          0.02433546	          0.01100236	          0.03933092	          0.02721701	          0.04677475	          0.03175467	          0.01001007	          0.05352781	          0.75441745	          0.01007157	          0.05080376	          0.05201024	          0.04853723	
          6.15400000	        -16.76948257	         -0.15887768	          1.88634358	          3.80466762	          0.81939132	         -0.10527969	          7.67439559	          0.37238492	         -8.18030510	          1.93471112	         -2.23367482	         -8.95538117	          4.31921713	          6.37934130	         14.35270574	         18.48161146	          7.70357377	         -1.80085949	         -9.40906709	         -0.68086782	         16.14709545	         -4.68465661	        -23.94951640	        -44.48516725	          6.53567505	        -33.67027040	        -12.33277518	        -10.13049354	         27.75806295	         58.14233055	         32.40002534	        103.18355636	         95.35524224	          0.01047289	          0.01063520	          0.01012515	          0.01011185	          0.01023700	          0.01095152	          0.01007079	          0.02986615	          0.01009444	          0.02332969	          0.11639381	          0.19899612	          0.10037578	          0.02759329	          0.01138098	          0.01010912	          0.01008084	          0.13962167	          0.06687511	          0.05329488	          0.09402748	          0.10129664	          0.08782452	          0.01172583	          0.20459778	          0.01013100	          0.01008209	          0.10663980	          0.18840559	          0.36052906	          0.11856829	          0.01005424	          0.01010529	          0.09025789	          0.21358973	          0.20805524	          0.34957352	          0.03086304	          0.01273613	          0.02458633	          0.01386390	          0.01016401	          0.03604985	          0.04641151	          0.02635319	          0.01934759	          0.03491268	          0.03070900	          0.32493510	          0.15688843	          0.01213858	          0.01014112	          0.01008437	          0.01006296	          0.04043655	          0.05965607	          0.02617346	          0.10336552	          0.03955539	          0.03115236	          0.05775998	          0.03893587	          0.02998323	          0.01797159	          0.02651862	          0.03035057	          0.17243694	          0.01680270	          0.01224340	          0.03902148	          0.02769717	          0.05479358	          0.03435576	          0.01002681	          0.04072050	          0.52347105	          0.01011573	          0.05232035	          0.04225024	          0.04929430	
          6.20533333	        -15.87853414	         -1.77965194	          1.76982911	          3.79956152	          0.82326922	         -0.11282184	          6.11709958	         -0.93083629	         -8.41711220	          1.96856566	         -0.64602220	         -8.84145067	          2.39950700	          6.81863684	         14.09065954	         16.00525088	          9.90078658	         -4.17980300	         -9.74603990	         -0.74077483	         15.69937592	         -3.06200768	        -23.23134629	        -44.72832193	          6.17935767	        -32.93958031	        -16.17489571	        -10.36592222	         25.13557691	         58.34800577	         30.20372104	        105.14785323	         94.74694810	          0.01284216	          0.01138218	          0.01109373	          0.01088130	          0.01196771	          0.01447090	          0.01015944	          0.04248371	          0.01018673	          0.02636487	          0.10614786	          0.19350604	          0.08005486	          0.03712355	          0.02797431	          0.01024795	          0.01018166	          0.21640116	          0.12475414	          0.11700746	          0.09934135	          0.10327116	          0.08614094	          0.01470918	          0.08246881	          0.01012353	          0.01008235	          0.10831009	          0.04695639	          0.17847932	          0.08469205	          0.01016361	          0.01128256	          0.03344407	          0.15264045	          0.19181832	          0.41182826	          0.01408287	          0.01122256	          0.01047320	          0.02166248	          0.03454104	          0.03851244	          0.04693661	          0.03053868	          0.02262210	          0.02586688	          0.02652862	          0.32643754	          0.17101346	          0.01257824	          0.01015955	          0.01009944	          0.01007796	          0.02656024	          0.03804277	          0.02217611	          0.08102716	          0.02961168	          0.01992689	          0.05512507	          0.03169376	          0.02287235	          0.02022218	          0.03198294	          0.19264842	          0.13253630	          0.01322523	          0.01785628	          0.03984783	          0.02551962	          0.04069787	          0.03115591	          0.01002970	          0.04655838	          0.53511339	          0.01011556	          0.05086214	          0.05283518	          0.05021847	
          6.25666666	        -15.07542887	         -3.40063652	          1.82855024	          3.79398383	          0.82860268	         -0.11880151	          4.87860987	         -2.43760869	         -8.94563245	          2.79019039	          1.11026427	         -8.46602587	          0.93938261	          7.47583452	         14.12137829	         16.19413452	         12.96382365	         -5.25206105	         -9.17408316	         -0.53015246	         14.96371744	         -1.16324958	        -22.99081897	        -45.05637307	          5.58412999	        -31.82767059	        -18.27587781	        -10.14110475	         23.40099738	         57.60691659	         27.21869896	        106.75459869	         94.69917737	          0.01033698	          0.01017313	          0.01079701	          0.01387407	          0.01050202	          0.01044027	          0.01160307	          0.03855558	          0.01011147	          0.02219308	          0.15686593	          0.29553179	          0.05176970	          0.01268417	          0.04099953	          0.04291882	          0.01069714	          0.20190334	          0.06558687	          0.04739837	          0.08735762	          0.06215836	          0.04085277	          0.01085685	          0.04384512	          0.01010156	          0.01006548	          0.01735751	          0.01301511	          0.02594885	          0.04142611	          0.01403542	          0.01744388	          0.03195342	          0.06621936	          0.25246416	          0.50503997	          0.02583497	          0.01295241	          0.01625633	          0.03220814	          0.04629838	          0.04036174	          0.04346412	          0.03686921	          0.03039637	          0.02478143	          0.02580218	          0.36336430	          0.19775135	          0.01230804	          0.01013131	          0.01006528	          0.01004584	          0.02385559	          0.02512454	          0.02616242	          0.05033973	          0.02592231	          0.01979650	          0.04153234	          0.02578015	          0.02154275	          0.02589254	          0.03186826	          0.09859116	          0.17304735	          0.01522243	          0.02378594	          0.04500720	          0.02482190	          0.03135036	          0.02994542	          0.01001810	          0.04071856	          0.64305787	          0.01010578	          0.04665988	          0.04926839	          0.04545497	
          6.30799999	        -14.93598982	         -4.24821429	          1.70412532	          3.79127498	          0.83074928	         -0.12293572	          4.56878180	         -3.33107512	         -9.53938677	          4.38695785	          2.37420402	         -7.68909579	          0.39535766	          7.58869057	         13.64740852	         16.57056315	         15.87885494	         -5.38675331	         -9.39899127	         -0.39519685	         15.51178694	          0.13138573	        -22.85197264	        -46.36372327	          5.35767537	        -31.11536327	        -19.72875505	         -9.98577860	         22.70450573	         58.06180946	         24.70077305	        107.80991535	         94.88055000	          0.01035796	          0.01019347	          0.01044240	          0.01074892	          0.01036222	          0.01059711	          0.01036723	          0.04522072	          0.01010033	          0.01484017	          0.17058836	          0.31682513	          0.15300149	          0.01618188	          0.04182082	          0.01770215	          0.01027350	          0.25421513	          0.12120833	          0.10194752	          0.10754295	          0.09771960	          0.07985027	          0.01197414	          0.05636145	          0.01009548	          0.01005887	          0.08345481	          0.02110461	          0.09775790	          0.06589563	          0.01046733	          0.01178494	          0.05863321	          0.16062508	          0.26991760	          0.50317547	          0.01170031	          0.01041800	          0.01099420	          0.03566622	          0.05995172	          0.03301912	          0.03315472	          0.03380407	          0.03198251	          0.01401743	          0.02942528	          0.33401962	          0.18912641	          0.01227497	          0.01012655	          0.01005969	          0.01004166	          0.01846797	          0.01569844	          0.01744933	          0.04343468	          0.02300554	          0.01936633	          0.04116868	          0.02895924	          0.02377033	          0.02594756	          0.05087148	          0.13961635	          0.16039628	          0.01669708	          0.04508022	          0.07668285	          0.03357795	          0.01322434	          0.01982439	          0.01001698	          0.05340424	          0.58202226	          0.01010242	          0.04288245	          0.04113248	          0.04008919	
          6.35933332	        -14.82156227	         -4.58808131	          1.81000767	          3.79101617	          0.83111822	         -0.12603915	          4.40776805	         -3.74681851	         -9.56893268	          6.89626842	          3.50725539	         -6.63347049	          0.38928004	          7.91455359	         13.41015556	         15.08712467	         17.78783718	         -6.76865434	        -10.17845932	         -0.34630368	         16.59052481	          1.11879874	        -23.84119284	        -48.12885622	          5.98582713	        -31.67479571	        -19.56486127	         -9.85023784	         23.71107906	         59.44459944	         23.08582028	        109.09611039	         95.53489589	          0.01043352	          0.01012744	          0.01015658	          0.01014443	          0.01019513	          0.01179811	          0.01009931	          0.05977180	          0.01013207	          0.01938673	          0.13346577	          0.26176247	          0.11685180	          0.06498300	          0.01074776	          0.01031299	          0.01010602	          0.20865707	          0.12025521	          0.11714360	          0.10809564	          0.12701341	          0.11830188	          0.01305556	          0.14524285	          0.01012085	          0.01007622	          0.13488455	          0.12277336	          0.30095024	          0.13047615	          0.01007869	          0.01019362	          0.01154992	          0.22805467	          0.22270771	          0.46700013	          0.01137965	          0.01021308	          0.01056126	          0.02545487	          0.03939799	          0.03513435	          0.04061429	          0.03033258	          0.02451608	          0.01653549	          0.02784520	          0.28297221	          0.14826362	          0.01264126	          0.01014752	          0.01007544	          0.01005596	          0.02127025	          0.01958148	          0.01877236	          0.07051735	          0.02822436	          0.01899605	          0.04815926	          0.03434681	          0.02597247	          0.02140686	          0.04180962	          0.12577217	          0.17297710	          0.01358201	          0.03089487	          0.04879601	          0.02929685	          0.02048164	          0.02560981	          0.01002314	          0.04743036	          0.47475090	          0.01010524	          0.04627556	          0.04870985	          0.04475592	
          6.41066666	        -14.08184222	         -4.95578727	          2.59552303	          3.79219829	          0.83242197	         -0.12776240	          3.58956676	         -4.27854477	         -8.90097824	          9.15072669	          4.71182487	         -5.61155227	          0.43898636	          8.74302995	         14.08811281	         13.77377915	         19.13845050	         -8.02123236	        -10.05700008	         -0.37967961	         17.04855957	          2.06845813	        -26.07402188	        -49.25726537	          6.97666895	        -33.02177833	        -18.38151104	         -9.74603406	         25.99350652	         60.00430226	         22.05112191	        110.62422622	         96.46718048	          0.01079806	          0.01073123	          0.01011481	          0.01010444	          0.01013390	          0.01120964	          0.01006364	          0.06100380	          0.01012873	          0.02913710	          0.15771735	          0.31970257	          0.04989393	          0.01431210	          0.01038127	          0.01008916	          0.01006713	          0.17025413	          0.07983565	          0.07285399	          0.10570555	          0.12110934	          0.10449453	          0.01292501	          0.21168714	          0.01014075	          0.01008547	          0.11939630	          0.19162868	          0.29909397	          0.15234902	          0.01004876	          0.01011060	          0.01040992	          0.21475280	          0.25371866	          0.53642238	          0.01050790	          0.01010864	          0.01032050	          0.03215386	          0.04395223	          0.04105223	          0.04801734	          0.03460628	          0.02713156	          0.02214802	          0.02444369	          0.26315571	          0.14026345	          0.01243884	          0.01010596	          0.01007183	          0.01005091	          0.01965496	          0.02032912	          0.02283726	          0.05864995	          0.02116519	          0.01459462	          0.04457995	          0.02900365	          0.02022979	          0.02457005	          0.03771512	          0.09273107	          0.11169652	          0.01284045	          0.02656589	          0.04602141	          0.02381583	          0.03561995	          0.02951571	          0.01002101	          0.03665155	          0.48309293	          0.01011364	          0.05285349	          0.06249354	          0.05582712	
          6.46199999	        -13.39562634	         -4.99287497	          3.50830093	          3.79507799	          0.83218176	         -0.12705130	          2.81683252	         -4.63101802	         -8.25126382	          9.72952817	          5.14761383	         -5.20148213	          0.71499942	          9.27954285	         14.99027106	         13.93833355	         20.44187328	         -6.93839601	         -9.75095438	         -0.71281302	         17.46161005	          2.42341535	        -27.65762265	        -49.74926337	          7.61308150	        -34.03941196	        -18.29609217	         -9.99343847	         27.67527904	         59.83551651	         22.64137963	        111.41971865	         96.80277758	          0.01545563	          0.04881729	          0.01021745	          0.01016072	          0.01078747	          0.01702257	          0.01008745	          0.03843630	          0.01007579	          0.01175713	          0.20574383	          0.36247455	          0.01581582	          0.01033801	          0.01112648	          0.01014201	          0.01009970	          0.10376443	          0.03203647	          0.01693431	          0.07834476	          0.06479970	          0.04560155	          0.01382148	          0.11236458	          0.01009719	          0.01005876	          0.02733545	          0.09077221	          0.27563984	          0.07648338	          0.01006620	          0.01018083	          0.01055540	          0.13641755	          0.27852277	          0.52129849	          0.02071596	          0.01072005	          0.01021812	          0.06902659	          0.10450952	          0.05191745	          0.05118411	          0.05219156	          0.04433565	          0.02109420	          0.02664613	          0.18807628	          0.11172669	          0.01302063	          0.01107609	          0.01007917	          0.01006228	          0.01045574	          0.01038831	          0.02284937	          0.02275855	          0.01283663	          0.01083240	          0.03346123	          0.01992670	          0.01405611	          0.03840152	          0.06079386	          0.05570179	          0.04213037	          0.01077151	          0.05125957	          0.04368766	          0.02850491	          0.02562671	          0.02659535	          0.01002789	          0.03206748	          0.39030696	          0.01019812	          0.05150874	          0.05816242	          0.05260296	
          6.51333332	        -13.44718030	         -4.17285169	          3.93968576	          3.79946404	          0.83074537	         -0.12320539	          2.76129631	         -4.18721820	         -8.07750449	          9.16164987	          4.45830021	         -5.64989272	          1.21132876	          8.84484919	         15.68444564	         13.99655785	         21.13682761	         -4.67471497	         -9.18973193	         -1.80838495	         18.53031508	          1.73301214	        -28.08315673	        -50.48073775	          8.39063815	        -35.21397439	        -18.93287825	        -10.60071681	         28.99987265	         59.83493115	         25.18019369	        111.76585606	         96.62824224	          0.02747836	          0.14045351	          0.01011074	          0.01010092	          0.01006044	          0.02526817	          0.01004923	          0.02988201	          0.01234969	          0.09761884	          0.11972221	          0.20437108	          0.01008801	          0.01006428	          0.01008551	          0.01005794	          0.01005845	          0.02847464	          0.01123912	          0.01044935	          0.08376257	          0.09710881	          0.08307978	          0.01486901	          0.27242661	          0.01012036	          0.01007647	          0.07925648	          0.27895946	          0.48143530	          0.15059706	          0.01003578	          0.01009570	          0.01002376	          0.24481843	          0.51474287	          0.34684731	          0.04049380	          0.02074629	          0.03529099	          0.01109731	          0.01516831	          0.03384355	          0.05716497	          0.01740912	          0.01145749	          0.06641979	          0.03267740	          0.08589831	          0.05587688	          0.02851582	          0.01372575	          0.01043661	          0.01014565	          0.05183852	          0.07979137	          0.02971036	          0.14424620	          0.04711496	          0.02720643	          0.05869538	          0.03554012	          0.02510882	          0.01389404	          0.01031638	          0.01761892	          0.01046627	          0.01068352	          0.01083286	          0.01012257	          0.01175005	          0.11966972	          0.06243056	          0.01008014	          0.02363754	          0.19274287	          0.01424888	          0.03340777	          0.02396905	          0.02734036	
          6.56466665	        -13.97813523	         -2.99686339	          4.45879529	          3.80532176	          0.82960843	         -0.11709001	          3.12946104	         -3.46605970	         -7.68461014	          8.37826667	          3.33032955	         -6.42120785	          1.62114322	          7.50785862	         15.92052893	         14.37528917	         20.87169394	         -1.51090653	         -7.99340478	         -3.16698630	         20.08098679	          0.28069236	        -28.08279350	        -51.97043663	          9.67525884	        -36.89142939	        -19.36523937	        -11.35350820	         30.28856072	         59.64585568	         29.11518240	        112.16967421	         96.28191912	          0.01035991	          0.02035093	          0.01011686	          0.01010551	          0.01022188	          0.01242421	          0.01007997	          0.04161492	          0.08363670	          0.09116405	          0.07525348	          0.09031358	          0.01009886	          0.01007088	          0.01392496	          0.01067546	          0.01009443	          0.21740674	          0.13936736	          0.13496514	          0.10666702	          0.12706971	          0.12574969	          0.01351125	          0.10182130	          0.01015699	          0.01009381	          0.14989828	          0.07830679	          0.28557277	          0.10458662	          0.01006038	          0.01011097	          0.01002840	          0.19279009	          0.41996780	          0.18625441	          0.02273838	          0.01334033	          0.01399622	          0.01012204	          0.01009362	          0.01011177	          0.01011086	          0.01012495	          0.01016572	          0.01007454	          0.04095450	          0.12203470	          0.07258990	          0.02216917	          0.01233870	          0.01026427	          0.01017103	          0.01310004	          0.01158913	          0.01008227	          0.41236108	          0.19530953	          0.14113234	          0.17014357	          0.15665683	          0.12852743	          0.01021166	          0.14915740	          0.01699909	          0.01172423	          0.14103102	          0.06680180	          0.47589608	          0.10246901	          0.01730307	          0.01011992	          0.01009231	          0.34301594	          0.24748199	          0.01175931	          0.01604154	          0.01119575	          0.01320729	
          6.61599998	        -14.70924670	         -2.05661028	          5.09240698	          3.80912065	          0.82841134	         -0.11052403	          3.97883905	         -3.02919454	         -6.63995566	          7.94246909	          2.35245148	         -6.77290205	          2.22087473	          6.10398135	         15.68118115	         15.79631638	         19.64261197	          2.26246827	         -6.96572971	         -3.92241735	         21.16542567	         -0.94993768	        -27.89547643	        -53.24011952	         10.69065022	        -38.14540875	        -18.79443735	        -11.71140237	         31.25393295	         59.12004584	         32.50401252	        112.51387783	         95.82198190	          0.01039506	          0.01011914	          0.01136824	          0.01201080	          0.01088801	          0.01205260	          0.01091474	          0.03733303	          0.08096536	          0.08642841	          0.06107624	          0.07085489	          0.01011173	          0.01008113	          0.05853771	          0.03596875	          0.01083454	          0.25813406	          0.15833029	          0.15522206	          0.10351774	          0.10885740	          0.10322279	          0.01347678	          0.04357230	          0.01105088	          0.01012984	          0.11701480	          0.01488583	          0.13355133	          0.06583601	          0.01066890	          0.01329325	          0.01003391	          0.13222965	          0.39824807	          0.13043033	          0.03105348	          0.01671454	          0.02176466	          0.01011318	          0.01009519	          0.01010226	          0.01010132	          0.01011126	          0.01015942	          0.01005770	          0.03074356	          0.11684969	          0.08829043	          0.04802887	          0.03672205	          0.01013479	          0.01009872	          0.01021969	          0.01008070	          0.01006696	          0.38374949	          0.17267793	          0.12222410	          0.18006950	          0.17144836	          0.13839643	          0.01018742	          0.21997534	          0.01134034	          0.01025099	          0.11452282	          0.15355917	          0.42079441	          0.13251557	          0.01003415	          0.01010520	          0.01004654	          0.25996565	          0.37953469	          0.10253808	          0.03229445	          0.02143619	          0.02631947	
          6.66733332	        -15.33255666	         -1.34185083	          5.25652134	          3.80941568	          0.82790532	         -0.10412752	          5.08315592	         -2.77568849	         -5.51059867	          7.83984214	          1.66240804	         -7.32793964	          3.11258552	          5.10788797	         15.29063716	         17.42866196	         17.62541521	          5.94893891	         -6.15285129	         -3.92610827	         21.19775518	         -1.42799413	        -27.95972156	        -53.02584454	         11.22642067	        -38.80635185	        -16.13999840	        -11.09427441	         33.14645431	         58.09382298	         32.28792703	        112.73991582	         95.38159169	          0.01142499	          0.01038220	          0.01071262	          0.01074236	          0.01043123	          0.01161011	          0.01020613	          0.03350580	          0.11145431	          0.10161818	          0.06317336	          0.06266655	          0.01013882	          0.01010321	          0.02381959	          0.01732691	          0.01035220	          0.14822422	          0.08657584	          0.08320082	          0.07814266	          0.08145973	          0.07603707	          0.01305086	          0.07915390	          0.01097234	          0.01015269	          0.08576127	          0.05886016	          0.21497234	          0.06861657	          0.01012826	          0.01131990	          0.01004467	          0.12150903	          0.43823222	          0.13183056	          0.03596241	          0.02088101	          0.02838007	          0.01010860	          0.01008144	          0.01013126	          0.01015016	          0.01012776	          0.01016029	          0.01010072	          0.03319651	          0.15461993	          0.11458887	          0.05278913	          0.03841903	          0.01009525	          0.01006867	          0.03756399	          0.01491139	          0.01010788	          0.34880670	          0.19222433	          0.16512836	          0.14444517	          0.13863575	          0.11788201	          0.01037604	          0.07455488	          0.01033485	          0.01011621	          0.12961467	          0.02220126	          0.25058994	          0.07961079	          0.01008638	          0.01018742	          0.01002967	          0.19233339	          0.45498373	          0.10547923	          0.03560969	          0.02312683	          0.02955025	
          6.71866665	        -15.73695648	         -0.82242486	          5.25576011	          3.81010263	          0.82712289	         -0.09824942	          6.09555614	         -2.73113717	         -4.49342361	          7.78235307	          1.22676004	         -7.80400415	          4.21710527	          4.68540294	         15.13717867	         18.75505765	         15.80764255	          8.65551306	         -5.53321168	         -3.67203115	         20.86182008	         -1.53308412	        -28.31779166	        -52.11331528	         11.76560191	        -39.37504516	        -12.83867727	        -10.11706786	         35.57887351	         56.94905231	         30.04476315	        112.77947332	         95.04431455	          0.01086294	          0.01024752	          0.01043095	          0.01053416	          0.01024804	          0.01300898	          0.01014919	          0.03023326	          0.12704499	          0.10453806	          0.05329988	          0.04887501	          0.01012602	          0.01009261	          0.01576930	          0.01269456	          0.01019228	          0.12763742	          0.06567526	          0.05611893	          0.07517050	          0.07653478	          0.06866352	          0.01309960	          0.10607894	          0.01072442	          0.01014626	          0.07384758	          0.08864251	          0.25366218	          0.07425311	          0.01011520	          0.01059680	          0.01003898	          0.13588481	          0.45535010	          0.10728803	          0.03827463	          0.02328419	          0.03286786	          0.01011445	          0.01008906	          0.01013651	          0.01016936	          0.01013042	          0.01018763	          0.01010924	          0.03341230	          0.16826783	          0.12769615	          0.06072982	          0.04984103	          0.01009709	          0.01006961	          0.04500664	          0.02220395	          0.01011348	          0.37545196	          0.20588789	          0.17580074	          0.15160470	          0.15026375	          0.13258824	          0.01045939	          0.08800716	          0.01017556	          0.01010226	          0.12992268	          0.02634512	          0.24380286	          0.08522533	          0.01009271	          0.01023499	          0.01002831	          0.20730551	          0.48585492	          0.13603025	          0.03590698	          0.02438394	          0.02845273	
          6.76999998	        -15.98206632	         -0.68853253	          5.65341170	          3.81212403	          0.82544540	         -0.09459115	          6.85350363	         -3.00992742	         -3.06683188	          7.80521557	          1.15593350	         -7.84734867	          5.25909301	          4.93450080	         15.91483650	         19.76483554	         14.43218336	          9.28685555	         -4.90036912	         -3.57394984	         20.32579437	         -1.20241261	        -28.93692464	        -51.05519546	         12.22792816	        -39.57003895	        -10.60412414	         -9.74455511	         36.79827904	         56.01619977	         29.67144072	        112.64436529	         94.83650392	          0.01105256	          0.01019905	          0.01036482	          0.01029646	          0.01035692	          0.01122163	          0.01012780	          0.03270411	          0.19420070	          0.12659432	          0.04095913	          0.02416881	          0.01008434	          0.01005922	          0.02660512	          0.01695313	          0.01014946	          0.18486266	          0.10966284	          0.09952313	          0.08529712	          0.09018349	          0.08420044	          0.01288482	          0.08594590	          0.01165473	          0.01012424	          0.09786731	          0.05717934	          0.19732808	          0.07260165	          0.01010429	          0.01054899	          0.01002317	          0.12578296	          0.49465092	          0.04864001	          0.03620346	          0.02255215	          0.02977852	          0.01011220	          0.01009508	          0.01014334	          0.01021913	          0.01013928	          0.01012913	          0.01012217	          0.03376800	          0.19003669	          0.13758728	          0.06311359	          0.04215864	          0.01010523	          0.01007194	          0.05903759	          0.03821616	          0.01012307	          0.35070858	          0.20610621	          0.18390083	          0.13981515	          0.14238212	          0.13102679	          0.01076124	          0.06059226	          0.01017858	          0.01010142	          0.13745724	          0.01065650	          0.22761287	          0.07526469	          0.01010488	          0.01038982	          0.01002846	          0.17617047	          0.51085833	          0.14788489	          0.03532284	          0.02382972	          0.02736691	
          6.82133331	        -16.18783932	         -0.99483324	          6.58613625	          3.81696961	          0.82351217	         -0.09292061	          7.06982902	         -3.54410215	         -1.60358234	          7.58065325	          1.51008702	         -8.39052404	          5.66055491	          5.16334687	         16.87926218	         20.53775430	         13.56996162	          9.12063894	         -4.32247186	         -3.50587077	         19.96524808	         -0.65527073	        -29.75893299	        -50.20798708	         12.83040492	        -39.46181266	         -9.56055738	        -10.20268497	         37.10279503	         54.85668634	         31.65868227	        112.34272276	         94.62768956	          0.01206475	          0.01025388	          0.02601889	          0.03225740	          0.02159358	          0.01865135	          0.01570233	          0.02751129	          0.15552491	          0.13293788	          0.06530228	          0.04511009	          0.01007964	          0.01005302	          0.03583229	          0.03442483	          0.01450916	          0.09570486	          0.04506027	          0.03774830	          0.05050838	          0.03966741	          0.03166645	          0.01614697	          0.03292070	          0.01014147	          0.01010579	          0.02103681	          0.01494564	          0.03049076	          0.02945416	          0.02075245	          0.02058575	          0.01002154	          0.03072087	          0.52355603	          0.16089637	          0.04558872	          0.04381128	          0.04524490	          0.01055992	          0.01012424	          0.01029838	          0.01028373	          0.01028028	          0.01155275	          0.01013482	          0.02677783	          0.21336556	          0.17719657	          0.08735010	          0.06363524	          0.01007997	          0.01005360	          0.02026320	          0.01136128	          0.01016550	          0.14127178	          0.08537540	          0.08271344	          0.08189179	          0.08633046	          0.07858463	          0.01256521	          0.09434405	          0.01012939	          0.01008065	          0.08740545	          0.07455801	          0.29052075	          0.07209748	          0.01009855	          0.01029152	          0.01002158	          0.14428946	          0.60275967	          0.22898473	          0.04563361	          0.04268700	          0.04408644	
          6.87266664	        -16.41105123	         -1.44050236	          7.54283683	          3.82602755	          0.82066721	         -0.09172774	          6.69538492	         -4.14058785	         -0.86684944	          6.98863904	          2.06700009	         -9.23835610	          5.53198428	          5.13249860	         17.44156596	         21.13971824	         13.37199685	          9.14655673	         -4.25138622	         -3.61287609	         20.12560433	         -0.22830065	        -30.32070219	        -49.93160916	         13.67508835	        -39.49980137	         -9.28934293	        -10.95418951	         37.26841594	         53.87491378	         34.04843110	        111.98754836	         94.39193033	          0.01559588	          0.01029878	          0.03170026	          0.03687109	          0.02643302	          0.02157742	          0.02459055	          0.02781975	          0.13324457	          0.11779666	          0.07020378	          0.06935944	          0.01009312	          0.01006367	          0.03567881	          0.03393549	          0.02175933	          0.09904419	          0.04670187	          0.03830441	          0.05007102	          0.03913467	          0.03320747	          0.01813565	          0.03121494	          0.01015276	          0.01010333	          0.02657559	          0.01353757	          0.03582589	          0.02818041	          0.03251920	          0.02538753	          0.01002647	          0.04657943	          0.49907846	          0.15756279	          0.04381821	          0.04470986	          0.04402833	          0.01168417	          0.01103678	          0.01018609	          0.01016149	          0.01012845	          0.01481423	          0.01010297	          0.02701501	          0.21358571	          0.17600373	          0.09064758	          0.08037173	          0.01006502	          0.01004311	          0.01199670	          0.01017064	          0.01011974	          0.09954062	          0.06192293	          0.06047767	          0.07072788	          0.08079555	          0.07750974	          0.01311969	          0.12970166	          0.01011333	          0.01006818	          0.09344043	          0.12272581	          0.33325767	          0.08577268	          0.01007625	          0.01017318	          0.01001713	          0.16724301	          0.60740150	          0.22099825	          0.04496734	          0.04275429	          0.04372413	
          6.92399998	        -16.68404289	         -1.80769220	          8.24830750	          3.83807426	          0.81746375	         -0.09045860	          6.09202824	         -4.73281018	         -0.73188076	          6.27346228	          2.60942704	         -9.98996337	          5.28308727	          5.09748729	         17.83287361	         21.58104978	         13.46844764	          8.88717306	         -4.44403459	         -3.87898312	         20.56163430	          0.01431823	        -30.56743181	        -49.61374623	         14.30107405	        -39.62538254	         -9.27571205	        -11.57510489	         37.40133650	         53.42649953	         35.58645494	        111.69777095	         94.17594026	          0.01372436	          0.01006860	          0.01602197	          0.01677803	          0.01715660	          0.02070447	          0.01211594	          0.02720131	          0.14445730	          0.12074648	          0.06162998	          0.05242965	          0.01009069	          0.01006133	          0.02704641	          0.01705959	          0.01276098	          0.08710210	          0.04873027	          0.04641586	          0.05142526	          0.04696577	          0.04260299	          0.01575232	          0.05595524	          0.01011636	          0.01009859	          0.04837230	          0.03723067	          0.13241694	          0.04160024	          0.01123030	          0.01428449	          0.01002538	          0.07083193	          0.47190672	          0.13083744	          0.04387654	          0.04284735	          0.04418623	          0.01074660	          0.01015314	          0.01022153	          0.01018448	          0.01032132	          0.01268417	          0.01011567	          0.02909044	          0.22132488	          0.16584226	          0.06642301	          0.03877518	          0.01007744	          0.01005175	          0.02112367	          0.01058104	          0.01013733	          0.16069533	          0.11091766	          0.11749986	          0.08309618	          0.09955658	          0.10199205	          0.01285961	          0.09499261	          0.01012491	          0.01008027	          0.13866591	          0.07897077	          0.32605249	          0.08210361	          0.01008418	          0.01020051	          0.01002077	          0.18286712	          0.54682559	          0.15780233	          0.04018199	          0.03340110	          0.03568348	
          6.97533331	        -17.13369390	         -2.14820455	          9.10529792	          3.85157091	          0.81406911	         -0.08975916	          5.62807764	         -5.32753375	         -0.68408424	          5.54119260	          3.10357351	        -11.04425887	          4.95383244	          4.86482293	         18.02457181	         21.79865148	         13.91597852	          8.41498990	         -4.76373161	         -4.20638040	         21.01949144	          0.06469640	        -30.74622813	        -48.90786248	         14.52850981	        -39.82131583	         -9.57255834	        -12.31639856	         37.63119830	         53.42525660	         36.97182415	        111.35095402	         93.87845728	          0.01093591	          0.01048293	          0.01135319	          0.01253726	          0.01102761	          0.01335395	          0.01143806	          0.02946808	          0.11463144	          0.09684404	          0.05505323	          0.04738912	          0.01009328	          0.01006752	          0.03189804	          0.01986924	          0.01182224	          0.11865300	          0.07319575	          0.07140930	          0.06202671	          0.06200019	          0.05773423	          0.01306515	          0.06322107	          0.01073158	          0.01011213	          0.07130269	          0.04103423	          0.14531456	          0.05232602	          0.01106599	          0.01369835	          0.01002859	          0.08903481	          0.39289615	          0.10992370	          0.04026874	          0.03254897	          0.03867415	          0.01015751	          0.01011429	          0.01013323	          0.01013229	          0.01016946	          0.01286822	          0.01009452	          0.03303315	          0.19872439	          0.14742600	          0.06251155	          0.03812179	          0.01010279	          0.01007131	          0.02375434	          0.01024730	          0.01010563	          0.19206854	          0.13644555	          0.14683011	          0.09414915	          0.11771330	          0.12136355	          0.01245716	          0.10641422	          0.01015259	          0.01009816	          0.15906479	          0.08770393	          0.33443711	          0.09513729	          0.01006942	          0.01014552	          0.01002894	          0.19788485	          0.49496580	          0.13700351	          0.03580445	          0.02513670	          0.02881941	
          7.02666664	        -17.62133585	         -2.58118121	         10.09030969	          3.86521518	          0.80998444	         -0.08983724	          5.16855116	         -5.95584663	         -0.58305560	          4.87308056	          3.68134750	        -12.13361180	          4.57085488	          4.67253489	         18.17866273	         21.91305053	         14.28689403	          7.66989577	         -5.45233450	         -4.70464058	         21.03385515	          0.25256937	        -30.73390006	        -47.68765663	         14.33514456	        -39.97238864	         -9.64260981	        -12.79606294	         37.83911922	         53.80240961	         37.67347787	        111.09266686	         93.63408052	          0.01102452	          0.01065179	          0.01471939	          0.01924058	          0.01226308	          0.01376420	          0.01313429	          0.02982007	          0.06607968	          0.06991710	          0.05773472	          0.06848253	          0.01013124	          0.01010185	          0.04947673	          0.04303928	          0.01303359	          0.11650864	          0.07069094	          0.07298646	          0.05513752	          0.05162167	          0.04825613	          0.01365516	          0.03513834	          0.01165697	          0.01019431	          0.05922399	          0.01621016	          0.05476034	          0.03890952	          0.01471246	          0.01591448	          0.01004801	          0.05688453	          0.30592910	          0.12461354	          0.03718097	          0.03180245	          0.03540946	          0.01054883	          0.01012587	          0.01018257	          0.01016901	          0.01020437	          0.01248567	          0.01011797	          0.03159605	          0.17415988	          0.13141899	          0.06414756	          0.04949820	          0.01009574	          0.01006952	          0.01876545	          0.01052577	          0.01013285	          0.12101682	          0.09731193	          0.11329097	          0.07050090	          0.09181595	          0.09674688	          0.01277075	          0.09362870	          0.01016803	          0.01009905	          0.11928963	          0.08769697	          0.29196036	          0.08259687	          0.01008625	          0.01019355	          0.01002843	          0.16114233	          0.46015150	          0.13975705	          0.03482234	          0.02504764	          0.02788950	
          7.07799997	        -18.04696080	         -3.04662859	         10.83591452	          3.88065335	          0.80586828	         -0.08990400	          4.41800554	         -6.61440036	         -1.00796264	          4.11168624	          4.34522138	        -13.01582849	          4.17525468	          4.62814030	         18.36222579	         22.02377080	         14.48131974	          6.92989794	         -6.16197559	         -5.19080179	         20.80653118	          0.65295302	        -30.34227633	        -46.01321670	         13.81447849	        -39.99787574	         -9.36519482	        -12.84859398	         37.86672554	         54.31208187	         37.07235767	        111.01450583	         93.47475413	          0.01137427	          0.01016447	          0.01183672	          0.01467793	          0.01080713	          0.01137839	          0.01236520	          0.03173496	          0.07051920	          0.06933587	          0.05319689	          0.05376889	          0.01016075	          0.01012462	          0.05491411	          0.04721482	          0.01248413	          0.12086201	          0.08321602	          0.08823180	          0.05827497	          0.05914361	          0.05706437	          0.01270924	          0.03880237	          0.01180098	          0.01033557	          0.07806218	          0.01897701	          0.09495684	          0.04578541	          0.01181640	          0.01448242	          0.01006089	          0.07266713	          0.27469048	          0.11056359	          0.03579380	          0.02711444	          0.03262902	          0.01070313	          0.01013641	          0.01039496	          0.01030526	          0.01077447	          0.01275519	          0.01016794	          0.03344628	          0.16694346	          0.13190602	          0.06061592	          0.03871040	          0.01008663	          0.01006034	          0.02469337	          0.01192070	          0.01019120	          0.15208550	          0.10966209	          0.11962136	          0.07735549	          0.09578686	          0.10130164	          0.01317991	          0.08530373	          0.01016523	          0.01009331	          0.12754888	          0.07120621	          0.27620742	          0.07828972	          0.01012414	          0.01028551	          0.01002463	          0.16471669	          0.44166980	          0.13508270	          0.03509253	          0.02328306	          0.02779621	
          7.12933330	        -18.68311447	         -3.38175817	         11.14708984	          3.89936796	          0.79984442	         -0.08963758	          3.48730700	         -7.14895071	         -2.08435018	          3.21812879	          4.90650205	        -13.76658540	          3.68689266	          4.39754870	         18.61733255	         22.25623287	         14.82001519	          6.86161108	         -6.96053125	         -5.99933636	         20.93781194	          1.12888931	        -29.67066507	        -44.60722248	         13.43752466	        -40.01991775	         -9.02995257	        -12.90878655	         37.74940833	         54.84867033	         36.38835023	        110.95844658	         93.26068954	          0.01719479	          0.02459902	          0.01346487	          0.01302915	          0.01609247	          0.02697413	          0.01124140	          0.02765306	          0.01276890	          0.04143203	          0.06753122	          0.10109602	          0.01071933	          0.01013546	          0.02542438	          0.01255028	          0.01244720	          0.04609801	          0.04268254	          0.05529427	          0.03967886	          0.04527333	          0.04707665	          0.01763003	          0.06380601	          0.01127083	          0.01026868	          0.06332710	          0.05405125	          0.14059653	          0.04923368	          0.01047514	          0.01323814	          0.01006275	          0.06931842	          0.19109664	          0.19839041	          0.03485406	          0.02624952	          0.03274799	          0.01106221	          0.01048692	          0.01057339	          0.01047549	          0.01098993	          0.01216479	          0.01015005	          0.03266333	          0.08896816	          0.08288702	          0.07662295	          0.08500861	          0.01015569	          0.01011964	          0.01410986	          0.01082465	          0.01017504	          0.08547351	          0.06853550	          0.07893978	          0.05908862	          0.07544355	          0.08033984	          0.01207356	          0.09510745	          0.01017307	          0.01011480	          0.09782116	          0.09464849	          0.30641806	          0.07657006	          0.01010793	          0.01042089	          0.01005383	          0.15348917	          0.34238646	          0.26126950	          0.03042917	          0.01848924	          0.02252624	
          7.18066664	        -19.57146055	         -3.77971731	         11.15437560	          3.91876412	          0.79214972	         -0.08882087	          2.69562239	         -7.73687895	         -3.19246288	          2.52902922	          5.54744245	        -14.37030888	          3.27544108	          4.14507623	         18.97849615	         22.77702088	         15.22410976	          7.48441103	         -8.39356641	         -7.20228466	         20.86884880	          1.90484875	        -28.83225052	        -43.13472933	         13.23148420	        -40.05660328	         -7.98920707	        -12.96547063	         37.50754204	         55.93374098	         36.60970539	        110.92792247	         93.02072382	          0.01868534	          0.01000015	          0.03434654	          0.04098619	          0.02834174	          0.02416871	          0.03408815	          0.03459606	          0.01123213	          0.02029481	          0.09048496	          0.16206333	          0.02989581	          0.01280635	          0.03271167	          0.03130300	          0.01787121	          0.10785879	          0.04053312	          0.03026040	          0.05644367	          0.03485652	          0.02991237	          0.02108067	          0.03635352	          0.01018555	          0.01010044	          0.01791355	          0.01417911	          0.02046640	          0.03002004	          0.05449420	          0.03560065	          0.01901450	          0.02487489	          0.10889189	          0.22951009	          0.03487468	          0.02453719	          0.03151972	          0.03598274	          0.10190972	          0.01121462	          0.01021998	          0.01838085	          0.03890418	          0.01010857	          0.03761244	          0.04004115	          0.09367223	          0.11153655	          0.16859118	          0.01010151	          0.01006437	          0.01040770	          0.01009739	          0.01015458	          0.01244080	          0.01424828	          0.01375627	          0.04851462	          0.04786147	          0.04181423	          0.01846787	          0.13867915	          0.01008228	          0.01004970	          0.03606360	          0.15038251	          0.27881621	          0.08262175	          0.01007346	          0.01015168	          0.01002744	          0.11415618	          0.40077588	          0.26258571	          0.03571877	          0.01648883	          0.02798444	
          7.23199997	        -20.45839541	         -4.31883314	         11.12725719	          3.93814856	          0.78600435	         -0.08656196	          2.14131008	         -8.63244699	         -3.90479296	          1.98983881	          6.39675354	        -14.88188694	          3.26682165	          4.15327199	         19.02333625	         23.18312356	         15.39478287	          8.11708303	         -9.64703672	         -7.81672694	         19.99386418	          2.90344159	        -28.30372675	        -40.95991867	         12.86934102	        -39.94901673	         -5.92118515	        -12.82477670	         37.16144767	         57.33195089	         37.54729410	        110.96145534	         92.80767330	          0.01049091	          0.01080154	          0.01346042	          0.02059087	          0.01163873	          0.01172731	          0.02499465	          0.01283449	          0.01253031	          0.01507159	          0.04446288	          0.07659307	          0.02556909	          0.01847645	          0.08017037	          0.10083581	          0.05329505	          0.10301378	          0.06997481	          0.08315931	          0.03030986	          0.03415360	          0.03114188	          0.01362366	          0.01314455	          0.01948522	          0.01672258	          0.04982861	          0.01303106	          0.08363139	          0.01231610	          0.02217094	          0.01546469	          0.02060580	          0.04888787	          0.01640239	          0.12902783	          0.04355147	          0.07754441	          0.05004370	          0.01126224	          0.01477642	          0.01961673	          0.02882394	          0.01334551	          0.01279417	          0.02675297	          0.01322346	          0.02087939	          0.02580657	          0.03935020	          0.05134060	          0.01735959	          0.08425825	          0.07716379	          0.09834587	          0.05158543	          0.12769551	          0.07529643	          0.09267262	          0.03572080	          0.04029135	          0.04310052	          0.01373866	          0.02151134	          0.01780311	          0.02242903	          0.06447105	          0.02205467	          0.08555407	          0.01490492	          0.02328568	          0.01704248	          0.12334997	          0.04475278	          0.11653693	          0.12893064	          0.05106667	          0.11488700	          0.05924348	
          7.28333330	        -21.36065323	         -4.81820805	         11.11680753	          3.95956706	          0.77852353	         -0.08303746	          1.71400984	         -9.65449869	         -4.36732013	          1.46610647	          7.27981394	        -15.28611877	          3.52622882	          4.42350833	         18.62552627	         23.19822058	         15.21997652	          8.25955358	        -24.36368120	        -22.80005171	         18.76623213	          3.93234835	        -28.18556500	        -38.58377795	         12.44328388	        -39.71703618	         -3.34583573	        -12.51251541	         36.80503612	         58.47032063	         38.57008172	        111.03059947	         92.65993112	          0.08693668	          0.08510892	          0.08660643	          0.07757839	          0.08910007	          0.08697011	          0.07611237	          0.07456001	          0.07504214	          0.07242895	          0.06890592	          0.06138247	          0.06660906	          0.08703105	          0.07177473	          0.07132921	          0.08586518	          0.04010355	          0.06081773	          0.06716798	          0.06278041	          0.06701366	          0.07054055	          0.08410001	          0.07511709	          0.08292190	          0.07618256	          0.06869350	          0.08172497	          0.05757429	          0.07420881	          0.07750304	          0.08074467	          0.08301885	          0.06145470	          0.06952173	          0.05119456	          0.07195619	          0.06634392	          0.07134803	          0.08429839	          0.08030846	          0.08419642	          0.07534522	          0.08457174	          0.08360859	          0.07312774	          0.07415376	          0.06988057	          0.06894476	          0.07045620	          0.06771842	          0.07660062	          0.06850493	          0.07347468	          0.07174661	          0.08404796	          0.04057313	          0.06356143	          0.06791351	          0.06345754	          0.06634259	          0.06653585	          0.08056615	          0.07308397	          0.08218196	          0.07596506	          0.06549083	          0.07659225	          0.05910334	          0.07388797	          0.07332040	          0.07832462	          0.06270242	          0.06084643	          0.04343397	          0.05174543	          0.07047274	          0.05895145	          0.06984631	
