Coordinates
version=1
nRows=21
nColumns=114
inDegrees=yes

Units are S.I. units (second, meters, Newtons, ...)
If the header above contains a line with 'inDegrees', this indicates whether rotational values are in degrees (yes) or radians (no).

endheader 
time	pelvis_tilt	pelvis_list	pelvis_rotation	pelvis_tx	pelvis_ty	pelvis_tz	hip_flexion_l	hip_adduction_l	hip_rotation_l	hip_flexion_r	hip_adduction_r	hip_rotation_r	knee_angle_l	knee_angle_r	ankle_angle_l	ankle_angle_r	subtalar_angle_l	subtalar_angle_r	mtp_angle_l	mtp_angle_r	lumbar_extension	lumbar_bending	lumbar_rotation	arm_flex_l	arm_add_l	arm_rot_l	arm_flex_r	arm_add_r	arm_rot_r	elbow_flex_l	elbow_flex_r	pro_sup_l	pro_sup_r	addbrev_l/activation	addlong_l/activation	addmagDist_l/activation	addmagIsch_l/activation	addmagMid_l/activation	addmagProx_l/activation	bflh_l/activation	bfsh_l/activation	edl_l/activation	ehl_l/activation	fdl_l/activation	fhl_l/activation	gaslat_l/activation	gasmed_l/activation	glmax1_l/activation	glmax2_l/activation	glmax3_l/activation	glmed1_l/activation	glmed2_l/activation	glmed3_l/activation	glmin1_l/activation	glmin2_l/activation	glmin3_l/activation	grac_l/activation	iliacus_l/activation	perbrev_l/activation	perlong_l/activation	piri_l/activation	psoas_l/activation	recfem_l/activation	sart_l/activation	semimem_l/activation	semiten_l/activation	soleus_l/activation	tfl_l/activation	tibant_l/activation	tibpost_l/activation	vasint_l/activation	vaslat_l/activation	vasmed_l/activation	addbrev_r/activation	addlong_r/activation	addmagDist_r/activation	addmagIsch_r/activation	addmagMid_r/activation	addmagProx_r/activation	bflh_r/activation	bfsh_r/activation	edl_r/activation	ehl_r/activation	fdl_r/activation	fhl_r/activation	gaslat_r/activation	gasmed_r/activation	glmax1_r/activation	glmax2_r/activation	glmax3_r/activation	glmed1_r/activation	glmed2_r/activation	glmed3_r/activation	glmin1_r/activation	glmin2_r/activation	glmin3_r/activation	grac_r/activation	iliacus_r/activation	perbrev_r/activation	perlong_r/activation	piri_r/activation	psoas_r/activation	recfem_r/activation	sart_r/activation	semimem_r/activation	semiten_r/activation	soleus_r/activation	tfl_r/activation	tibant_r/activation	tibpost_r/activation	vasint_r/activation	vaslat_r/activation	vasmed_r/activation	
          0.00000000	        -17.13409989	         -7.73172852	          8.92121630	          0.87995766	          0.81550606	         -0.11322196	          4.97884023	         -8.79240683	         -8.01105620	         21.73836327	          5.31828849	        -25.53858587	          0.00215313	          1.84207249	         12.32170233	          9.65435490	         14.73094742	         -3.35722586	          2.56399683	          2.54317219	          6.73446850	          7.40444714	          0.20205496	        -10.02759483	        -16.01688305	         17.56349439	        -25.94968304	         -7.67707028	         -8.55655767	         42.36518468	         52.20560707	         80.71334205	         86.42954014	          0.10151269	          0.17818780	          0.07578526	          0.07184064	          0.08571816	          0.07669490	          0.03683163	          0.03798701	          0.17657829	          0.17252231	          0.13580230	          0.06762936	          0.01175026	          0.01100136	          0.02370364	          0.01893279	          0.05102510	          0.01897947	          0.01868982	          0.01729343	          0.03933827	          0.03105735	          0.03097273	          0.05689601	          0.06389696	          0.01220012	          0.01136601	          0.02940580	          0.06719868	          0.05950756	          0.03991781	          0.03235821	          0.04024789	          0.01036089	          0.05826300	          0.65200106	          0.04499252	          0.06092156	          0.07546064	          0.07021462	          0.24493215	          0.28700890	          0.09795524	          0.01655762	          0.15214268	          0.13451985	          0.22879053	          0.11328701	          0.11529819	          0.10637681	          0.07097565	          0.05716534	          0.06814883	          0.03203848	          0.01529431	          0.01198682	          0.06926670	          0.01131965	          0.01388337	          0.01594892	          0.01288682	          0.01455822	          0.01820597	          0.13144698	          0.07583969	          0.01696080	          0.01319728	          0.09035924	          0.23055461	          0.01143222	          0.09673648	          0.07152658	          0.07150896	          0.01101694	          0.01325631	          0.32534623	          0.12285787	          0.01123225	          0.01036239	          0.01081560	
          0.05000000	        -18.77739970	         -7.09575369	         11.38977323	          0.89692912	          0.82347617	         -0.11445832	          5.11154085	         -9.03684461	        -13.76791198	         22.14718289	          4.35354084	        -30.70389244	          0.19559189	          2.89079163	         12.79190595	          9.61582195	         22.18084046	         -1.18477214	         -2.58327800	         -1.25836561	          9.28399309	          7.94915538	         -0.75701420	        -12.83924252	        -14.69668587	         14.02834414	        -28.04472934	         -6.25094722	        -10.33744705	         38.78362738	         48.98146837	         79.69855783	         86.15026708	          0.02738309	          0.03297321	          0.03855199	          0.04384566	          0.03329946	          0.03509683	          0.07962672	          0.07538214	          0.09626931	          0.13607405	          0.09320654	          0.17195145	          0.01128005	          0.01077985	          0.05259815	          0.05769287	          0.04412028	          0.05871527	          0.05724015	          0.05963569	          0.05042060	          0.05660162	          0.05609116	          0.03750322	          0.03726298	          0.01206744	          0.01120963	          0.04706605	          0.03767688	          0.01757079	          0.06632411	          0.12492448	          0.05745988	          0.01027385	          0.05020555	          0.62960044	          0.43595344	          0.02620422	          0.01753912	          0.02272705	          0.05040590	          0.04888659	          0.02471356	          0.01221190	          0.05063020	          0.12416704	          0.03918207	          0.04442016	          0.06848036	          0.07505305	          0.06424633	          0.06517970	          0.01421109	          0.01180477	          0.01277061	          0.01120364	          0.01951300	          0.01099975	          0.01345449	          0.18739426	          0.01192916	          0.01284807	          0.02546409	          0.02737389	          0.01936748	          0.01654792	          0.01235888	          0.31231779	          0.21456629	          0.10079588	          0.11491109	          0.01266116	          0.01461321	          0.01098109	          0.01208915	          0.28899219	          0.12169797	          0.04945503	          0.03918193	          0.04689301	
          0.10000000	        -18.67256545	         -6.94527806	         12.97747381	          0.91883477	          0.82443452	         -0.11285715	          3.95167164	         -9.08882280	        -17.55787835	         20.36505895	          4.15938676	        -34.18516033	          0.38971523	          2.83243905	         11.32369544	          9.14539360	         25.66541061	          0.52424687	         -4.43466734	         -2.09449736	         10.83872729	          8.48711030	         -2.21097870	        -16.85754935	        -12.98084216	          8.95949377	        -29.49746168	         -5.75930102	        -11.28820917	         34.58652287	         47.07624534	         78.33827407	         86.34968417	          0.05772989	          0.08650419	          0.04597733	          0.05040053	          0.04903104	          0.03944914	          0.01778649	          0.04493675	          0.02185965	          0.15770635	          0.21486107	          0.35479929	          0.01084346	          0.01053495	          0.02187270	          0.01868876	          0.01818887	          0.07517754	          0.02743026	          0.01871166	          0.06263521	          0.04421866	          0.03246352	          0.03826691	          0.07168063	          0.01183093	          0.01089157	          0.03445376	          0.06331304	          0.09706305	          0.05482124	          0.02298348	          0.02959159	          0.01019251	          0.07619701	          0.66826045	          0.44906447	          0.05207515	          0.05723566	          0.05571472	          0.01146354	          0.01066782	          0.01150028	          0.01101491	          0.01211062	          0.02637843	          0.01126576	          0.04672749	          0.02625200	          0.04901704	          0.06134840	          0.08497958	          0.03422993	          0.01867656	          0.01179785	          0.01079171	          0.01113262	          0.01126592	          0.11138286	          0.44419868	          0.01203157	          0.02012039	          0.18391408	          0.01206387	          0.02090575	          0.01682642	          0.01308339	          0.36511148	          0.22470782	          0.30798882	          0.28378499	          0.01061684	          0.01163714	          0.01446077	          0.03600161	          0.13398157	          0.12721576	          0.03699767	          0.02415896	          0.03385050	
          0.15000000	        -17.70275842	         -6.45734811	         13.52415994	          0.94142963	          0.82868191	         -0.10819261	          2.29648186	         -9.00858373	        -19.68572993	         17.29718889	          4.81136026	        -36.44310747	          0.51410868	          1.64537849	          6.56316307	          7.88531133	         24.45312497	          1.19164206	         -5.86894891	         -3.54334120	         11.32443085	          8.16801462	         -3.17186958	        -21.06338160	        -11.24449785	          2.71601204	        -27.95662656	         -6.97399465	         -9.26926710	         31.12772926	         45.30302329	         76.62575428	         87.13474161	          0.08806602	          0.21410203	          0.03936068	          0.04409989	          0.04997009	          0.03364527	          0.01272903	          0.04245327	          0.01172132	          0.03487219	          0.15812141	          0.29466872	          0.01809848	          0.01269560	          0.01581446	          0.01324183	          0.01336642	          0.11380681	          0.01943266	          0.01387660	          0.10505134	          0.04292056	          0.02319494	          0.04000280	          0.12843494	          0.01232889	          0.01138112	          0.03929072	          0.09775498	          0.08345430	          0.05613283	          0.01293585	          0.01815460	          0.01385405	          0.09135437	          0.33732801	          0.43026683	          0.04867780	          0.04643204	          0.05006188	          0.01103846	          0.01042992	          0.01145498	          0.01071825	          0.01208012	          0.07771017	          0.01122062	          0.06577458	          0.06424918	          0.05351625	          0.03940671	          0.03625782	          0.06263247	          0.05183420	          0.01105304	          0.01042645	          0.01097022	          0.01074173	          0.15107781	          0.74011737	          0.01146141	          0.01442444	          0.24566074	          0.01192819	          0.01250985	          0.03289342	          0.02476551	          0.33502959	          0.36283086	          0.33071922	          0.33379036	          0.01046833	          0.01127877	          0.01445881	          0.01230733	          0.09669359	          0.02284486	          0.01955119	          0.01228468	          0.01590468	
          0.20000000	        -16.84958614	         -5.01301220	         13.72594194	          0.95822909	          0.83389024	         -0.10377350	          0.61374469	         -7.71778451	        -20.09469798	         14.62901331	          4.56105015	        -38.07473952	          0.73840286	          0.45111297	          0.55104308	          7.10389064	         21.15727735	          1.27558838	         -9.84422107	         -4.49632468	         10.48181541	          6.79600465	         -1.97232584	        -22.59996387	        -10.43271216	         -1.79526270	        -24.80410084	         -8.81162181	         -6.10274165	         29.77108990	         45.19896339	         75.49288382	         87.61856362	          0.05387593	          0.08822452	          0.07142510	          0.10449335	          0.05677068	          0.02591453	          0.13693521	          0.07292469	          0.01302956	          0.05598217	          0.10258285	          0.17114265	          0.20797341	          0.10367807	          0.03852283	          0.05765445	          0.02889333	          0.23383076	          0.02979312	          0.01531113	          0.11783337	          0.04426802	          0.02321116	          0.05664455	          0.04552250	          0.01408126	          0.01231250	          0.05327094	          0.02741229	          0.01470314	          0.03318303	          0.37760667	          0.14249689	          0.07399602	          0.04217536	          0.28281911	          0.28217821	          0.01553900	          0.01170335	          0.01365639	          0.08638586	          0.07850785	          0.01233856	          0.01155103	          0.02356677	          0.14343658	          0.01109207	          0.05156569	          0.02595156	          0.05688463	          0.06916239	          0.06106151	          0.02719744	          0.01678442	          0.01120134	          0.01053666	          0.01122441	          0.01095472	          0.02619139	          0.12398981	          0.01215581	          0.01379016	          0.04257572	          0.01809546	          0.22587335	          0.01659866	          0.01272245	          0.05765965	          0.61338842	          0.33042150	          0.21666073	          0.01058727	          0.01176245	          0.01310591	          0.01514016	          0.19480497	          0.42157714	          0.03953792	          0.02778099	          0.03797585	
          0.25000000	        -16.11337154	         -1.88228693	         13.41097280	          0.97258797	          0.83798433	         -0.09940921	         -0.94296211	         -5.08654907	        -18.36151148	         11.92316963	          2.16670562	        -38.08817313	          2.84694470	          0.00102278	         -3.33177071	          8.33703198	         17.29791226	          4.06652269	        -12.91749101	         -5.72859772	          8.63673997	          3.80734245	          0.69991180	        -22.39523292	        -10.32653279	         -5.13819098	        -22.63756924	        -10.21995936	         -4.50338808	         29.71919145	         48.45325888	         75.16925947	         87.73552985	          0.05400847	          0.11417933	          0.07417235	          0.09432787	          0.05371901	          0.01694142	          0.09853042	          0.06521261	          0.01644303	          0.04869921	          0.08228803	          0.11234777	          0.06909021	          0.09792384	          0.02059859	          0.03138176	          0.02163623	          0.13952572	          0.01917792	          0.01154332	          0.12692614	          0.03463142	          0.01434130	          0.04761205	          0.06387274	          0.01613001	          0.01274613	          0.01548063	          0.01785780	          0.01136766	          0.02336298	          0.17565046	          0.12524551	          0.02273811	          0.05131522	          0.18591330	          0.16595958	          0.01423478	          0.01136268	          0.01288546	          0.01531223	          0.01375389	          0.01176932	          0.01168910	          0.01199080	          0.02517342	          0.01102446	          0.04452592	          0.01243821	          0.05622925	          0.21128749	          0.37664432	          0.13106749	          0.02146355	          0.01216917	          0.01177993	          0.01109738	          0.08895927	          0.01255441	          0.02198605	          0.09100558	          0.05994087	          0.03539181	          0.01336811	          0.27823442	          0.01158035	          0.01088241	          0.05278011	          0.12065282	          0.30964428	          0.13673802	          0.01077730	          0.01199636	          0.03667313	          0.44423776	          0.42061071	          0.49587977	          0.02751857	          0.01577380	          0.02272733	
          0.30000000	        -16.59560347	          3.26765580	         12.01910559	          0.98478251	          0.84258704	         -0.09253699	          0.94696452	         -1.06815422	        -18.83522207	         10.32957986	         -2.84191245	        -37.42054662	          8.12363911	          0.03916137	         -2.83770059	         11.41902980	         15.05586764	         10.83794107	        -10.09240215	         -6.54498537	          7.13198572	         -1.65314647	          2.89358265	        -22.37615028	        -10.34778804	         -8.02653997	        -19.48781054	        -11.40640377	         -3.19384024	         29.95106476	         52.45062308	         75.26920589	         88.18901907	          0.13884127	          0.23866472	          0.02269267	          0.01680748	          0.08006636	          0.17526545	          0.01801428	          0.08257921	          0.17554565	          0.09241458	          0.02851836	          0.02162012	          0.01469784	          0.01691364	          0.01406632	          0.01112245	          0.01393602	          0.02349324	          0.01525111	          0.10982870	          0.02185844	          0.01942175	          0.08941999	          0.09646714	          0.09541472	          0.02963002	          0.02250118	          0.13946094	          0.21227872	          0.18049803	          0.13844862	          0.02960839	          0.02224273	          0.01040601	          0.01876737	          0.28131049	          0.02880836	          0.01212260	          0.01069157	          0.01145965	          0.01043860	          0.01024757	          0.01055473	          0.01054719	          0.01054337	          0.01081917	          0.01065433	          0.14905494	          0.01527202	          0.08520865	          0.12790528	          0.20659342	          0.09420413	          0.01676986	          0.01233806	          0.01140639	          0.01046966	          0.07076295	          0.41789650	          0.38152318	          0.06366830	          0.22905411	          0.23070958	          0.01132894	          0.04988709	          0.01135471	          0.01071313	          0.06687896	          0.02192803	          0.24462092	          0.30058738	          0.01050547	          0.01137779	          0.01042764	          0.30768147	          0.45660795	          0.36624146	          0.01119048	          0.01042680	          0.01087160	
          0.35000000	        -18.26331161	          8.77959198	         10.67721625	          0.99191710	          0.84912357	         -0.08559306	          7.18378164	          3.61481195	        -25.17507818	         10.70959209	         -8.56735395	        -36.92524634	         12.67911492	          0.07213148	         -1.79050487	         13.28204268	         14.27662942	         15.44467400	         -5.40026768	         -5.89741694	          6.12791237	         -7.91298394	          4.02357708	        -22.09945137	        -10.21598401	         -9.74439853	        -15.12078841	        -12.09486909	         -1.99423028	         29.53568506	         55.43864618	         75.47170831	         88.86545952	          0.06712410	          0.07159962	          0.03723198	          0.01578558	          0.05284271	          0.06717237	          0.01895048	          0.06226668	          0.10419610	          0.07852271	          0.03176354	          0.01962095	          0.01214776	          0.01108558	          0.01562508	          0.01156582	          0.02018593	          0.01090712	          0.01582422	          0.04944307	          0.01245084	          0.01701053	          0.03325497	          0.05524763	          0.07011225	          0.04085754	          0.02747041	          0.09157708	          0.13081781	          0.08823885	          0.08985693	          0.01174161	          0.01689735	          0.01052382	          0.01578596	          0.20123481	          0.01568733	          0.02132709	          0.01317325	          0.01746189	          0.01048158	          0.01021741	          0.01044249	          0.01028736	          0.01054072	          0.02399303	          0.01069740	          0.18162670	          0.06938656	          0.09141169	          0.07030086	          0.09503971	          0.06615734	          0.02192049	          0.01051254	          0.01027932	          0.01044516	          0.01191431	          0.07086727	          0.93666484	          0.01125454	          0.03921356	          0.21968559	          0.01105108	          0.01246578	          0.01234804	          0.01148638	          0.08715298	          0.10519624	          0.29881805	          0.57249116	          0.01024398	          0.01070899	          0.01044669	          0.05203663	          0.33561030	          0.18698684	          0.01083266	          0.01028157	          0.01058216	
          0.40000000	        -19.93632297	         11.89693776	          9.89741259	          0.99966176	          0.85251453	         -0.08148420	         14.28292641	          6.78346440	        -33.74637133	         11.84748348	        -11.76980281	        -35.73350263	         11.51176079	          0.01693426	         -6.02947509	         12.41220099	         10.34590775	         14.86557257	         -2.82996379	         -5.24379492	          5.96124225	        -11.59166213	          5.15377412	        -21.71502873	         -9.71245876	        -10.91509744	        -12.98716981	        -12.20812632	         -2.25107452	         29.08614259	         58.11967107	         75.69428986	         89.44319534	          0.01839473	          0.01565923	          0.01810553	          0.01716899	          0.02138095	          0.02799723	          0.02457729	          0.06487911	          0.10098520	          0.05817565	          0.02998286	          0.02032894	          0.01721097	          0.01441675	          0.03706383	          0.02581391	          0.01660298	          0.06660183	          0.09879560	          0.13100246	          0.04348813	          0.06815773	          0.10746661	          0.02225773	          0.03059203	          0.04687101	          0.08865381	          0.07535498	          0.02650796	          0.02345792	          0.07276330	          0.02181828	          0.02786145	          0.01217835	          0.11437433	          0.11169250	          0.01494048	          0.02058355	          0.01320321	          0.01707734	          0.01028404	          0.01014005	          0.01020585	          0.01014375	          0.01026351	          0.01249139	          0.01016035	          0.03351600	          0.02285320	          0.06020856	          0.08805624	          0.12679601	          0.01373287	          0.01190241	          0.01025099	          0.01014932	          0.01018456	          0.01013822	          0.01263866	          0.97215673	          0.01037622	          0.01159204	          0.60204776	          0.01049640	          0.01283785	          0.01397231	          0.01214025	          0.16931081	          0.90175661	          0.84601018	          0.99896256	          0.01008343	          0.01026220	          0.01107767	          0.25664864	          0.27705506	          0.25798486	          0.05078287	          0.04221941	          0.04572454	
          0.45000000	        -20.93819480	         11.58724457	          8.72520876	          1.01401644	          0.84827868	         -0.07949530	         19.46913010	          6.41449278	        -36.57994693	         12.18899778	        -11.18221448	        -34.85129530	          7.27562031	          0.02775889	         -8.42599793	         12.93474529	          4.11575407	         15.37945209	         -1.43066431	         -5.33790050	          6.95502268	        -11.19075756	          7.00655839	        -22.38576842	         -8.83937382	        -12.37936845	        -13.51511597	        -12.55246424	         -3.41786540	         29.74431336	         60.84954356	         76.16200609	         89.95975462	          0.01741097	          0.01413220	          0.01372571	          0.01202469	          0.01800926	          0.03800426	          0.01159409	          0.06071309	          0.16691227	          0.09150756	          0.01740077	          0.01298658	          0.01116159	          0.01069892	          0.01260929	          0.01122592	          0.01167434	          0.01417855	          0.02927866	          0.10687018	          0.01960437	          0.02743572	          0.07475246	          0.01827565	          0.08366853	          0.08513740	          0.08082080	          0.12705237	          0.16054428	          0.14062601	          0.13813305	          0.01091338	          0.01307335	          0.01033117	          0.04448287	          0.22099260	          0.01099901	          0.02051489	          0.01260788	          0.01664396	          0.01052061	          0.01026790	          0.01040662	          0.01030138	          0.01051699	          0.01245251	          0.01036466	          0.06252453	          0.01820078	          0.07479810	          0.12830687	          0.19196434	          0.01371402	          0.01195595	          0.01054369	          0.01031230	          0.01036255	          0.01030638	          0.01900367	          0.78239117	          0.01070360	          0.01681200	          0.43826933	          0.01094644	          0.01589244	          0.01203020	          0.01134703	          0.12824408	          0.24354115	          0.48105310	          0.84452436	          0.01018884	          0.01053535	          0.01070042	          0.29118415	          0.35857745	          0.44101912	          0.02687853	          0.01704960	          0.02343791	
          0.50000000	        -21.34049990	         10.09392250	          7.65670569	          1.03508641	          0.83798246	         -0.07968909	         22.34468647	          4.52202563	        -33.72576238	         11.05797707	         -9.35493694	        -35.15908915	          3.61764393	          0.06126900	         -1.36533859	         16.45162680	          4.80570994	         18.78644969	         -0.77978789	         -5.78402711	          8.40944824	         -9.32049346	          8.23398472	        -23.91166759	         -8.02116927	        -14.70448436	        -14.87195484	        -13.01089755	         -4.52004791	         30.71658531	         62.91363201	         77.12981477	         90.33654174	          0.03087812	          0.02171206	          0.01235039	          0.01133620	          0.01709681	          0.06756396	          0.01094006	          0.05820256	          0.40510002	          0.11976422	          0.02539137	          0.01359889	          0.01042772	          0.01022571	          0.01150978	          0.01076531	          0.01112571	          0.01163547	          0.01419662	          0.02733697	          0.01504080	          0.01831064	          0.02765259	          0.01621549	          0.17094215	          0.01556585	          0.01395706	          0.19275625	          0.36579582	          0.20419547	          0.17454673	          0.01058000	          0.01177212	          0.01010680	          0.04605139	          0.60284119	          0.01542457	          0.04576220	          0.03496567	          0.04246120	          0.01059233	          0.01030509	          0.01051805	          0.01041168	          0.01061531	          0.01224538	          0.01052005	          0.09693097	          0.01420135	          0.07002473	          0.19977011	          0.32950273	          0.01214378	          0.01111513	          0.01084923	          0.01047283	          0.01044765	          0.01066598	          0.17486249	          0.61203940	          0.01152641	          0.10509579	          0.39872367	          0.01123578	          0.03414382	          0.01131359	          0.01067028	          0.10566795	          0.23023558	          0.46732912	          0.57631699	          0.01028588	          0.01077937	          0.01027597	          0.33569225	          0.50598890	          0.42121627	          0.01147640	          0.01052519	          0.01103420	
          0.55000000	        -21.55287325	          9.32186995	          7.39249557	          1.06120978	          0.82975197	         -0.08214133	         24.40883992	          3.71582378	        -31.03785077	          9.10022250	         -8.39419967	        -35.15167118	          0.94679558	          0.00702416	          7.53301674	         19.19667567	         12.07978747	         19.52634654	         -0.50443332	         -5.75254373	          9.71066888	         -8.57092569	          8.35473763	        -24.96119519	         -7.89033046	        -17.23705379	        -16.60102960	        -12.61135136	         -6.06565854	         30.65257563	         63.79020932	         78.48570387	         90.48867106	          0.01594009	          0.01332140	          0.01164136	          0.01106812	          0.01304208	          0.05048628	          0.01083240	          0.03160849	          0.27528432	          0.31850479	          0.04013406	          0.01342832	          0.01049971	          0.01030147	          0.01148249	          0.01073431	          0.01092853	          0.01143185	          0.01391892	          0.06101896	          0.01352275	          0.01774809	          0.04420121	          0.01344948	          0.26132147	          0.01180502	          0.01118188	          0.24480399	          0.38369026	          0.19993467	          0.26038282	          0.01053073	          0.01160164	          0.01011019	          0.08926506	          0.76823132	          0.01486199	          0.06174019	          0.07907903	          0.07601661	          0.01061625	          0.01030472	          0.01052813	          0.01039824	          0.01064524	          0.01300887	          0.01043550	          0.06075403	          0.12394882	          0.16227969	          0.11589948	          0.15201101	          0.01097587	          0.01064555	          0.01073350	          0.01039361	          0.01046528	          0.01051388	          0.09910608	          0.76029994	          0.01119780	          0.04040979	          0.41632283	          0.01116852	          0.02444052	          0.01192518	          0.01099457	          0.10993986	          0.44464099	          0.61918792	          0.68948823	          0.01022643	          0.01063432	          0.01022790	          0.25492174	          0.53714765	          0.31452586	          0.03642824	          0.02261652	          0.03152796	
          0.60000000	        -21.57970739	          8.84355520	          7.24819662	          1.08955798	          0.82516788	         -0.08595676	         26.91172166	          3.46611620	        -29.97219978	          7.02474359	         -7.84186542	        -34.18484235	          0.16030788	          0.09220376	         11.38638022	         19.39757671	         17.80968524	         17.07410273	         -0.37762832	         -5.55392446	         10.35598280	         -8.35069294	          8.44733686	        -24.61033116	         -8.52504074	        -18.44931485	        -18.19489139	        -11.48660800	         -7.98646309	         29.67900767	         63.09629589	         79.62789858	         90.45715741	          0.01388603	          0.01236730	          0.01157307	          0.01098811	          0.01257214	          0.04358521	          0.01091798	          0.04146432	          0.25609388	          0.12855538	          0.06848641	          0.02858337	          0.01077941	          0.01048222	          0.01151742	          0.01077111	          0.01092120	          0.01141488	          0.01425736	          0.09288783	          0.01314293	          0.01740283	          0.04825608	          0.01303525	          0.14006353	          0.01205523	          0.01121174	          0.29439545	          0.30126372	          0.13014430	          0.20211966	          0.01058557	          0.01166218	          0.01016674	          0.06904984	          0.77587279	          0.07350227	          0.08405012	          0.07769807	          0.08531423	          0.01094624	          0.01045831	          0.01066112	          0.01047387	          0.01089037	          0.03016437	          0.01051233	          0.08861094	          0.03929318	          0.07948417	          0.10080530	          0.13264196	          0.01235604	          0.01133553	          0.01078547	          0.01040451	          0.01054348	          0.01052435	          0.05386130	          0.54840046	          0.01127703	          0.03755858	          0.28379281	          0.01163730	          0.07826988	          0.01242982	          0.01161742	          0.09077198	          0.39735020	          0.55744485	          0.52443303	          0.01025795	          0.01072420	          0.01044342	          0.17957347	          0.36173359	          0.25843562	          0.01754646	          0.01217196	          0.01501688	
          0.65000000	        -21.62518814	          8.25780766	          6.71740117	          1.12121754	          0.81811105	         -0.09105551	         28.62815844	          3.26224137	        -30.14079217	          4.94035975	         -7.35922287	        -32.91778793	          0.37627112	          0.38584373	         12.18183607	         18.31499305	         22.09940433	         14.71405815	         -0.30992631	         -7.09534682	         10.97647992	         -7.92993692	          8.66721661	        -23.82267396	         -9.34395495	        -18.32062771	        -19.45634046	        -10.19344890	         -9.69571896	         29.22328266	         61.68976351	         80.53748344	         90.36444571	          0.01134005	          0.01088563	          0.01089831	          0.01066036	          0.01130128	          0.02517918	          0.01062877	          0.04650013	          0.31021255	          0.30248322	          0.11510772	          0.07583952	          0.01059568	          0.01037261	          0.01127943	          0.01064042	          0.01054782	          0.01120375	          0.01358788	          0.08043773	          0.01203080	          0.01581353	          0.05107405	          0.01161645	          0.27385767	          0.01161321	          0.01078167	          0.38789862	          0.57662644	          0.18150410	          0.34454674	          0.01043598	          0.01123849	          0.01013344	          0.08196568	          0.95922121	          0.24655241	          0.09324114	          0.17338292	          0.11212113	          0.01073875	          0.01037135	          0.01074159	          0.01054434	          0.01089559	          0.03376855	          0.01097020	          0.12089719	          0.01828615	          0.04760977	          0.09911278	          0.15918681	          0.28579753	          0.12540883	          0.01123038	          0.01056584	          0.01073113	          0.01064930	          0.15510710	          0.53150026	          0.01128180	          0.09774347	          0.29381016	          0.01174985	          0.01910086	          0.01380013	          0.01211749	          0.09226039	          0.16836796	          0.40962043	          0.39658337	          0.01041056	          0.01108400	          0.01149343	          0.14953005	          0.17347446	          0.29841023	          0.01122218	          0.01048733	          0.01093350	
          0.70000000	        -22.22938755	          7.98693540	          5.78984879	          1.15939110	          0.80949878	         -0.09729338	         27.84457655	          3.25338212	        -30.77981370	          3.00794295	         -7.39688017	        -31.52809428	          0.40751332	          0.69367969	         12.52471608	         17.15062134	         25.76284240	         13.33492118	         -0.27544562	         -9.66276662	         12.57313294	         -7.93395464	          9.26751707	        -23.84372402	        -10.23218117	        -17.21686738	        -22.09090399	         -8.17626602	        -11.87441371	         30.74330015	         60.66445867	         81.63762478	         90.28082134	          0.08931918	          0.04818812	          0.05366689	          0.01526207	          0.09302760	          0.12795285	          0.05548629	          0.05187357	          0.40537584	          0.42124862	          0.19156181	          0.20592791	          0.01028718	          0.01018259	          0.01372099	          0.01132338	          0.04557270	          0.01090946	          0.01338168	          0.11325692	          0.01173583	          0.01275363	          0.01764058	          0.03458673	          0.04661932	          0.01095964	          0.01044304	          0.17061818	          0.14873237	          0.04057870	          0.08605090	          0.01399423	          0.01980536	          0.01006329	          0.01444833	          0.99927179	          0.35397377	          0.04969698	          0.04527154	          0.04822173	          0.04736762	          0.14976829	          0.01196025	          0.01159866	          0.01433565	          0.04777055	          0.01106308	          0.07854694	          0.01228765	          0.03488400	          0.12700079	          0.21461716	          0.08505406	          0.08166659	          0.01167336	          0.01101225	          0.01098772	          0.01368749	          0.02679237	          0.08901268	          0.03477429	          0.03250838	          0.05040224	          0.02355788	          0.28504292	          0.01244556	          0.01159060	          0.06241837	          0.31157919	          0.28718746	          0.16763519	          0.01073273	          0.01200711	          0.05142654	          0.19560765	          0.18414535	          0.29542527	          0.01343187	          0.01092087	          0.01205720	
          0.75000000	        -23.50922384	          8.27581606	          4.31189803	          1.20072171	          0.80404742	         -0.10477329	         25.85195203	          3.60741971	        -30.30683534	          1.83589253	         -8.30066906	        -29.70532425	          0.14285333	          1.05826357	         12.85335014	         15.82969960	         26.06142387	         12.23135903	         -0.26534506	        -10.22648325	         14.70073707	         -8.21212605	         11.30175181	        -23.44068362	        -11.55759405	        -13.97132678	        -27.15419301	         -4.64204292	        -16.34871692	         33.41446662	         60.03686164	         83.39742928	         90.41678624	          0.01736564	          0.01252726	          0.01750214	          0.01558910	          0.02020123	          0.02933971	          0.01926564	          0.06046799	          0.27853553	          0.32816796	          0.15868699	          0.19420559	          0.01033102	          0.01021206	          0.02934627	          0.01712184	          0.01826209	          0.01484774	          0.05178430	          0.14653425	          0.01961671	          0.02955164	          0.07002837	          0.01922441	          0.02050860	          0.01120178	          0.01053406	          0.15404226	          0.05689065	          0.06077978	          0.10076643	          0.01481998	          0.01977718	          0.01007450	          0.04105922	          0.99726360	          0.35488471	          0.05256345	          0.05053144	          0.05412721	          0.06046661	          0.12398848	          0.01781281	          0.01594543	          0.03048319	          0.03370340	          0.01173084	          0.05045082	          0.04369692	          0.07678354	          0.07663978	          0.09702299	          0.01607656	          0.01468609	          0.01450795	          0.01253125	          0.01202247	          0.05156565	          0.01600384	          0.01611845	          0.06528775	          0.04718316	          0.03240406	          0.03211059	          0.12241788	          0.01355329	          0.01209677	          0.05992341	          0.12440741	          0.14852570	          0.09490968	          0.01183178	          0.01392936	          0.01102178	          0.08693073	          0.30554261	          0.22723288	          0.03890355	          0.02629826	          0.03504393	
          0.80000000	        -24.74679825	          8.73665500	          2.46673099	          1.24036709	          0.80251327	         -0.11254262	         24.04170681	          4.19453389	        -28.47686202	          1.20314185	         -9.47242216	        -26.91186589	          0.00784622	          2.10936598	         13.15008380	         13.89132034	         23.76731921	         10.59695502	         -0.35325220	         -9.28507687	         16.18583170	         -7.83275759	         14.06567986	        -20.68545656	        -13.20068631	         -7.72179077	        -31.92422609	         -0.63257706	        -21.92390104	         35.86656802	         58.72369362	         85.63223195	         90.97952687	          0.15050172	          0.20671943	          0.08081397	          0.03525202	          0.10490782	          0.10250437	          0.04672471	          0.04275071	          0.10497593	          0.20078172	          0.15438189	          0.21288486	          0.01060531	          0.01037516	          0.01655309	          0.01227115	          0.06630466	          0.01203699	          0.01518171	          0.02972691	          0.01457113	          0.01632363	          0.02014485	          0.06157131	          0.08339343	          0.01165324	          0.01076473	          0.06561615	          0.21034490	          0.05241964	          0.07228319	          0.01756979	          0.02831949	          0.01013034	          0.01413895	          0.86714270	          0.36086299	          0.04852542	          0.04332214	          0.05103765	          0.13068308	          0.29120387	          0.10265429	          0.13883652	          0.10293104	          0.03212092	          0.02847025	          0.05992088	          0.03633275	          0.08713104	          0.09507823	          0.12412063	          0.01313910	          0.01174670	          0.02753091	          0.03388948	          0.01843355	          0.19103529	          0.01739449	          0.01242625	          0.11603201	          0.03406517	          0.01969820	          0.07997268	          0.08484439	          0.01242935	          0.01167878	          0.04140284	          0.05175549	          0.02573854	          0.02662981	          0.16963081	          0.10113719	          0.01074249	          0.04214178	          0.40347151	          0.20796323	          0.02744011	          0.01733412	          0.02398227	
          0.85000000	        -25.26918590	          8.68006235	          1.73045301	          1.27868577	          0.80135132	         -0.12071263	         21.79540506	          4.62145294	        -25.90771698	          0.33548711	         -9.78699491	        -22.68375636	          0.26050440	          4.63643439	         13.70913137	         12.70281001	         21.70267181	          7.25005832	         -0.76249916	         -7.72099093	         16.53385422	         -6.56759693	         16.58741845	        -14.21962889	        -15.68944895	          3.67150718	        -34.87914907	          3.39689265	        -27.55569524	         38.85401393	         57.26128503	         88.07859850	         92.00666005	          0.05613222	          0.04722925	          0.05671804	          0.04277131	          0.05966014	          0.06321883	          0.12278887	          0.06096682	          0.04974865	          0.11776088	          0.13335354	          0.19992028	          0.01116792	          0.01070426	          0.03371854	          0.01988946	          0.06572867	          0.01282486	          0.01884195	          0.04211739	          0.01736677	          0.01936861	          0.02722797	          0.05549771	          0.03904872	          0.01200127	          0.01115249	          0.07014276	          0.08210019	          0.02121683	          0.05964333	          0.13643600	          0.05816602	          0.01026672	          0.01605279	          0.57819121	          0.34849451	          0.02614206	          0.01571651	          0.02185172	          0.12346863	          0.27962237	          0.06653099	          0.07009967	          0.08347485	          0.04002399	          0.01424721	          0.05024747	          0.12342973	          0.10863794	          0.05657402	          0.04539421	          0.01216915	          0.01142454	          0.01528245	          0.01372851	          0.01353708	          0.09562254	          0.01576474	          0.01214114	          0.09010433	          0.03056635	          0.01783091	          0.05978066	          0.11350318	          0.01409620	          0.01208868	          0.05159533	          0.09603450	          0.04325600	          0.04293136	          0.02974743	          0.03477122	          0.01049739	          0.07158882	          0.45450163	          0.09181188	          0.03809571	          0.02908199	          0.03574494	
          0.90000000	        -24.62374508	          7.28193760	          3.25619847	          1.31777725	          0.79969144	         -0.13118756	         18.38625094	          4.27111506	        -22.21310048	         -0.38532305	         -8.21696700	        -17.65135083	          0.65858067	          9.49105320	         14.99603445	         13.05484364	         21.04009528	          0.94877027	         -1.98341220	         -5.19683217	         15.39241967	         -3.72546484	         16.80898724	         -6.40891485	        -18.27875807	         16.31693272	        -36.49068336	          6.57765086	        -32.13228677	         44.34523831	         56.21142379	         89.72241249	         92.72117522	          0.01205731	          0.01091402	          0.01296232	          0.01250526	          0.01316530	          0.01541964	          0.06443798	          0.12610143	          0.01818645	          0.06955080	          0.11816169	          0.19003008	          0.01336817	          0.01244038	          0.07741664	          0.07888419	          0.01333641	          0.12838188	          0.15305259	          0.20610245	          0.06490903	          0.09834342	          0.13024814	          0.01726158	          0.02798979	          0.01194274	          0.01099551	          0.25810432	          0.01906581	          0.01127029	          0.12230531	          0.09401284	          0.05088930	          0.01033413	          0.13896960	          0.33057245	          0.29684391	          0.01117554	          0.01040385	          0.01085894	          0.07782317	          0.13193071	          0.03164909	          0.02106654	          0.04811038	          0.08422750	          0.02046912	          0.06359506	          0.24359403	          0.12616982	          0.02008655	          0.01321821	          0.01140201	          0.01070134	          0.01831375	          0.01350137	          0.01959400	          0.01736942	          0.02091898	          0.02920031	          0.02499852	          0.04052287	          0.05015636	          0.05347596	          0.09861226	          0.07113689	          0.07674736	          0.06043357	          0.12670418	          0.13005799	          0.09246543	          0.01401764	          0.02202018	          0.01021058	          0.04592870	          0.38328655	          0.01620298	          0.02364055	          0.01339635	          0.01936246	
          0.95000000	        -22.62430220	          4.10240054	          6.25426935	          1.35825389	          0.80192648	         -0.14364151	         13.74001121	          2.00342635	        -17.97724143	          0.68790080	         -4.30617320	        -13.82873619	          0.98622535	         17.51185516	         16.64033195	         13.54613290	         21.51880616	         -8.03456183	         -3.37885101	         -2.89378272	         12.80782552	          2.09612314	         12.96370018	         -0.86954510	        -18.89991103	         23.41192687	        -36.54027265	          7.08602444	        -33.67885461	         50.47101835	         53.39781061	         89.93729198	         92.56203940	          0.01133617	          0.01768270	          0.01429560	          0.02402435	          0.01214416	          0.01283563	          0.02133767	          0.03453671	          0.02686706	          0.03466029	          0.06710471	          0.10316950	          0.02934547	          0.02761035	          0.17291821	          0.19914692	          0.01833379	          0.23571074	          0.27854458	          0.34938739	          0.06459109	          0.10054865	          0.10155558	          0.01638201	          0.01808803	          0.02667426	          0.04096668	          0.29540787	          0.01560457	          0.05823780	          0.06771588	          0.02103362	          0.02083080	          0.09660946	          0.16659908	          0.08726819	          0.15816242	          0.04644608	          0.05325691	          0.04672910	          0.03737083	          0.03805249	          0.04398879	          0.03920095	          0.04580638	          0.04869867	          0.04681345	          0.02646552	          0.06551590	          0.05636934	          0.02917443	          0.02478823	          0.03448996	          0.08021685	          0.05698786	          0.05461241	          0.07076574	          0.01842235	          0.03915379	          0.07464377	          0.01819938	          0.02870034	          0.05640617	          0.03080319	          0.02492232	          0.04406624	          0.10819615	          0.08155418	          0.02978306	          0.09641176	          0.02856088	          0.03728516	          0.03047611	          0.11112930	          0.02653155	          0.13082116	          0.02815997	          0.05387269	          0.06863577	          0.05592374	
          1.00000000	        -20.38762972	         -0.43271845	          8.74812261	          1.40080061	          0.80604039	         -0.15433705	          8.93745933	         -2.85757541	        -16.01806936	          4.42503836	          1.41176728	        -13.55765371	          1.24438629	         24.66141165	         17.68338058	         14.18472884	         23.24437574	        -15.40697457	        -16.08876463	        -15.96123341	         10.91210655	         11.05125584	          7.53377972	          2.26683750	        -17.62592262	         26.01802734	        -35.74617809	          5.47909766	        -33.50171617	         53.72872438	         48.03472364	         89.95908462	         92.11535509	          0.13141234	          0.11609204	          0.11719971	          0.10187909	          0.12147070	          0.11579947	          0.09803690	          0.08646397	          0.09174207	          0.08899810	          0.08362525	          0.07489552	          0.08895079	          0.09740592	          0.05614785	          0.05408907	          0.11133280	          0.04217696	          0.04870643	          0.06006060	          0.07995698	          0.06899594	          0.06995577	          0.10954198	          0.10140969	          0.09989966	          0.09278243	          0.05167420	          0.10720237	          0.08687182	          0.07721312	          0.09877914	          0.10207271	          0.08623875	          0.05351884	          0.07418681	          0.06335077	          0.09255261	          0.09189734	          0.09359129	          0.08188545	          0.07394519	          0.09370136	          0.09378485	          0.08731577	          0.08424592	          0.09004740	          0.09103915	          0.08125529	          0.08282140	          0.09335307	          0.09590156	          0.09339153	          0.08765455	          0.10252225	          0.10663591	          0.10025084	          0.11054406	          0.10158062	          0.09921216	          0.09779008	          0.09677592	          0.08836985	          0.08988135	          0.08653004	          0.08386764	          0.06851718	          0.08528860	          0.08226852	          0.07833839	          0.08779132	          0.09132112	          0.09481381	          0.08180525	          0.08853659	          0.06275449	          0.09823252	          0.09199762	          0.08986073	          0.09253239	
