Inverse Dynamics Generalized Forces
version=1
nRows=20
nColumns=34
inDegrees=no
endheader 
time	pelvis_tilt_moment	pelvis_list_moment	pelvis_rotation_moment	pelvis_tx_force	pelvis_ty_force	pelvis_tz_force	hip_flexion_l_moment	hip_adduction_l_moment	hip_rotation_l_moment	hip_flexion_r_moment	hip_adduction_r_moment	hip_rotation_r_moment	knee_angle_l_moment	knee_angle_r_moment	ankle_angle_l_moment	ankle_angle_r_moment	subtalar_angle_l_moment	subtalar_angle_r_moment	mtp_angle_l_moment	mtp_angle_r_moment	lumbar_extension_moment	lumbar_bending_moment	lumbar_rotation_moment	arm_flex_l_moment	arm_add_l_moment	arm_rot_l_moment	arm_flex_r_moment	arm_add_r_moment	arm_rot_r_moment	elbow_flex_l_moment	elbow_flex_r_moment	pro_sup_l_moment	pro_sup_r_moment	
          1.00000000	          0.00000005	         -0.00000001	          0.00000000	          0.00000004	         -0.00000009	          0.00000001	        -35.97853825	        -28.21523609	          1.72036242	         33.91923004	         -6.01171069	         -1.21444155	         14.22856528	        -16.11628102	        -12.21631670	          0.86762315	          0.78337610	          0.84017879	         -0.56727843	          0.02963954	          3.30667776	         22.84731659	        -12.00581790	          1.43843948	          3.13147020	          0.83110903	         -7.26932837	         -2.99707979	         -1.52286335	          1.61724784	         -0.38749888	         -0.00750879	         -0.04825233	
          1.05000000	          0.00000001	          0.00000000	          0.00000000	          0.00000002	         -0.00000001	         -0.00000000	         -8.83286520	         -6.38823310	          0.92014572	          3.64130628	          7.95043228	         -2.40260726	         15.98258633	         -5.06747882	        -28.58923542	          0.77937200	          1.96879291	          0.41498892	          2.20049377	         -0.10591446	          9.32076866	         14.62993966	          5.98330088	         -1.75638246	         -0.84684400	         -0.07762902	          6.56789485	         -4.15667425	         -0.28955464	          0.77730873	          4.20167672	         -0.03381213	         -0.09593180	
          1.10000000	         -0.00000000	         -0.00000000	         -0.00000000	         -0.00000000	         -0.00000000	          0.00000000	         39.49388341	         -6.00168752	          2.04596359	        -13.16973267	          2.38815347	         -0.23503557	         -9.77672030	          2.16055519	        -27.79400329	          0.77175777	          2.91381754	         -0.06326510	          3.91606288	         -0.06251940	        -14.53115470	          8.18959356	         18.97332488	         12.06737640	         -1.65118278	         -3.53701963	         21.53706539	         -4.21801539	          1.46027035	          3.50799311	          8.58483652	         -0.20095995	         -0.10209327	
          1.15000000	          0.00000000	          0.00000000	          0.00000000	          0.00000000	          0.00000000	         -0.00000000	         74.45677444	         -8.49598255	          3.30925034	        -25.22937363	         -6.36051024	          1.56248414	        -31.41696980	          7.86208404	        -22.12122475	          0.87764389	          4.22988057	         -0.53344892	          4.07956734	         -0.02481923	        -42.04369468	         17.70482149	         23.63547135	          6.03643497	         -0.82225597	         -1.84308900	         -5.50957421	          1.09248027	          0.27967142	          1.80258708	         -0.42079024	         -0.09302735	          0.05335529	
          1.20000000	         -0.00000000	         -0.00000000	          0.00000000	         -0.00000000	          0.00000000	          0.00000000	          0.01146318	         -7.55213745	          1.53990920	         22.39774717	         -1.57983792	         -0.27780188	          8.59050621	        -11.17128568	        -24.96332123	          3.89215568	          2.78313851	          0.44919202	          3.83176144	         -0.01894194	        -25.24062690	         14.29568223	         -6.21930932	         -4.90956967	          5.77510537	          4.22664316	        -23.65489928	          9.07789179	          0.10757420	         -0.37454505	         -7.00739914	          0.18287093	          0.12382177	
          1.25000000	         -0.00000000	         -0.00000000	         -0.00000000	          0.00000000	          0.00000000	          0.00000000	        -81.63575617	         13.40345123	          0.31035195	         70.60431496	         12.51975849	         -3.43650737	         61.10728368	        -28.50404037	        -35.34200411	          7.92074946	          3.54685314	          1.92442941	          4.07990957	         -0.01265287	          5.48029395	          9.19416508	        -31.99609541	         -4.73651541	         -2.86776503	          1.08902823	        -22.62598869	          1.14591102	         -2.29521938	         -0.16548493	         -5.12251219	          0.03645333	         -0.00705032	
          1.30000000	         -0.00000000	         -0.00000000	         -0.00000000	          0.00000000	          0.00000000	          0.00000000	        -14.73015391	         10.39369236	         -0.18680766	         -9.71631495	         -0.07098017	          1.05738791	         24.35316734	          2.05520731	        -31.99313824	          2.97031105	          3.36878197	          1.22336078	          4.36095296	         -0.02201713	         20.14800402	          4.60688262	         -9.95999731	         -2.05811286	         -4.28951644	         -0.50523690	          3.94541690	         -2.22621176	          0.23789311	          0.46452577	          4.45043531	         -0.06386582	         -0.06350116	
          1.35000000	          0.00000000	          0.00000000	          0.00000000	          0.00000000	          0.00000000	         -0.00000000	          7.11588762	         15.24484032	          0.10946168	         -2.38824305	        -18.41910613	          5.48977584	          4.31162033	         -5.68037845	        -18.22629645	         -3.65061582	          2.09722274	          6.31488074	          3.50203698	          0.49816787	         -4.42927972	          5.44905687	         -6.06986568	          9.53127573	         -2.25153267	         -2.33684454	         23.56162630	          2.65433206	          5.04859021	          1.34373045	          7.96711939	         -0.13499296	          0.00697320	
          1.40000000	         -0.00000000	          0.00000000	          0.00000000	         -0.00000000	          0.00000000	         -0.00000000	          9.18749569	         24.09149467	          4.55908241	         32.71617557	        -12.91037967	          8.22302157	          1.07676682	        -13.97882343	        -15.50889147	         -9.80643950	          4.62145800	         10.90644335	          4.10528861	          1.49579484	        -41.78148872	         -1.28254022	        -10.50389336	         21.94210261	         -3.27907157	         -5.73172949	         -6.54267963	         -9.31130267	         -3.81590702	          1.07753148	          2.15298702	         -0.31422370	         -0.13125471	
          1.45000000	         -0.00000001	         -0.00000001	          0.00000000	         -0.00000001	          0.00000000	          0.00000001	        -43.74066832	         32.19419448	          7.87372831	         64.00449760	         -3.40106893	          7.92810796	         40.64794180	        -19.19757143	        -27.23569904	        -16.66867257	          5.48721720	         14.49585608	          8.54731883	          2.30533250	        -34.19269978	        -20.39183281	        -28.02113408	        -10.65102312	          1.52754455	          2.43658511	        -11.32247368	          2.33719176	         -0.74231844	          1.09345329	         -1.38472263	          0.09011315	          0.01967856	
          1.50000000	         -0.00000000	         -0.00000000	         -0.00000000	         -0.00000000	          0.00000000	          0.00000000	         16.32074896	         18.82866065	          6.55036264	        -71.74469941	         13.24437958	         -0.38057827	          6.09139701	         45.70802548	         -8.51511360	        -37.24517339	          5.90256048	          7.57007732	          3.37591774	          4.33830789	         35.96186018	        -51.86625262	         20.19319309	        -38.47298917	         21.28619389	          6.56803097	         12.75578452	         14.93496925	         10.49937620	          4.54765890	          1.93069912	          0.30314196	          0.32843566	
          1.55000000	         -0.00000000	         -0.00000001	         -0.00000000	         -0.00000000	         -0.00000000	          0.00000001	         28.12953599	         -0.76356123	         -1.08906978	        -41.55965071	        -31.65780851	          2.60890751	        -10.70870836	         17.80951072	          0.77605345	        -34.55687354	         -0.04650298	          5.98239066	         -0.02490017	          5.38306182	          6.94977168	         -6.85224848	          9.74672414	        -25.14220839	        -17.71657261	         -0.92131283	         10.94687639	         -5.87961886	         -1.90437995	         -7.95906951	          2.96897827	          0.07682467	         -0.05879913	
          1.60000000	          0.00000000	          0.00000000	          0.00000000	          0.00000000	          0.00000000	         -0.00000000	         -4.50971944	        -10.66428143	         -0.62683393	         26.96010750	        -10.81483280	          3.77942874	         -4.13763846	         -3.46523190	          0.43727392	        -29.37601600	         -0.22334878	          8.28990886	         -0.01597906	          5.57550424	        -15.10291207	        -32.30144767	        -11.51442651	         59.17987048	        -27.67475926	         -2.41705798	        -22.49597534	        -42.63363507	         -8.44617463	         21.93421631	         -9.90921605	         -0.38807768	         -0.39290186	
          1.65000000	          0.00000000	          0.00000000	          0.00000000	          0.00000000	         -0.00000000	         -0.00000000	         -5.00192684	         -4.98040849	          0.99043796	         48.05835738	        -28.87430179	         -1.36045636	         -1.25137232	        -15.91413210	          0.71338801	        -32.04011931	         -0.06358217	          4.50791581	         -0.05002807	          5.90051869	        -38.55467216	          3.98482289	        -10.17750175	         -4.02470216	        -10.16742965	         -1.89143045	         16.00864733	          4.00049480	         -3.00530153	          2.21391815	          3.49409540	         -0.07520083	         -0.27499110	
          1.70000000	          0.00000000	          0.00000000	         -0.00000000	          0.00000000	          0.00000000	         -0.00000000	        -16.16964523	          1.48798046	          0.91547440	         36.92093740	         -4.71697195	         -0.62308657	          4.99202128	          0.18698032	          0.65878200	        -39.09336489	         -0.00980979	          5.58010993	         -0.04789163	          6.19050661	        -19.39641188	        -20.31961750	         -9.05002253	          0.17177329	         -3.78027062	         -0.49296439	          5.03339882	         -5.60640620	         -1.16846446	          2.55081284	         -1.00358630	         -0.06335269	         -0.03203959	
          1.75000000	          0.00000000	          0.00000000	          0.00000000	          0.00000000	          0.00000000	         -0.00000000	         -8.39593490	         -6.78890556	         -0.27900592	         11.97974416	        -22.52596163	          0.56524440	          3.41144063	          9.51814259	          0.49981456	        -48.04750957	         -0.21691816	          4.96784121	         -0.00856844	          6.63478117	         -5.21302045	        -20.24879224	         -5.46164952	        -16.23369510	          0.40495654	         -1.72698117	         -3.31746541	         -0.77582685	          0.78587216	         -2.84129077	          0.03924110	          0.01574891	          0.05112099	
          1.80000000	          0.00000000	          0.00000000	          0.00000000	          0.00000000	          0.00000000	         -0.00000000	        -10.51624227	         -3.52299032	         -0.24869078	          6.79971076	        -26.00762368	          2.56047774	          4.71114422	         11.25197393	          0.45096291	        -50.28272941	         -0.19452654	          5.64465017	         -0.00459601	          6.86521857	          3.66979751	        -13.39467360	         -8.28490703	        -12.13106699	          0.67438309	         -0.97729873	         -7.87545556	         -0.89088173	          1.43387155	         -2.38862401	         -0.65965109	          0.01878072	          0.07610084	
          1.85000000	         -0.00000000	          0.00000000	         -0.00000000	         -0.00000000	          0.00000000	         -0.00000000	        -19.01991360	          8.04315088	          0.48896773	         25.32551613	         -4.30054430	         -1.17092312	          7.21600223	          9.09919514	          0.76379485	        -53.44606463	          0.01528347	          3.71035503	         -0.02147299	          8.14323762	         -0.53318475	        -13.21977443	         -8.43721450	          0.99887956	         -2.16640741	         -0.29862887	          6.03755383	         -1.37059818	         -1.33642789	          2.06107170	          1.34209896	         -0.06173665	         -0.08867287	
          1.90000000	         -0.00000000	         -0.00000000	          0.00000000	         -0.00000000	          0.00000000	          0.00000000	          1.30285845	          1.73264536	         -0.58724640	         24.54936671	         -6.33441852	         -2.27197711	         -4.60829974	         13.08339651	          3.18279300	        -66.61406274	         -0.32975415	          1.69323682	         -0.01136000	         11.89491354	        -19.85566331	        -15.58723295	         -2.99553073	          0.93008129	          1.60432610	          0.73268995	         -0.17526183	         -1.00303820	          0.33968807	          2.24572367	         -0.31636932	         -0.01790642	          0.03612364	
          1.95000000	         -0.00000000	         -0.00000000	         -0.00000000	         -0.00000000	         -0.00000000	          0.00000000	         -2.54537303	         24.20069143	         -1.96470174	         29.80236370	          1.59433589	          0.78618814	          6.93562864	         10.23944367	          1.49930425	        -71.85973438	          0.40706046	          3.06873627	         -0.07841450	         15.83265337	        -21.39806835	          1.78855707	         -2.30606946	         -7.22183113	          0.76577159	         -0.41684575	          9.32062259	         -3.85218689	         -1.89094929	          0.53819563	          1.87417905	         -0.02931059	         -0.10967996	
