Coordinates
version=1
nRows=21
nColumns=114
inDegrees=yes

Units are S.I. units (second, meters, Newtons, ...)
If the header above contains a line with 'inDegrees', this indicates whether rotational values are in degrees (yes) or radians (no).

endheader 
time	pelvis_tilt	pelvis_list	pelvis_rotation	pelvis_tx	pelvis_ty	pelvis_tz	hip_flexion_l	hip_adduction_l	hip_rotation_l	hip_flexion_r	hip_adduction_r	hip_rotation_r	knee_angle_l	knee_angle_r	ankle_angle_l	ankle_angle_r	subtalar_angle_l	subtalar_angle_r	mtp_angle_l	mtp_angle_r	lumbar_extension	lumbar_bending	lumbar_rotation	arm_flex_l	arm_add_l	arm_rot_l	arm_flex_r	arm_add_r	arm_rot_r	elbow_flex_l	elbow_flex_r	pro_sup_l	pro_sup_r	addbrev_l/activation	addlong_l/activation	addmagDist_l/activation	addmagIsch_l/activation	addmagMid_l/activation	addmagProx_l/activation	bflh_l/activation	bfsh_l/activation	edl_l/activation	ehl_l/activation	fdl_l/activation	fhl_l/activation	gaslat_l/activation	gasmed_l/activation	glmax1_l/activation	glmax2_l/activation	glmax3_l/activation	glmed1_l/activation	glmed2_l/activation	glmed3_l/activation	glmin1_l/activation	glmin2_l/activation	glmin3_l/activation	grac_l/activation	iliacus_l/activation	perbrev_l/activation	perlong_l/activation	piri_l/activation	psoas_l/activation	recfem_l/activation	sart_l/activation	semimem_l/activation	semiten_l/activation	soleus_l/activation	tfl_l/activation	tibant_l/activation	tibpost_l/activation	vasint_l/activation	vaslat_l/activation	vasmed_l/activation	addbrev_r/activation	addlong_r/activation	addmagDist_r/activation	addmagIsch_r/activation	addmagMid_r/activation	addmagProx_r/activation	bflh_r/activation	bfsh_r/activation	edl_r/activation	ehl_r/activation	fdl_r/activation	fhl_r/activation	gaslat_r/activation	gasmed_r/activation	glmax1_r/activation	glmax2_r/activation	glmax3_r/activation	glmed1_r/activation	glmed2_r/activation	glmed3_r/activation	glmin1_r/activation	glmin2_r/activation	glmin3_r/activation	grac_r/activation	iliacus_r/activation	perbrev_r/activation	perlong_r/activation	piri_r/activation	psoas_r/activation	recfem_r/activation	sart_r/activation	semimem_r/activation	semiten_r/activation	soleus_r/activation	tfl_r/activation	tibant_r/activation	tibpost_r/activation	vasint_r/activation	vaslat_r/activation	vasmed_r/activation	
          2.00000000	        -24.81494260	         21.75786271	        -14.54411956	          2.02787501	          0.78113979	         -0.07857741	         22.36185011	         13.64488073	        -29.82830736	         -0.32241515	        -12.41753123	        -25.21494420	          1.63760024	          5.26399008	         17.08739706	          9.64416418	         18.32493641	          4.35639690	          0.82832871	          4.99999225	         16.99469652	        -20.20579587	        -22.59839215	        -24.55919332	         -1.40911230	        -32.18103152	         23.07722413	         -4.87142339	         24.50310949	         41.13650726	         38.08960180	         95.55364640	         85.41069100	          0.01022385	          0.01013083	          0.01023345	          0.01018333	          0.01060321	          0.01086893	          0.01011303	          0.01663349	          0.01112408	          0.04623879	          0.11029996	          0.17690620	          0.01035307	          0.01013250	          0.01049300	          0.01022692	          0.01012222	          0.01597405	          0.05710381	          0.09591816	          0.01314942	          0.02759652	          0.03003047	          0.01047944	          0.05381531	          0.01039511	          0.01016121	          0.20905791	          0.07245902	          0.20465754	          0.07783023	          0.01007415	          0.01030577	          0.01003559	          0.20565326	          0.30780771	          0.34113130	          0.01756707	          0.01535083	          0.01623195	          0.01044982	          0.01019085	          0.01064976	          0.01074586	          0.01050102	          0.01093631	          0.03720604	          0.01688499	          0.17155736	          0.05716464	          0.01057469	          0.01025762	          0.01030602	          0.01020242	          0.07942455	          0.10710376	          0.03683256	          0.05050438	          0.10505683	          0.16586865	          0.02119572	          0.05030447	          0.04179309	          0.01101563	          0.01098535	          0.06536321	          0.17635700	          0.01890803	          0.01096283	          0.05598396	          0.04070493	          0.01150208	          0.01054517	          0.01005640	          0.05788318	          0.33245074	          0.01024156	          0.02101149	          0.01970305	          0.02024208	
          2.05000000	        -25.19850443	         18.16419138	        -14.15497986	          2.04831700	          0.78726723	         -0.08317851	         20.03491513	         11.35806606	        -24.96150931	         -0.61437871	        -13.74461432	        -22.18466970	          0.68118027	          7.44410608	         15.43843692	          1.82839076	         14.17749457	         -1.65593168	         -3.22695954	        -40.26996253	         18.77434548	        -19.64612347	        -13.53004362	        -29.65381660	         -0.41871536	        -26.50034375	          7.44166802	         -5.97416998	         19.38105621	         41.43312274	         33.31985358	         95.03216541	         85.44325377	          0.01008500	          0.01005574	          0.01006452	          0.01005542	          0.01019476	          0.01079013	          0.01003015	          0.01113287	          0.01062388	          0.01080830	          0.06992807	          0.12907574	          0.01038495	          0.01067375	          0.01022479	          0.01006520	          0.01003544	          0.03166392	          0.05285299	          0.11980922	          0.02019386	          0.04251016	          0.05972176	          0.01022526	          0.20241087	          0.01060753	          0.01030465	          0.28999000	          0.26058533	          0.33465572	          0.15528060	          0.01002273	          0.01007715	          0.01031210	          0.03553099	          0.09769711	          0.24835426	          0.01948277	          0.02266002	          0.02028112	          0.01048985	          0.01026500	          0.01068408	          0.01086600	          0.01050869	          0.01117967	          0.06055850	          0.01059553	          0.13714157	          0.05955193	          0.01093419	          0.01057091	          0.01033988	          0.01023127	          0.09534811	          0.13541061	          0.06291192	          0.03694594	          0.10327389	          0.14793969	          0.01386587	          0.04413481	          0.03279515	          0.01117528	          0.01097927	          0.06822799	          0.13929763	          0.01607173	          0.01091570	          0.02805449	          0.01479265	          0.03302977	          0.01156444	          0.01008255	          0.02982479	          0.15402648	          0.01020960	          0.01785337	          0.01816304	          0.01804697	
          2.10000000	        -26.32570252	         14.09572360	        -12.77236861	          2.07132989	          0.79118458	         -0.09175921	         18.60558458	          8.69353452	        -20.19187347	         -0.29412652	        -14.12576872	        -18.97164769	          0.36521083	          8.59582856	         14.22706190	         -5.98488446	          9.95915578	         -6.67724662	         -5.61155890	        -21.75590563	         20.63431311	        -17.45606741	         -2.48992814	        -28.81124455	         -1.19783890	        -16.07233580	        -15.87742448	         -4.30214572	          6.98946147	         38.20562491	         33.31431880	         97.62670043	         86.99432204	          0.01007905	          0.01004901	          0.01005561	          0.01004259	          0.01011285	          0.01051702	          0.01002873	          0.01121363	          0.01060324	          0.01156356	          0.06218195	          0.10072756	          0.03006382	          0.01104940	          0.01024618	          0.01005581	          0.01003412	          0.04368120	          0.12500738	          0.22342450	          0.02640918	          0.08670867	          0.11813737	          0.01021257	          0.24354305	          0.01046687	          0.01021931	          0.32247694	          0.24994629	          0.34034822	          0.20613089	          0.01001927	          0.01006447	          0.03321834	          0.37860407	          0.08223681	          0.27397697	          0.02312079	          0.02454642	          0.02336946	          0.01072430	          0.01041680	          0.01120911	          0.01120108	          0.01085258	          0.01111394	          0.06109856	          0.01324755	          0.15774478	          0.04789968	          0.01109063	          0.01053881	          0.01037491	          0.01025351	          0.08646022	          0.12300698	          0.06457102	          0.02781729	          0.08187978	          0.14037576	          0.01183566	          0.03716666	          0.03527267	          0.01174051	          0.01089164	          0.06879181	          0.09776167	          0.01903476	          0.01120452	          0.01786859	          0.02144714	          0.03084828	          0.01205278	          0.01012790	          0.02345078	          0.08032145	          0.01022723	          0.01878534	          0.02031574	          0.01810445	
          2.15000000	        -27.19490054	          9.53177933	        -12.02753352	          2.09314096	          0.79394124	         -0.10114211	         16.90747791	          5.17309323	        -16.40758980	         -0.19308962	        -12.71066392	        -16.50778405	          0.34933215	          8.39193815	         15.90071635	        -10.46800789	          8.27334164	         -9.15931252	         -6.66994217	        -11.69996987	         21.91145282	        -13.60946754	         13.90884938	        -10.47673536	         -7.54679130	          7.86749224	        -50.63566086	          8.46555603	        -26.18740609	         17.39644285	         45.33279299	        107.97721443	         93.79592751	          0.01013297	          0.01007069	          0.01023208	          0.01027333	          0.01022945	          0.01039419	          0.01017795	          0.01471518	          0.01056664	          0.01943460	          0.11247608	          0.19159427	          0.01076495	          0.01034564	          0.03209051	          0.01387624	          0.01017356	          0.19034151	          0.12284661	          0.11280509	          0.06966143	          0.07331333	          0.05279304	          0.01045834	          0.04096554	          0.01019361	          0.01007440	          0.07708922	          0.04178717	          0.11965604	          0.04360765	          0.01013441	          0.01044006	          0.01013166	          0.06329317	          0.24976670	          0.32105109	          0.01161773	          0.01205906	          0.01267362	          0.01066593	          0.01034610	          0.01047197	          0.01521902	          0.01073341	          0.01083750	          0.03969869	          0.01110616	          0.12191876	          0.03584283	          0.01142402	          0.01052084	          0.01020735	          0.01011389	          0.05675461	          0.07137189	          0.03904407	          0.04722812	          0.05727382	          0.06657533	          0.01992054	          0.03053842	          0.02834507	          0.01120553	          0.01221849	          0.04862929	          0.08900413	          0.01171025	          0.01127338	          0.01193661	          0.01020028	          0.04310044	          0.02692161	          0.01006760	          0.02061666	          0.10929189	          0.01026791	          0.02318592	          0.02428775	          0.02332466	
          2.20000000	        -27.08521142	          4.67466580	        -11.45477925	          2.11054682	          0.79759988	         -0.10782762	         14.32555163	          1.09135117	        -12.85140624	         -0.15610270	         -9.46991206	        -13.41009573	          0.03297612	          8.64140953	         18.28279466	        -11.18774633	          7.96608495	        -10.73931300	         -6.34486416	         -6.23904826	         22.42017445	         -9.53297414	         25.06618668	          8.62423054	        -11.61924180	         26.15806692	        -67.95649740	         20.25967055	        -49.73614112	          0.89672928	         53.99853669	        117.19748190	         99.50641785	          0.01020672	          0.01010809	          0.01031836	          0.01038112	          0.01027991	          0.01040824	          0.01024833	          0.01034907	          0.01140431	          0.05395985	          0.08979980	          0.15103262	          0.01023359	          0.01011128	          0.02931690	          0.01523693	          0.01025589	          0.13491728	          0.09184821	          0.09641167	          0.05630408	          0.06319556	          0.05709995	          0.01053943	          0.04511850	          0.01019461	          0.01007739	          0.09335547	          0.01026061	          0.16563875	          0.05397202	          0.01022244	          0.01051030	          0.01003676	          0.17074848	          0.32060996	          0.34579911	          0.01606196	          0.01458467	          0.01541119	          0.03381874	          0.05235115	          0.01198971	          0.01046608	          0.02997827	          0.05354286	          0.01166996	          0.01849614	          0.08596611	          0.04552898	          0.01090512	          0.01045120	          0.01030776	          0.01017463	          0.01067657	          0.01194873	          0.01433464	          0.01007209	          0.01063027	          0.02610283	          0.01035043	          0.01054949	          0.02738404	          0.02437898	          0.01500077	          0.05989363	          0.13069612	          0.03089321	          0.03804515	          0.06968043	          0.02922048	          0.01020443	          0.01137398	          0.01005753	          0.01083392	          0.17141430	          0.01024765	          0.01035889	          0.01011822	          0.01025694	
          2.25000000	        -25.93867055	         -0.82886981	         -9.08430385	          2.12376432	          0.80371894	         -0.11437162	         11.67645117	         -3.65902545	         -9.31748862	          1.39638840	         -4.45578716	         -9.51364947	          0.09877182	         12.44161285	         19.10157684	         -9.53775929	          8.82342573	        -16.07642016	         -6.12457920	         -3.29647006	         21.01342137	         -5.88608968	         23.77142624	         12.00263422	        -11.84965491	         29.73607000	        -59.76291795	         18.83394367	        -48.31040778	         12.91673558	         52.86633433	        114.06289107	         99.42060628	          0.01013569	          0.01005606	          0.01016850	          0.01016794	          0.01016225	          0.01037767	          0.01015659	          0.03008613	          0.01035182	          0.01087071	          0.11109067	          0.20203090	          0.03944490	          0.01126183	          0.02799960	          0.01137159	          0.01015900	          0.08001094	          0.12572155	          0.14505497	          0.04808381	          0.07581536	          0.06735125	          0.01048085	          0.04924402	          0.01016444	          0.01007014	          0.11946084	          0.01640615	          0.17065586	          0.08325704	          0.01010633	          0.01032446	          0.01035960	          0.11258191	          0.17787623	          0.35718252	          0.01051469	          0.01015536	          0.01038365	          0.03116122	          0.06164472	          0.01041465	          0.01030407	          0.01034752	          0.03097868	          0.01025623	          0.03301103	          0.32599955	          0.05662825	          0.01044260	          0.01017019	          0.01011550	          0.01006635	          0.01027526	          0.01013353	          0.01015441	          0.01040924	          0.01052966	          0.01052247	          0.01091195	          0.02103595	          0.03136955	          0.02189782	          0.06021209	          0.13417836	          0.14956890	          0.05172585	          0.07280070	          0.06875827	          0.05422850	          0.01028127	          0.01047879	          0.01002284	          0.05588724	          0.11584343	          0.01006769	          0.01015848	          0.01005970	          0.01011469	
          2.30000000	        -24.17038924	         -7.10113412	         -5.09603821	          2.13959698	          0.81145599	         -0.12386846	          9.19905456	         -9.23680188	         -6.80020321	          5.10612358	          1.72622254	         -8.51516479	          0.36009608	         17.89964690	         18.82493892	         -6.21127133	         11.45662925	        -24.26699260	         -6.83622800	         -1.73161719	         18.10891701	         -1.01526358	         16.22809301	          3.43728698	        -16.64948200	         34.12006563	        -52.14533533	         12.41456793	        -43.44621624	         40.25054200	         52.19504972	        100.98210060	         98.49572447	          0.01015165	          0.01009449	          0.01004192	          0.01003223	          0.01006242	          0.01053451	          0.01002206	          0.01077194	          0.01034314	          0.01070827	          0.08448218	          0.16613168	          0.01899359	          0.01103373	          0.01051909	          0.01009238	          0.01003319	          0.01339959	          0.02686335	          0.16815337	          0.01101800	          0.05674487	          0.07876120	          0.01031120	          0.17837728	          0.01020687	          0.01008667	          0.33359481	          0.28938675	          0.52364816	          0.21930096	          0.01001368	          0.01004518	          0.01625811	          0.09089226	          0.10576956	          0.37623351	          0.01607841	          0.01451665	          0.01397605	          0.01121810	          0.01129159	          0.02885556	          0.04816067	          0.01451688	          0.01075901	          0.06680317	          0.01061999	          0.05435412	          0.08086687	          0.01030018	          0.01009165	          0.01004451	          0.01002637	          0.03406793	          0.06053274	          0.04170975	          0.08576873	          0.03681981	          0.01936709	          0.03288210	          0.01851806	          0.01259202	          0.01082919	          0.01176466	          0.10776191	          0.54377427	          0.01084746	          0.01249407	          0.01166893	          0.01147489	          0.13624164	          0.04768206	          0.01001159	          0.01096256	          0.29078095	          0.01004013	          0.02350016	          0.02526381	          0.02311263	
          2.35000000	        -23.06571776	        -12.44455900	         -1.52741337	          2.16310029	          0.81632679	         -0.13308034	          7.25696013	        -14.33206403	         -6.26374470	          9.13983421	          6.95691203	        -11.15530113	          0.24564295	         18.36269019	         18.49727937	         -0.71531777	         15.44949670	        -28.31534616	         -7.76706081	         -0.94369512	         17.70273320	          4.76183566	          8.41706211	         -8.95314983	        -21.06894665	         38.23419859	        -50.69633903	          9.01421537	        -41.84236951	         56.39784403	         53.26512251	         91.24684758	         98.41091804	          0.01016339	          0.01015637	          0.01002384	          0.01001730	          0.01003841	          0.03944652	          0.01001270	          0.01186201	          0.01020793	          0.01167026	          0.13648966	          0.23274051	          0.01059535	          0.01032984	          0.01020935	          0.01004181	          0.01002131	          0.01004071	          0.01057752	          0.30022833	          0.01030697	          0.13053486	          0.20426535	          0.01024625	          0.55333294	          0.01011779	          0.01005401	          0.28900571	          0.85113540	          0.63889627	          0.53947199	          0.01000720	          0.01002441	          0.01016758	          0.55365460	          0.26602838	          0.47204576	          0.06521066	          0.15429103	          0.08836878	          0.01120598	          0.01091442	          0.02852640	          0.04846555	          0.01169994	          0.01064292	          0.06571648	          0.01152853	          0.64900403	          0.11973793	          0.01028024	          0.01005571	          0.01001364	          0.01000766	          0.04684383	          0.08251709	          0.05535521	          0.07557452	          0.04413328	          0.02698838	          0.03319562	          0.02421064	          0.01981791	          0.01059484	          0.01200367	          0.35319288	          0.35085081	          0.01047941	          0.01058574	          0.01044665	          0.01143933	          0.08425197	          0.04966003	          0.01000389	          0.01218073	          0.30993434	          0.01003499	          0.02697451	          0.03634479	          0.02889256	
          2.40000000	        -23.19641618	        -15.99511557	          0.30615527	          2.18782771	          0.81483675	         -0.13856173	          6.18476261	        -18.12442739	         -6.94424189	         12.01696745	         10.28142657	        -15.99039462	          0.01227883	         11.73013541	         18.64353996	          7.26782706	         19.49666821	        -22.59737477	         -9.20299797	         -0.56611090	         19.82228441	          9.52382815	          5.89453588	        -14.70698095	        -21.41176879	         37.16259407	        -52.62629083	          8.29540912	        -42.81052051	         58.99977152	         56.37683527	         89.20771027	         98.64914429	          0.01006192	          0.01004027	          0.01002012	          0.01001565	          0.01002780	          0.01032814	          0.01001272	          0.01077509	          0.01009124	          0.01087979	          0.17967094	          0.38658137	          0.02025266	          0.01071499	          0.01033119	          0.01006042	          0.01001982	          0.01006659	          0.16481875	          0.40800059	          0.01050876	          0.22745710	          0.11727949	          0.01014608	          0.32672337	          0.01009052	          0.01004051	          0.11833007	          0.35623629	          0.57218777	          0.47252401	          0.01000736	          0.01002448	          0.03717101	          0.33579243	          0.10392158	          0.54148348	          0.02611151	          0.03523080	          0.02863273	          0.02632277	          0.03223614	          0.01088195	          0.01066836	          0.01816693	          0.02562723	          0.01110227	          0.01075434	          0.27681970	          0.27102452	          0.01044677	          0.01004948	          0.01000860	          0.01000523	          0.01133872	          0.01383628	          0.01057392	          0.01265705	          0.01030218	          0.03143996	          0.01062227	          0.01047610	          0.01519894	          0.01453780	          0.01524493	          0.21932988	          0.27127253	          0.06569597	          0.03638703	          0.07579055	          0.02034985	          0.01407634	          0.01053303	          0.01000251	          0.01027301	          0.95685770	          0.01004988	          0.02688976	          0.03973131	          0.03007557	
          2.45000000	        -23.33181811	        -18.66981086	          1.51021944	          2.20787163	          0.80927614	         -0.14041914	          5.37432072	        -21.26632994	         -7.53077081	         14.94778641	         12.73505372	        -23.59206250	          0.10270111	          3.59293499	         19.28231119	         14.85691992	         22.18624598	        -10.00126468	        -11.47390735	         -0.39001441	         21.00418391	         13.12331848	          6.16605627	        -15.98232789	        -20.59571685	         32.89274420	        -52.24584223	          6.68387183	        -42.63516129	         61.17878540	         59.51266306	         88.99962890	         98.51908744	          0.01005694	          0.01003475	          0.01001946	          0.01001479	          0.01002669	          0.01098431	          0.01001616	          0.01323950	          0.01008099	          0.01079097	          0.20244083	          0.40413997	          0.06733091	          0.01077842	          0.01793774	          0.01042087	          0.01003106	          0.01002831	          0.02798148	          0.62156050	          0.01010965	          0.16785562	          0.03902633	          0.01018540	          0.13520562	          0.01009205	          0.01004053	          0.09103867	          0.52708531	          0.54741383	          0.62513512	          0.01000717	          0.01002650	          0.09865226	          0.29880517	          0.10776156	          0.59092560	          0.01661976	          0.01533768	          0.01537911	          0.04103832	          0.04381733	          0.01705652	          0.01048912	          0.02615857	          0.03774153	          0.01031050	          0.01105795	          0.78372435	          0.18434908	          0.01055708	          0.01007124	          0.01001190	          0.01000776	          0.01056489	          0.01017819	          0.01057701	          0.01016970	          0.01086294	          0.05852850	          0.01044883	          0.01091112	          0.01081708	          0.01991443	          0.02935529	          0.20843765	          0.05008221	          0.05489171	          0.06227881	          0.08064774	          0.03536448	          0.01012505	          0.01042649	          0.01000310	          0.01107979	          0.99951289	          0.01007460	          0.03654957	          0.07020095	          0.04485621	
          2.50000000	        -22.36901335	        -21.32434051	          3.43569808	          2.22705675	          0.80528273	         -0.13958348	          3.91441753	        -24.59174803	         -7.44873081	         19.21112471	         15.09183139	        -30.85409934	          0.41295933	          0.03588873	         20.12260958	         18.88581785	         23.32927399	         -1.49291973	        -12.95644875	         -0.31941316	         20.38718890	         16.57506907	          6.24348318	        -13.60802031	        -18.79706839	         30.27378952	        -49.33016588	          4.91212639	        -41.29724986	         60.37741207	         61.68849897	         90.04487512	         97.83791956	          0.01015783	          0.01008998	          0.01003395	          0.01002572	          0.01004683	          0.01039401	          0.01001997	          0.01142411	          0.01005102	          0.01055837	          0.20963169	          0.40341883	          0.01152402	          0.01036972	          0.01058765	          0.01033310	          0.01003890	          0.01018445	          0.05545402	          0.13433078	          0.01066242	          0.10442262	          0.04725544	          0.01034519	          0.12839504	          0.01006663	          0.01003175	          0.03588007	          0.09193684	          0.30445786	          0.25505804	          0.01002259	          0.01003761	          0.02080553	          0.16796821	          0.05625828	          0.56552382	          0.01487628	          0.01438285	          0.01452412	          0.26193374	          0.33976158	          0.01048790	          0.01009867	          0.06734372	          0.05655456	          0.01003874	          0.01205350	          0.75668705	          0.72502337	          0.01024971	          0.01003697	          0.01001171	          0.01000798	          0.01008018	          0.01002545	          0.01006917	          0.01006764	          0.01028772	          0.01294516	          0.01026040	          0.01042067	          0.01077960	          0.04135333	          0.01062486	          0.20271134	          0.01621118	          0.20362779	          0.27649582	          0.26277105	          0.03549260	          0.01002153	          0.01009793	          0.01000268	          0.01043344	          0.99996363	          0.01002889	          0.06361747	          0.14704694	          0.08483690	
          2.55000000	        -21.19887162	        -23.33738484	          5.73187549	          2.24978455	          0.80157907	         -0.13600719	          2.09749265	        -27.43084545	         -6.39217889	         23.10592536	         17.01316720	        -34.34383263	          0.71005471	          0.70817003	         19.97756140	         18.19952451	         22.64025129	         -1.63313906	        -13.94362836	         -0.29422887	         19.61418423	         19.48885217	          6.76362857	         -7.08565924	        -16.39593026	         34.93579190	        -46.60475198	          5.22365165	        -40.84880116	         54.15048967	         65.43768666	         91.69418032	         96.32905096	          0.01009519	          0.01004837	          0.01007891	          0.01014684	          0.01005259	          0.01007290	          0.01834389	          0.16517363	          0.01014499	          0.01079246	          0.16655094	          0.32321467	          0.37730406	          0.03732477	          0.28324293	          0.29417856	          0.01013271	          0.40735583	          0.36305564	          0.32771038	          0.16872817	          0.14012398	          0.02441373	          0.01049945	          0.02154589	          0.01012001	          0.01004531	          0.01913464	          0.01539460	          0.05076050	          0.11709737	          0.27442691	          0.02635922	          0.01003138	          0.06723322	          0.29329370	          0.48940862	          0.01003723	          0.01001356	          0.01002681	          0.24089300	          0.25443546	          0.01004393	          0.01002114	          0.01199392	          0.03730505	          0.01001217	          0.01164336	          0.58173412	          0.33492589	          0.01026284	          0.01004301	          0.01001712	          0.01001204	          0.01001916	          0.01000887	          0.01001452	          0.01003549	          0.01008341	          0.01043067	          0.01013795	          0.01026801	          0.01074325	          0.01025545	          0.87167135	          0.21466499	          0.11055547	          0.31258681	          0.99994496	          0.51023271	          0.46413076	          0.01000809	          0.01002699	          0.01000418	          0.03698825	          0.84858075	          0.01003191	          0.10616651	          0.27436510	          0.15154154	
          2.60000000	        -21.13318552	        -24.00362999	          7.60927248	          2.28013692	          0.79286963	         -0.12919236	          0.68722323	        -28.84847588	         -4.53270549	         25.04734417	         17.48864512	        -34.13993901	          0.94439408	          3.82966479	         18.03243132	         15.06001052	         19.76215953	         -5.71579361	        -16.34615026	         -0.26700450	         20.49726935	         20.91431142	          6.97019814	          1.00763329	        -13.92119077	         51.82783608	        -48.59241116	          9.41685888	        -43.35895446	         44.26130939	         70.23962525	         90.23752245	         94.26754749	          0.01326301	          0.03924842	          0.01038793	          0.01029184	          0.01062585	          0.01077387	          0.01009121	          0.02844345	          0.01011499	          0.01112553	          0.13149466	          0.25017000	          0.06315075	          0.06332080	          0.04726393	          0.04905694	          0.01008051	          0.08075551	          0.06065148	          0.05469432	          0.07734705	          0.02371930	          0.01313117	          0.01202925	          0.19776647	          0.01020507	          0.01006504	          0.01073721	          0.07264734	          0.06270407	          0.06101399	          0.04576132	          0.01030059	          0.16087374	          0.05349193	          0.07994616	          0.39200214	          0.01045362	          0.01015101	          0.01032538	          0.04068858	          0.04296307	          0.01014182	          0.01006902	          0.01118798	          0.02066832	          0.01004232	          0.01100078	          0.33025376	          0.17658633	          0.01040238	          0.01008877	          0.01003995	          0.01002970	          0.01006913	          0.01003188	          0.01004448	          0.01021773	          0.01047814	          0.01148886	          0.01057535	          0.01084517	          0.01117096	          0.01048527	          0.14538643	          0.07956538	          0.19669369	          0.13011289	          0.42314001	          0.29743979	          0.13384793	          0.01002952	          0.01010123	          0.01000970	          0.02226364	          0.60130163	          0.01004454	          0.05229555	          0.10879304	          0.06473896	
          2.65000000	        -21.98955595	        -23.43150584	          9.24463949	          2.31557777	          0.78455422	         -0.11967397	          0.01675947	        -28.82410453	         -3.15750956	         25.79385073	         16.55007424	        -32.20081895	          1.37988945	          7.81862008	         14.59647872	         13.82115029	         16.07305258	         -9.11540620	        -18.46084883	         -0.48698995	         22.22065196	         20.88456168	          4.55273973	          6.90192161	        -11.68998269	         70.87588328	        -49.49403463	         13.74644115	        -45.37217526	         37.94597569	         74.01107527	         82.25996287	         93.20517457	          0.01049666	          0.01033020	          0.01057958	          0.04914683	          0.01031960	          0.01021355	          0.01048204	          0.01225405	          0.01036658	          0.01082927	          0.07349078	          0.14763136	          0.07955180	          0.01156275	          0.06533970	          0.01102687	          0.01017221	          0.23754522	          0.15916176	          0.03704884	          0.11842053	          0.03363471	          0.01252711	          0.01075462	          0.03329167	          0.01048247	          0.01024163	          0.01089160	          0.01226223	          0.01051822	          0.01203141	          0.01032200	          0.02700572	          0.11818306	          0.01996730	          0.05919090	          0.29724043	          0.01448107	          0.01301515	          0.01363145	          0.01053906	          0.01058293	          0.01012994	          0.01007688	          0.01082692	          0.01265796	          0.01004068	          0.01122759	          0.05522483	          0.07480380	          0.05861886	          0.02279057	          0.01017764	          0.01006091	          0.01010063	          0.01004579	          0.01004517	          0.01052969	          0.01091989	          0.01127353	          0.01122148	          0.01100483	          0.01935617	          0.01044553	          0.22981972	          0.01332327	          0.03279704	          0.07085354	          0.27823093	          0.33833177	          0.12950533	          0.01002933	          0.01012034	          0.01002364	          0.21248057	          0.43550137	          0.02474869	          0.04547265	          0.10039059	          0.05766360	
          2.70000000	        -22.75476621	        -21.04574500	         10.58028763	          2.35259032	          0.78383558	         -0.10862399	         -0.45993106	        -26.76078461	         -2.56042630	         24.67742985	         14.70965196	        -29.99377918	          2.92856151	          9.97495607	          7.80717665	         15.49105857	         11.79083765	         -9.22745001	        -20.76401079	         -1.51953482	         22.33508236	         19.16312866	         -0.27444095	          6.10383332	         -9.99483779	         77.35387565	        -43.88670067	         13.80921973	        -43.32079403	         35.50198150	         75.73137995	         74.45188593	         93.35147114	          0.01026927	          0.01016529	          0.01028447	          0.08119946	          0.01011549	          0.01006297	          0.01020899	          0.02723834	          0.01032158	          0.01077073	          0.09847861	          0.16651080	          0.07618411	          0.20927083	          0.01130105	          0.01014424	          0.01004235	          0.77569996	          0.30402528	          0.01055255	          0.41076433	          0.04707061	          0.01087338	          0.01048743	          0.09712351	          0.01047527	          0.01020924	          0.01118816	          0.01021233	          0.01003808	          0.01175680	          0.49490876	          0.03904108	          0.20874906	          0.04496865	          0.14643599	          0.25919850	          0.01033294	          0.01013698	          0.01025200	          0.01578892	          0.06056484	          0.01013458	          0.01006927	          0.01066485	          0.01515045	          0.01003118	          0.01111766	          0.07405552	          0.06732980	          0.03910223	          0.05225150	          0.01019019	          0.01008102	          0.01007067	          0.01003460	          0.01003539	          0.01056213	          0.01051857	          0.01035535	          0.01134261	          0.01106552	          0.01088781	          0.01052338	          0.34415558	          0.01034651	          0.01011952	          0.01204546	          0.35700850	          0.33253576	          0.12464960	          0.01002569	          0.01008229	          0.01002837	          0.14469388	          0.33180079	          0.27578342	          0.04690816	          0.10218903	          0.05936335	
          2.75000000	        -22.46696183	        -15.48319673	         11.10960892	          2.39438241	          0.79129539	         -0.09593296	         -1.47403848	        -21.60943168	         -1.48661794	         19.93759113	         10.84658034	        -27.02592032	          6.94355027	          9.75414992	         -2.44636313	         18.00695073	          5.93933453	         -5.58083123	        -21.09002123	         -2.96550168	         19.65956299	         14.51212349	         -6.57006356	          0.49811118	         -9.62757368	         69.68005113	        -36.21865387	         10.34593514	        -37.77501825	         32.36890698	         74.71911474	         71.56286349	         95.32964590	          0.06525095	          0.12105411	          0.05789597	          0.08624399	          0.05269913	          0.01091679	          0.01039449	          0.03101444	          0.01032140	          0.01150905	          0.04525747	          0.06769996	          0.11953192	          0.09398723	          0.01005910	          0.01003465	          0.01008038	          0.22102479	          0.05071535	          0.01004451	          0.10029994	          0.01036221	          0.01085127	          0.01246879	          0.15815994	          0.01069976	          0.01048955	          0.01026989	          0.02636418	          0.01005605	          0.01128569	          0.08257784	          0.03252835	          0.12065237	          0.01043592	          0.02455680	          0.12258108	          0.01034949	          0.01013210	          0.01025829	          0.01043522	          0.01040671	          0.01092900	          0.05264056	          0.01143740	          0.01124779	          0.02172493	          0.01112053	          0.02126868	          0.04645221	          0.06658116	          0.09543737	          0.01036578	          0.01017088	          0.04398935	          0.16692926	          0.01573073	          0.16754592	          0.01454938	          0.01085859	          0.08380799	          0.03523164	          0.01275949	          0.01109400	          0.05745452	          0.01027782	          0.01010119	          0.01056957	          0.05953681	          0.05545391	          0.02102440	          0.09052834	          0.04441888	          0.01007714	          0.02440235	          0.24032298	          0.19299804	          0.02589918	          0.03909009	          0.02820548	
          2.80000000	        -21.68788358	         -5.98812427	          9.64740652	          2.44112732	          0.80436731	         -0.07979608	         -1.49116566	        -12.67233554	         -0.54937289	         12.72590216	          3.50701031	        -23.81194455	         13.92984814	          7.24915113	         -9.17961667	         19.38573836	         -0.51999079	          0.84116886	        -15.04306559	         -4.08473651	         15.23729285	          5.93017542	        -13.45369515	        -11.49011225	         -7.18462619	         39.26443289	        -19.72177003	          4.08078085	        -17.91086698	         33.26061331	         64.64071952	         75.54853417	        101.30474123	          0.01207898	          0.02046408	          0.01317530	          0.01465351	          0.01045673	          0.01110650	          0.03466460	          0.01171606	          0.14650467	          0.04669997	          0.01077441	          0.01144206	          0.01998789	          0.01571158	          0.02337099	          0.03115042	          0.02580337	          0.03749192	          0.01751144	          0.01439890	          0.01777408	          0.01513539	          0.01104314	          0.01147535	          0.02659605	          0.04081436	          0.11662264	          0.01094507	          0.01154810	          0.01041082	          0.01053909	          0.02135667	          0.02013960	          0.02012555	          0.01065793	          0.12828270	          0.02047133	          0.01844555	          0.01828477	          0.01819100	          0.01003139	          0.01001820	          0.01011003	          0.01018029	          0.01006339	          0.01005778	          0.01025101	          0.01027582	          0.01070115	          0.02709882	          0.05462885	          0.09000678	          0.01068462	          0.01029359	          0.12067056	          0.10434372	          0.01023113	          0.11904404	          0.21766236	          0.20029578	          0.05616063	          0.09608905	          0.06501590	          0.01015549	          0.01050352	          0.01023848	          0.01010377	          0.15015013	          0.01012867	          0.12020697	          0.03445374	          0.01512042	          0.01036664	          0.01015278	          0.24681437	          0.18697401	          0.19665863	          0.02239881	          0.02642499	          0.02293111	
          2.85000000	        -21.72181591	          4.27896764	          6.46086997	          2.49181051	          0.81175818	         -0.06163547	          1.13630478	         -2.83346207	         -2.16961418	          6.60076193	         -5.19547269	        -21.87425766	         21.32136904	          4.02863944	         -8.53044757	         19.16673657	         -5.31841983	          7.33089923	         -8.09516489	         -6.20224843	         12.77569549	         -4.06973712	        -22.22996649	        -34.84605820	          3.43242002	        -11.71005484	          8.17533393	         -2.22016031	         23.26904316	         43.83867302	         40.28038636	         90.02652846	        106.04327658	          0.01088909	          0.01235255	          0.03774726	          0.06672505	          0.01734736	          0.01080856	          0.07513102	          0.01214450	          0.14928725	          0.04850060	          0.01077740	          0.01032953	          0.01016560	          0.01008803	          0.01688729	          0.04092801	          0.04722789	          0.09530860	          0.01864524	          0.01060901	          0.03350809	          0.01054293	          0.01086883	          0.01104054	          0.01205839	          0.06490562	          0.08359053	          0.01035290	          0.01102753	          0.01026087	          0.01169886	          0.17701080	          0.06140999	          0.01003073	          0.01133856	          0.17561978	          0.01016116	          0.02217364	          0.03048564	          0.02417274	          0.01008598	          0.01003148	          0.01005988	          0.01003682	          0.01008748	          0.05519883	          0.01006503	          0.03671086	          0.01053029	          0.01070614	          0.07129822	          0.13982549	          0.19378140	          0.08970181	          0.02025660	          0.01741348	          0.01012297	          0.01985636	          0.05728244	          0.33302846	          0.01019391	          0.01638020	          0.06907844	          0.01031991	          0.01161749	          0.01033427	          0.01017493	          0.10200957	          0.15257029	          0.54852357	          0.23516387	          0.01001973	          0.01006429	          0.02740972	          0.04124519	          0.08043154	          0.21838060	          0.01038146	          0.01014500	          0.01027937	
          2.90000000	        -22.74516396	         10.99756234	          3.65701914	          2.54498368	          0.80841250	         -0.04739902	          5.06852890	          3.57598326	         -6.11199336	          3.15129024	        -11.12953988	        -21.63044394	         23.85371318	          2.24653786	         -3.50637796	         17.80955066	         -7.48548999	         10.72764166	         -4.34613897	         -9.52415451	         13.88782988	        -11.01695262	        -27.21983148	        -46.32199980	         12.71046451	        -41.27431686	         24.29948588	         -4.73628751	         51.54183837	         51.91739777	         26.72272926	        100.89912059	        102.81263606	          0.01080725	          0.01059790	          0.02673723	          0.05188755	          0.01193856	          0.01067360	          0.04477643	          0.01425442	          0.12903950	          0.06596925	          0.01100711	          0.01033532	          0.01006176	          0.01003003	          0.01489255	          0.04022098	          0.02707544	          0.07517237	          0.02359641	          0.01160890	          0.03913821	          0.01949824	          0.01078616	          0.01036039	          0.01093985	          0.05936975	          0.09100699	          0.01044816	          0.01115043	          0.01049019	          0.01071867	          0.08357493	          0.05376400	          0.01001737	          0.01250924	          0.23943188	          0.01018356	          0.02370512	          0.02645056	          0.02541340	          0.01010292	          0.01003102	          0.01002818	          0.01001705	          0.01004664	          0.24473316	          0.01002074	          0.05312783	          0.01055739	          0.01177561	          0.04487427	          0.07462400	          0.12433621	          0.19281483	          0.01011004	          0.01002595	          0.01003635	          0.01001691	          0.01161874	          0.51710355	          0.01006023	          0.01547939	          0.17235773	          0.01027434	          0.02766529	          0.01050655	          0.01024527	          0.04513801	          0.33116398	          0.47772717	          0.39760363	          0.01000821	          0.01002777	          0.06012816	          0.14893212	          0.07912488	          0.15346708	          0.01026433	          0.01008495	          0.01018478	
          2.95000000	        -24.09074144	         14.35661682	          1.56879793	          2.59449474	          0.79890355	         -0.03897749	          8.89887675	          6.84610354	         -9.83440564	          1.43518405	        -14.04471416	        -22.08627622	         20.65754446	          2.27840123	          3.15536266	         17.01463595	         -7.64463679	         10.95329442	         -2.14964693	        -12.39385040	         15.63504170	        -14.14275981	        -27.28455529	        -37.30929820	         13.72479982	        -41.28714603	         29.42517309	         -4.51591145	         51.93233364	         51.97704403	         33.78539730	        100.88681463	         96.75094285	          0.05463288	          0.08140546	          0.04908566	          0.01635524	          0.04748741	          0.04212087	          0.08487461	          0.01209192	          0.03145451	          0.01244644	          0.01090956	          0.01231617	          0.03083406	          0.05942044	          0.02907019	          0.02542039	          0.08680313	          0.01270732	          0.01115893	          0.01417377	          0.01052411	          0.01080323	          0.01193547	          0.02160824	          0.01139495	          0.01300269	          0.01555333	          0.03589291	          0.01492265	          0.02491819	          0.01198141	          0.02060316	          0.01086068	          0.03602002	          0.01109655	          0.04500215	          0.01291660	          0.02879451	          0.09361529	          0.03618611	          0.01130351	          0.01106347	          0.01053799	          0.01106655	          0.01081767	          0.20777826	          0.01433581	          0.01355507	          0.01225301	          0.01165786	          0.04576628	          0.08762049	          0.09497700	          0.10019023	          0.01093492	          0.01057069	          0.06998188	          0.01022378	          0.01083619	          0.11442017	          0.01014512	          0.01082066	          0.02930609	          0.01197858	          0.01072538	          0.01141840	          0.01405746	          0.03151257	          0.05568308	          0.11492097	          0.06765807	          0.03877704	          0.01092402	          0.04115758	          0.02511261	          0.01604482	          0.11952643	          0.02895578	          0.03504017	          0.03082150	
          3.00000000	        -24.82663865	         16.06647193	         -0.18020459	          2.63940851	          0.78297324	         -0.03383594	         11.66079990	          8.98504343	        -12.65432974	          0.53624636	        -15.59306884	        -22.75689108	         13.69957232	          3.54148551	         12.38340652	         17.86530309	         -2.93855755	          9.39364556	        -12.46989835	        -22.49405136	         15.55979172	        -15.48654487	        -28.05251519	        -21.73080431	         12.32517086	        -38.18890259	         38.78632303	         -3.95810195	         47.34932016	         51.69077523	         41.30310028	         99.31871939	         93.04842352	          0.02120792	          0.01364379	          0.02744339	          0.03467759	          0.02669283	          0.02801946	          0.01986470	          0.03715813	          0.02889834	          0.03487467	          0.03670087	          0.03828997	          0.03595366	          0.02615600	          0.03739213	          0.03856439	          0.02259028	          0.04300656	          0.04361918	          0.04288730	          0.04047883	          0.04101167	          0.03952839	          0.03230091	          0.03780216	          0.03324388	          0.03549807	          0.02864809	          0.03478811	          0.02505043	          0.03794082	          0.03235808	          0.03738279	          0.03248854	          0.03949934	          0.02222529	          0.03765205	          0.03071400	          0.01587333	          0.02897057	          0.04232601	          0.04710835	          0.05009329	          0.04425390	          0.04504873	          0.03495797	          0.03628731	          0.03622025	          0.03862821	          0.03629932	          0.02686201	          0.01547461	          0.01606677	          0.01711209	          0.04202881	          0.04718244	          0.02534318	          0.05099807	          0.03947961	          0.01967307	          0.05106466	          0.03877332	          0.03013142	          0.04056341	          0.04386982	          0.04199133	          0.03899869	          0.02938572	          0.02380574	          0.01971037	          0.01519402	          0.03334934	          0.04671286	          0.03251649	          0.03724179	          0.03405106	          0.02174118	          0.03378211	          0.03227670	          0.03366541	
