Joint Reaction Loads
version=1
nRows=25
nColumns=199
inDegrees=no

This file contains the reaction forces and moments
applied to the specified body of a joint pair and expressed  in the specified reference frame.

Units are S.I. units (seconds, meters, Newtons, ...)
endheader
time	ground_pelvis_on_pelvis_in_pelvis_fx	ground_pelvis_on_pelvis_in_pelvis_fy	ground_pelvis_on_pelvis_in_pelvis_fz	ground_pelvis_on_pelvis_in_pelvis_mx	ground_pelvis_on_pelvis_in_pelvis_my	ground_pelvis_on_pelvis_in_pelvis_mz	ground_pelvis_on_pelvis_in_pelvis_px	ground_pelvis_on_pelvis_in_pelvis_py	ground_pelvis_on_pelvis_in_pelvis_pz	hip_r_on_femur_r_in_femur_r_fx	hip_r_on_femur_r_in_femur_r_fy	hip_r_on_femur_r_in_femur_r_fz	hip_r_on_femur_r_in_femur_r_mx	hip_r_on_femur_r_in_femur_r_my	hip_r_on_femur_r_in_femur_r_mz	hip_r_on_femur_r_in_femur_r_px	hip_r_on_femur_r_in_femur_r_py	hip_r_on_femur_r_in_femur_r_pz	walker_knee_r_on_tibia_r_in_tibia_r_fx	walker_knee_r_on_tibia_r_in_tibia_r_fy	walker_knee_r_on_tibia_r_in_tibia_r_fz	walker_knee_r_on_tibia_r_in_tibia_r_mx	walker_knee_r_on_tibia_r_in_tibia_r_my	walker_knee_r_on_tibia_r_in_tibia_r_mz	walker_knee_r_on_tibia_r_in_tibia_r_px	walker_knee_r_on_tibia_r_in_tibia_r_py	walker_knee_r_on_tibia_r_in_tibia_r_pz	patellofemoral_r_on_patella_r_in_patella_r_fx	patellofemoral_r_on_patella_r_in_patella_r_fy	patellofemoral_r_on_patella_r_in_patella_r_fz	patellofemoral_r_on_patella_r_in_patella_r_mx	patellofemoral_r_on_patella_r_in_patella_r_my	patellofemoral_r_on_patella_r_in_patella_r_mz	patellofemoral_r_on_patella_r_in_patella_r_px	patellofemoral_r_on_patella_r_in_patella_r_py	patellofemoral_r_on_patella_r_in_patella_r_pz	ankle_r_on_talus_r_in_talus_r_fx	ankle_r_on_talus_r_in_talus_r_fy	ankle_r_on_talus_r_in_talus_r_fz	ankle_r_on_talus_r_in_talus_r_mx	ankle_r_on_talus_r_in_talus_r_my	ankle_r_on_talus_r_in_talus_r_mz	ankle_r_on_talus_r_in_talus_r_px	ankle_r_on_talus_r_in_talus_r_py	ankle_r_on_talus_r_in_talus_r_pz	subtalar_r_on_calcn_r_in_calcn_r_fx	subtalar_r_on_calcn_r_in_calcn_r_fy	subtalar_r_on_calcn_r_in_calcn_r_fz	subtalar_r_on_calcn_r_in_calcn_r_mx	subtalar_r_on_calcn_r_in_calcn_r_my	subtalar_r_on_calcn_r_in_calcn_r_mz	subtalar_r_on_calcn_r_in_calcn_r_px	subtalar_r_on_calcn_r_in_calcn_r_py	subtalar_r_on_calcn_r_in_calcn_r_pz	mtp_r_on_toes_r_in_toes_r_fx	mtp_r_on_toes_r_in_toes_r_fy	mtp_r_on_toes_r_in_toes_r_fz	mtp_r_on_toes_r_in_toes_r_mx	mtp_r_on_toes_r_in_toes_r_my	mtp_r_on_toes_r_in_toes_r_mz	mtp_r_on_toes_r_in_toes_r_px	mtp_r_on_toes_r_in_toes_r_py	mtp_r_on_toes_r_in_toes_r_pz	hip_l_on_femur_l_in_femur_l_fx	hip_l_on_femur_l_in_femur_l_fy	hip_l_on_femur_l_in_femur_l_fz	hip_l_on_femur_l_in_femur_l_mx	hip_l_on_femur_l_in_femur_l_my	hip_l_on_femur_l_in_femur_l_mz	hip_l_on_femur_l_in_femur_l_px	hip_l_on_femur_l_in_femur_l_py	hip_l_on_femur_l_in_femur_l_pz	walker_knee_l_on_tibia_l_in_tibia_l_fx	walker_knee_l_on_tibia_l_in_tibia_l_fy	walker_knee_l_on_tibia_l_in_tibia_l_fz	walker_knee_l_on_tibia_l_in_tibia_l_mx	walker_knee_l_on_tibia_l_in_tibia_l_my	walker_knee_l_on_tibia_l_in_tibia_l_mz	walker_knee_l_on_tibia_l_in_tibia_l_px	walker_knee_l_on_tibia_l_in_tibia_l_py	walker_knee_l_on_tibia_l_in_tibia_l_pz	patellofemoral_l_on_patella_l_in_patella_l_fx	patellofemoral_l_on_patella_l_in_patella_l_fy	patellofemoral_l_on_patella_l_in_patella_l_fz	patellofemoral_l_on_patella_l_in_patella_l_mx	patellofemoral_l_on_patella_l_in_patella_l_my	patellofemoral_l_on_patella_l_in_patella_l_mz	patellofemoral_l_on_patella_l_in_patella_l_px	patellofemoral_l_on_patella_l_in_patella_l_py	patellofemoral_l_on_patella_l_in_patella_l_pz	ankle_l_on_talus_l_in_talus_l_fx	ankle_l_on_talus_l_in_talus_l_fy	ankle_l_on_talus_l_in_talus_l_fz	ankle_l_on_talus_l_in_talus_l_mx	ankle_l_on_talus_l_in_talus_l_my	ankle_l_on_talus_l_in_talus_l_mz	ankle_l_on_talus_l_in_talus_l_px	ankle_l_on_talus_l_in_talus_l_py	ankle_l_on_talus_l_in_talus_l_pz	subtalar_l_on_calcn_l_in_calcn_l_fx	subtalar_l_on_calcn_l_in_calcn_l_fy	subtalar_l_on_calcn_l_in_calcn_l_fz	subtalar_l_on_calcn_l_in_calcn_l_mx	subtalar_l_on_calcn_l_in_calcn_l_my	subtalar_l_on_calcn_l_in_calcn_l_mz	subtalar_l_on_calcn_l_in_calcn_l_px	subtalar_l_on_calcn_l_in_calcn_l_py	subtalar_l_on_calcn_l_in_calcn_l_pz	mtp_l_on_toes_l_in_toes_l_fx	mtp_l_on_toes_l_in_toes_l_fy	mtp_l_on_toes_l_in_toes_l_fz	mtp_l_on_toes_l_in_toes_l_mx	mtp_l_on_toes_l_in_toes_l_my	mtp_l_on_toes_l_in_toes_l_mz	mtp_l_on_toes_l_in_toes_l_px	mtp_l_on_toes_l_in_toes_l_py	mtp_l_on_toes_l_in_toes_l_pz	back_on_torso_in_torso_fx	back_on_torso_in_torso_fy	back_on_torso_in_torso_fz	back_on_torso_in_torso_mx	back_on_torso_in_torso_my	back_on_torso_in_torso_mz	back_on_torso_in_torso_px	back_on_torso_in_torso_py	back_on_torso_in_torso_pz	acromial_r_on_humerus_r_in_humerus_r_fx	acromial_r_on_humerus_r_in_humerus_r_fy	acromial_r_on_humerus_r_in_humerus_r_fz	acromial_r_on_humerus_r_in_humerus_r_mx	acromial_r_on_humerus_r_in_humerus_r_my	acromial_r_on_humerus_r_in_humerus_r_mz	acromial_r_on_humerus_r_in_humerus_r_px	acromial_r_on_humerus_r_in_humerus_r_py	acromial_r_on_humerus_r_in_humerus_r_pz	elbow_r_on_ulna_r_in_ulna_r_fx	elbow_r_on_ulna_r_in_ulna_r_fy	elbow_r_on_ulna_r_in_ulna_r_fz	elbow_r_on_ulna_r_in_ulna_r_mx	elbow_r_on_ulna_r_in_ulna_r_my	elbow_r_on_ulna_r_in_ulna_r_mz	elbow_r_on_ulna_r_in_ulna_r_px	elbow_r_on_ulna_r_in_ulna_r_py	elbow_r_on_ulna_r_in_ulna_r_pz	radioulnar_r_on_radius_r_in_radius_r_fx	radioulnar_r_on_radius_r_in_radius_r_fy	radioulnar_r_on_radius_r_in_radius_r_fz	radioulnar_r_on_radius_r_in_radius_r_mx	radioulnar_r_on_radius_r_in_radius_r_my	radioulnar_r_on_radius_r_in_radius_r_mz	radioulnar_r_on_radius_r_in_radius_r_px	radioulnar_r_on_radius_r_in_radius_r_py	radioulnar_r_on_radius_r_in_radius_r_pz	radius_hand_r_on_hand_r_in_hand_r_fx	radius_hand_r_on_hand_r_in_hand_r_fy	radius_hand_r_on_hand_r_in_hand_r_fz	radius_hand_r_on_hand_r_in_hand_r_mx	radius_hand_r_on_hand_r_in_hand_r_my	radius_hand_r_on_hand_r_in_hand_r_mz	radius_hand_r_on_hand_r_in_hand_r_px	radius_hand_r_on_hand_r_in_hand_r_py	radius_hand_r_on_hand_r_in_hand_r_pz	acromial_l_on_humerus_l_in_humerus_l_fx	acromial_l_on_humerus_l_in_humerus_l_fy	acromial_l_on_humerus_l_in_humerus_l_fz	acromial_l_on_humerus_l_in_humerus_l_mx	acromial_l_on_humerus_l_in_humerus_l_my	acromial_l_on_humerus_l_in_humerus_l_mz	acromial_l_on_humerus_l_in_humerus_l_px	acromial_l_on_humerus_l_in_humerus_l_py	acromial_l_on_humerus_l_in_humerus_l_pz	elbow_l_on_ulna_l_in_ulna_l_fx	elbow_l_on_ulna_l_in_ulna_l_fy	elbow_l_on_ulna_l_in_ulna_l_fz	elbow_l_on_ulna_l_in_ulna_l_mx	elbow_l_on_ulna_l_in_ulna_l_my	elbow_l_on_ulna_l_in_ulna_l_mz	elbow_l_on_ulna_l_in_ulna_l_px	elbow_l_on_ulna_l_in_ulna_l_py	elbow_l_on_ulna_l_in_ulna_l_pz	radioulnar_l_on_radius_l_in_radius_l_fx	radioulnar_l_on_radius_l_in_radius_l_fy	radioulnar_l_on_radius_l_in_radius_l_fz	radioulnar_l_on_radius_l_in_radius_l_mx	radioulnar_l_on_radius_l_in_radius_l_my	radioulnar_l_on_radius_l_in_radius_l_mz	radioulnar_l_on_radius_l_in_radius_l_px	radioulnar_l_on_radius_l_in_radius_l_py	radioulnar_l_on_radius_l_in_radius_l_pz	radius_hand_l_on_hand_l_in_hand_l_fx	radius_hand_l_on_hand_l_in_hand_l_fy	radius_hand_l_on_hand_l_in_hand_l_fz	radius_hand_l_on_hand_l_in_hand_l_mx	radius_hand_l_on_hand_l_in_hand_l_my	radius_hand_l_on_hand_l_in_hand_l_mz	radius_hand_l_on_hand_l_in_hand_l_px	radius_hand_l_on_hand_l_in_hand_l_py	radius_hand_l_on_hand_l_in_hand_l_pz
      6.00000000	     -0.00000000	      0.00000000	      0.00000000	      0.00000000	     -0.00000000	     -0.00000000	      0.00000000	      0.00000000	      0.00000000	   -199.03345852	  -1437.03280672	    256.57603644	     -0.02130472	     -0.01829105	     -0.02058278	      0.00000000	      0.00000000	      0.00000000	   -370.62347663	  -1538.53176601	     19.56209803	     -3.69592980	      4.74713607	     -8.49304978	     -0.00722252	     -0.00315595	     -0.00132561	    218.46680732	    -10.63986643	    -58.00211676	     -2.40898938	      1.14586945	     -4.48718612	      0.00000000	      0.00000000	      0.00000000	   -472.41087664	  -2129.35552523	   -246.30413080	     -2.28770593	      5.41032497	      0.62441208	      0.00000000	      0.00000000	      0.00000000	   -449.13188961	  -2143.44122773	   -160.97418565	    -19.72824261	     13.62259051	    -60.74560513	      0.00000000	      0.00000000	      0.00000000	    453.19959845	    -95.23340946	     74.30726452	     -0.64519610	     -0.84942032	      0.78451263	      0.00000000	      0.00000000	      0.00000000	   -231.19926826	  -1986.06359791	   -283.61835528	     -0.00470131	      0.05173574	     -0.05070930	      0.00000000	      0.00000000	      0.00000000	   -402.64616400	  -2193.99012228	    -26.02858692	     -4.11061711	     -6.00709796	     -9.85625304	     -0.00712861	     -0.00311491	      0.00130837	    262.84390943	    -33.97068524	     13.17322298	      1.17274706	     -0.30059952	     -4.86327125	      0.00000000	      0.00000000	      0.00000000	   -430.73626183	  -2739.92654543	    102.76349362	      1.07502067	     -3.56540466	      0.51753977	      0.00000000	      0.00000000	      0.00000000	   -395.07385563	  -2746.05246826	   -107.13991655	     14.41044381	     -2.13773649	    -83.15829578	      0.00000000	      0.00000000	      0.00000000	    227.52250296	   -192.11676725	    -49.27968289	     -0.31211671	      1.64739633	      1.77484272	      0.00000000	      0.00000000	      0.00000000	     27.92851506	    284.52870832	     49.88472876	     19.76494689	      6.01170765	    -21.82024263	      0.00000000	      0.00000000	      0.00000000	     -2.59526958	     26.67592300	      5.70804165	     -1.00204680	      0.07796966	     -0.82584450	      0.00000000	      0.00000000	      0.00000000	      2.95975916	     11.09822697	     -0.50521518	      0.03471335	      0.02116873	      0.07109898	      0.00000000	      0.00000000	      0.00000000	      0.75861400	      7.19920878	      0.86458151	      0.02357571	      0.00179377	      0.21075618	      0.00000000	      0.00000000	      0.00000000	      0.60550158	      3.06301237	     -0.52750088	      0.05471944	     -0.00090521	      0.05106203	      0.00000000	      0.00000000	      0.00000000	    -14.29192891	     24.81559656	     -5.50366399	      1.31623132	      0.31639291	     -1.72967850	      0.00000000	      0.00000000	      0.00000000	      6.90391984	     11.30915555	     -0.09490140	      0.17495392	     -0.08448375	      1.30459885	      0.00000000	      0.00000000	      0.00000000	     -0.48851371	      7.47058430	     -4.10329608	      0.97041853	     -0.01710848	     -0.16547713	      0.00000000	      0.00000000	      0.00000000	     -0.32462787	      3.25165261	     -2.02763107	      0.14886708	     -0.00145112	     -0.02663211	      0.00000000	      0.00000000	      0.00000000
      6.05133333	      0.00000000	     -0.00000000	      0.00000000	      0.00000000	      0.00000000	      0.00000000	      0.00000000	      0.00000000	      0.00000000	   -197.65059314	  -1316.32873030	    250.77508831	     -0.00768944	     -0.01650918	     -0.02272894	      0.00000000	      0.00000000	      0.00000000	   -383.57977414	  -1421.60867001	     16.04555982	     -3.92224903	      4.78254870	     -8.31885543	     -0.00722252	     -0.00315595	     -0.00132561	    212.23461327	     -9.81256544	    -57.52108005	     -2.44275939	      1.05136219	     -4.36372327	      0.00000000	      0.00000000	      0.00000000	   -373.00298978	  -2125.19817448	   -211.88123243	     -2.12012021	      4.91145666	      0.62069687	      0.00000000	      0.00000000	      0.00000000	   -360.17939676	  -2132.81769415	   -162.51048621	    -19.35056971	     12.65307277	    -63.03738450	      0.00000000	      0.00000000	      0.00000000	    414.61344215	    -88.93566941	     65.86296404	     -0.37756485	     -0.10323393	     -0.09343515	      0.00000000	      0.00000000	      0.00000000	   -280.77867326	  -2175.76265653	   -345.01419440	      0.00499559	      0.05898786	     -0.04816686	      0.00000000	      0.00000000	      0.00000000	   -338.66909769	  -2035.71196673	    -48.60775077	      6.50307503	     -6.57452258	     -8.93006496	     -0.00712861	     -0.00311491	      0.00130837	    212.34768751	    -26.63679117	     13.74002769	      1.03347811	     -0.31652186	     -3.92712408	      0.00000000	      0.00000000	      0.00000000	   -512.08554635	  -2975.47554738	     90.16744773	      1.24443625	     -3.75516800	      0.52872772	      0.00000000	      0.00000000	      0.00000000	   -476.46251277	  -2981.29985075	   -121.69436223	     15.46176540	     -2.30887137	    -89.09833770	      0.00000000	      0.00000000	      0.00000000	    211.86226894	   -190.51621408	    -26.77911521	     -0.33005276	      2.09499245	      0.04961432	      0.00000000	      0.00000000	      0.00000000	     19.46084277	    320.98338708	     60.48267480	     23.59059211	      6.18323357	    -11.33039327	      0.00000000	      0.00000000	      0.00000000	     -3.71766549	     33.40579694	      7.02120253	     -1.58149828	     -0.24711730	      0.39059256	      0.00000000	      0.00000000	      0.00000000	      7.11420933	     14.24983446	      0.36455054	     -0.21328506	      0.07089110	      1.16161907	      0.00000000	      0.00000000	      0.00000000	     -0.09983719	      9.44130744	      3.87699129	     -0.83890566	      0.00567775	     -0.04082381	      0.00000000	      0.00000000	      0.00000000	      0.01567008	      4.20497004	      1.56360139	     -0.10948232	     -0.00421592	      0.00303484	      0.00000000	      0.00000000	      0.00000000	    -27.31767373	     27.00388404	     -5.91041093	      1.49445190	      0.22262434	     -6.09069616	      0.00000000	      0.00000000	      0.00000000	      3.27890074	     17.47202236	      0.34138893	      0.21814294	     -0.02852757	      0.58179316	      0.00000000	      0.00000000	      0.00000000	      0.44292354	     11.22817023	     -1.64360176	      0.48417308	     -0.00442111	     -0.02643744	      0.00000000	      0.00000000	      0.00000000	     -0.06718142	      4.86562170	     -0.97270458	      0.07432101	      0.00165219	     -0.01204303	      0.00000000	      0.00000000	      0.00000000
      6.10266666	     -0.00000000	     -0.00000000	     -0.00000000	     -0.00000000	     -0.00000000	      0.00000000	      0.00000000	      0.00000000	      0.00000000	   -191.85292411	  -1021.66196793	    227.37758822	      0.00855463	     -0.01392238	      0.00802383	      0.00000000	      0.00000000	      0.00000000	   -370.13468835	  -1228.84013426	      3.93013602	     -0.39508120	      4.63863279	     -7.53782680	     -0.00722252	     -0.00315595	     -0.00132561	    203.92760882	     -9.75322166	    -53.85467177	     -2.27600798	      0.98833797	     -4.22067272	      0.00000000	      0.00000000	      0.00000000	   -200.62974470	  -2037.63288509	   -166.03559119	     -1.86277555	      4.30489805	      0.67224890	      0.00000000	      0.00000000	      0.00000000	   -198.32381167	  -2039.47791686	   -155.40504618	    -18.17322685	     10.85240126	    -64.50541217	      0.00000000	      0.00000000	      0.00000000	    321.30210564	    -69.77139678	     51.34461778	     -0.31684585	      0.09301530	     -0.09947992	      0.00000000	      0.00000000	      0.00000000	   -271.93177231	  -1884.60971932	   -321.30174263	      0.00563759	      0.01500958	     -0.01195531	      0.00000000	      0.00000000	      0.00000000	   -281.46596424	  -1696.27360305	    -43.24289710	      7.22299363	     -5.25718000	     -8.06008871	     -0.00712861	     -0.00311491	      0.00130837	    190.19319246	    -21.10563168	     22.15591129	      1.37165699	     -0.29682616	     -3.54585884	      0.00000000	      0.00000000	      0.00000000	   -378.62940562	  -2384.60518739	     61.86926811	      1.45935312	     -3.49583745	      0.48741521	      0.00000000	      0.00000000	      0.00000000	   -349.24964216	  -2387.49927689	   -121.85943961	     12.17050385	     -1.29631600	    -72.34993697	      0.00000000	      0.00000000	      0.00000000	    127.86862491	   -134.33327662	    -11.73321549	     -0.44395282	      1.24247508	      0.27590106	      0.00000000	      0.00000000	      0.00000000	     22.29832249	    252.48389595	     42.59996916	     12.58206455	      2.90488775	    -17.55435384	      0.00000000	      0.00000000	      0.00000000	     -1.68342416	     28.30065595	      5.80146252	     -1.56497662	     -0.35328086	      1.01309415	      0.00000000	      0.00000000	      0.00000000	      6.82783681	     11.76860927	      0.99551673	     -0.36845691	      0.07348150	      1.14778363	      0.00000000	      0.00000000	      0.00000000	     -0.63607406	      7.89584717	      3.75017596	     -0.81106397	     -0.00057688	     -0.19287635	      0.00000000	      0.00000000	      0.00000000	     -0.37251539	      3.53567290	      1.53811798	     -0.10823966	     -0.00447041	     -0.02967598	      0.00000000	      0.00000000	      0.00000000	    -14.70908339	     19.52359611	     -2.06326831	      0.30361160	     -0.08413216	     -3.07617540	      0.00000000	      0.00000000	      0.00000000	      3.01199979	      9.98432869	      1.34584033	     -0.10376485	     -0.02539542	      0.36962144	      0.00000000	      0.00000000	      0.00000000	      0.89393379	      6.45321594	     -1.50333155	      0.28161004	     -0.01325870	      0.15175488	      0.00000000	      0.00000000	      0.00000000	      0.36024923	      2.77665811	     -0.39378776	      0.02290487	     -0.00213982	      0.02436980	      0.00000000	      0.00000000	      0.00000000
      6.15400000	     -0.00000000	     -0.00000000	     -0.00000000	     -0.00000000	      0.00000000	      0.00000000	      0.00000000	      0.00000000	      0.00000000	   -208.77072508	  -1036.01974939	    228.06138822	     -0.03767675	     -0.00844337	      0.01965610	      0.00000000	      0.00000000	      0.00000000	   -324.17710708	  -1146.25138729	      5.74968661	     -0.86438064	      4.05734775	     -7.01032715	     -0.00722252	     -0.00315595	     -0.00132561	    186.82363977	     -9.09901120	    -50.00946920	     -2.25020161	      0.76222576	     -3.81160811	      0.00000000	      0.00000000	      0.00000000	    -44.25932466	  -1855.77097217	   -101.32762627	     -1.23552158	      3.12089681	      0.56248488	      0.00000000	      0.00000000	      0.00000000	    -53.88852606	  -1853.36699376	   -146.47641283	    -16.00283622	      8.51195644	    -62.36045897	      0.00000000	      0.00000000	      0.00000000	    230.44916975	    -54.02813488	     37.64060516	     -0.20567715	      0.69139053	     -0.06550020	      0.00000000	      0.00000000	      0.00000000	   -347.71916062	  -2297.36113831	   -351.93439312	     -0.03686592	     -0.00487262	      0.03941937	      0.00000000	      0.00000000	      0.00000000	   -327.08691855	  -2112.36307122	    -44.33025581	      2.03629455	     -5.13811529	    -10.60133585	     -0.00712861	     -0.00311491	      0.00130837	    247.71868257	    -28.27396123	     24.20065623	      1.53975753	     -0.31361977	     -4.74904283	      0.00000000	      0.00000000	      0.00000000	   -428.77222223	  -2971.37370508	    111.26128160	      0.84631019	     -3.11705307	      0.49191756	      0.00000000	      0.00000000	      0.00000000	   -383.33956200	  -2975.65750385	   -170.79899416	     13.78699717	      0.54034728	    -91.86496207	      0.00000000	      0.00000000	      0.00000000	    213.29736928	   -174.20077676	    -27.48505892	     -0.38130637	      2.65028325	      0.22515556	      0.00000000	      0.00000000	      0.00000000	     48.44681483	    319.19156755	     48.48774118	     14.55099078	      3.32816652	    -36.45902274	      0.00000000	      0.00000000	      0.00000000	      2.55575249	     35.27315768	      8.88798576	     -2.47999569	     -0.46243865	      3.25059827	      0.00000000	      0.00000000	      0.00000000	     11.01930559	     13.31134128	      2.04771902	     -0.53785070	      0.15576255	      1.96328710	      0.00000000	      0.00000000	      0.00000000	     -1.38334297	      9.04478550	      6.44357217	     -1.40497137	      0.02520062	     -0.32281477	      0.00000000	      0.00000000	      0.00000000	     -0.57072518	      4.01457717	      2.80627372	     -0.19974172	      0.00352652	     -0.04219838	      0.00000000	      0.00000000	      0.00000000	    -21.25420927	     24.43190406	     -7.20996334	      2.19293098	      0.24856440	     -5.40174402	      0.00000000	      0.00000000	      0.00000000	      1.97947101	     14.41939832	     -1.09107721	      0.43123444	     -0.04310018	     -0.05730913	      0.00000000	      0.00000000	      0.00000000	     -0.32638414	      9.34915496	     -0.07823694	     -0.13010202	      0.00235793	     -0.09963609	      0.00000000	      0.00000000	      0.00000000	     -0.11764133	      3.97210059	      0.70063541	     -0.06413389	     -0.00269167	     -0.00836306	      0.00000000	      0.00000000	      0.00000000
      6.20533333	     -0.00000000	     -0.00000000	      0.00000000	      0.00000000	      0.00000000	     -0.00000000	      0.00000000	      0.00000000	      0.00000000	   -223.41356203	   -966.20345902	    229.49842829	     -0.06943226	      0.00069676	     -0.00618857	      0.00000000	      0.00000000	      0.00000000	   -308.52163000	  -1111.49030548	     -3.97681289	      1.17190481	      4.33473446	     -7.11053233	     -0.00722252	     -0.00315595	     -0.00132561	    219.34504069	    -10.82933500	    -57.15230106	     -2.43509588	      1.03949011	     -4.53137203	      0.00000000	      0.00000000	      0.00000000	     65.51595927	  -1757.46863804	    -71.61883553	     -1.40545791	      3.06327492	      0.42403485	      0.00000000	      0.00000000	      0.00000000	     44.60897050	  -1751.63144347	   -175.07475289	    -16.24678294	      8.90462881	    -61.83669329	      0.00000000	      0.00000000	      0.00000000	    231.83458898	    -49.99773260	     32.35789225	      0.00835406	      0.51933122	      0.10518852	      0.00000000	      0.00000000	      0.00000000	   -237.62389085	  -1980.62634458	   -339.61064087	     -0.06602403	     -0.01123078	      0.05172117	      0.00000000	      0.00000000	      0.00000000	   -339.30993973	  -1765.27270539	    -57.75556470	      6.26972386	     -3.69557294	     -9.46201745	     -0.00712861	     -0.00311491	      0.00130837	    138.84994320	    -12.65093419	     18.64493899	      0.87017897	     -0.31005017	     -2.90330202	      0.00000000	      0.00000000	      0.00000000	   -361.29666644	  -2539.18819625	     75.30067352	      1.05422685	     -2.91395841	      0.39421590	      0.00000000	      0.00000000	      0.00000000	   -317.07096990	  -2536.19204509	   -235.17882274	      9.66399044	      3.37561434	    -78.79342708	      0.00000000	      0.00000000	      0.00000000	    155.21788653	   -125.37775324	    -22.21306509	     -0.75668036	      2.35149727	      0.55895686	      0.00000000	      0.00000000	      0.00000000	     31.96513848	    273.00776744	     42.97115552	     11.28976767	      1.15854247	    -18.23708056	      0.00000000	      0.00000000	      0.00000000	     -5.37303494	     28.79100625	      6.99932267	     -2.04678638	     -0.24816751	     -0.22058596	      0.00000000	      0.00000000	      0.00000000	      4.85110095	     12.87571693	      1.65327105	     -0.45818111	      0.08118934	      0.76303317	      0.00000000	      0.00000000	      0.00000000	     -0.77521953	      8.49880995	      2.50787758	     -0.54696355	      0.01217979	     -0.18952169	      0.00000000	      0.00000000	      0.00000000	     -0.29926694	      3.73507828	      0.98230045	     -0.06770869	      0.00346143	     -0.02188836	      0.00000000	      0.00000000	      0.00000000	    -20.01938653	     22.69261151	     -5.86908123	      1.55669017	      0.16466347	     -4.47311738	      0.00000000	      0.00000000	      0.00000000	      3.46668177	     13.55213492	     -0.09066597	      0.19062874	     -0.04120132	      0.48658665	      0.00000000	      0.00000000	      0.00000000	     -0.03464615	      8.76983605	     -1.61525594	      0.36158885	     -0.00348507	     -0.04903328	      0.00000000	      0.00000000	      0.00000000	     -0.04255537	      3.76563587	     -0.59372202	      0.04025925	      0.00063677	     -0.00352268	      0.00000000	      0.00000000	      0.00000000
      6.25666666	     -0.00000000	     -0.00000000	     -0.00000000	      0.00000000	      0.00000000	      0.00000000	      0.00000000	      0.00000000	      0.00000000	   -205.04888078	   -916.21504127	    233.19048387	     -0.05698554	     -0.02622498	     -0.03117158	      0.00000000	      0.00000000	      0.00000000	   -300.59718502	  -1068.00996192	     -8.06922305	      1.66078744	      4.00938670	     -6.63557421	     -0.00722252	     -0.00315595	     -0.00132561	    208.48022394	    -11.58756518	    -51.68737071	     -2.22234243	      0.97895300	     -4.25152462	      0.00000000	      0.00000000	      0.00000000	     77.54222333	  -1837.04633725	    -57.50342691	     -1.07410210	      2.45894117	      0.27792224	      0.00000000	      0.00000000	      0.00000000	     50.12066683	  -1829.32007777	   -193.45204439	    -16.80958663	      8.91907150	    -64.87985669	      0.00000000	      0.00000000	      0.00000000	    232.62491760	    -44.96966576	     36.67359789	     -0.02627341	      0.44957743	      0.10461772	      0.00000000	      0.00000000	      0.00000000	   -224.64974173	  -1419.62350451	   -229.90662109	     -0.04790652	     -0.02470913	      0.01655273	      0.00000000	      0.00000000	      0.00000000	   -285.17893986	  -1320.87933344	    -41.66608890	      2.17256410	     -4.97864816	     -6.39545612	     -0.00712861	     -0.00311491	      0.00130837	     60.45161577	     -0.89569347	     20.52864448	      0.82424592	     -0.25602815	     -1.34452606	      0.00000000	      0.00000000	      0.00000000	   -376.07759291	  -2570.43672600	    120.34266448	      3.25047966	     -5.91413863	      0.71087251	      0.00000000	      0.00000000	      0.00000000	   -317.76236004	  -2565.35329420	   -291.27227099	     10.77730386	      2.37786258	    -80.59287825	      0.00000000	      0.00000000	      0.00000000	    229.95537103	   -126.71979021	    -26.80599574	     -1.01727487	      3.37937846	      0.75502289	      0.00000000	      0.00000000	      0.00000000	     22.22703869	    225.53876776	     42.68037274	     19.20987326	     -0.72895516	     -8.42632722	      0.00000000	      0.00000000	      0.00000000	     -0.71241009	     22.51854126	      4.55408219	     -1.08241393	     -0.18624355	      2.17532691	      0.00000000	      0.00000000	      0.00000000	      7.57384129	      9.21539949	      0.53737303	     -0.15498475	      0.10263949	      1.60429961	      0.00000000	      0.00000000	      0.00000000	     -0.30517520	      6.16361587	      4.95850386	     -1.24497483	      0.02947293	     -0.06517012	      0.00000000	      0.00000000	      0.00000000	     -0.04187342	      2.77771334	      2.77154472	     -0.20899123	      0.00217082	     -0.00121296	      0.00000000	      0.00000000	      0.00000000	    -15.92820209	     22.32112890	     -3.99937427	      1.00095268	      0.28726799	     -2.51820165	      0.00000000	      0.00000000	      0.00000000	      6.00106352	     11.53721129	      0.24570535	      0.13799846	     -0.06351792	      1.18669618	      0.00000000	      0.00000000	      0.00000000	     -0.56998035	      7.57720132	     -3.59567452	      0.89436951	     -0.00729828	     -0.21917822	      0.00000000	      0.00000000	      0.00000000	     -0.49252784	      3.29902776	     -1.90998189	      0.14271795	      0.00151317	     -0.04169753	      0.00000000	      0.00000000	      0.00000000
      6.30799999	      0.00000000	     -0.00000000	      0.00000000	     -0.00000000	     -0.00000000	      0.00000000	      0.00000000	      0.00000000	      0.00000000	   -209.80472496	   -891.27062830	    244.32230162	     -0.04306700	     -0.02660562	     -0.06334116	      0.00000000	      0.00000000	      0.00000000	   -305.18857042	  -1033.20024036	     -8.27271398	      1.68744262	      4.14528088	     -6.33331369	     -0.00722252	     -0.00315595	     -0.00132561	    205.80578741	    -14.30432055	    -43.52474428	     -2.00074006	      0.81176353	     -4.09778171	      0.00000000	      0.00000000	      0.00000000	     74.88197141	  -1843.15879749	    -57.62792426	     -1.07851739	      2.49831708	      0.34556579	      0.00000000	      0.00000000	      0.00000000	     46.34473624	  -1835.19595014	   -197.34976442	    -16.94783489	      9.10484271	    -64.88891407	      0.00000000	      0.00000000	      0.00000000	    239.05804555	    -45.79277546	     37.89233257	     -0.03395053	      0.40722263	      0.11568412	      0.00000000	      0.00000000	      0.00000000	   -241.49067913	  -1807.04925253	   -301.38103316	     -0.01558420	     -0.01566679	     -0.00418638	      0.00000000	      0.00000000	      0.00000000	   -336.85821251	  -1615.23495919	    -70.83810599	      4.37760451	     -3.75770849	     -8.43829665	     -0.00712861	     -0.00311491	      0.00130837	     64.37552302	     -2.22953445	     17.07117572	      0.65899219	     -0.24345927	     -1.47331136	      0.00000000	      0.00000000	      0.00000000	   -473.84840095	  -3142.55401082	    148.04506368	      3.07187144	     -6.06015962	      0.77206363	      0.00000000	      0.00000000	      0.00000000	   -395.70166508	  -3123.04815553	   -466.45459440	      9.30374941	      7.84361579	    -97.94483805	      0.00000000	      0.00000000	      0.00000000	    289.11633021	   -171.32451999	    -41.99136405	     -1.82997474	      4.41071976	      1.25846362	      0.00000000	      0.00000000	      0.00000000	     28.64194792	    282.00733085	     43.60187300	     15.51287488	     -3.01345746	    -16.89981064	      0.00000000	      0.00000000	      0.00000000	      0.34883054	     28.14952136	      4.74431141	     -1.24738992	     -0.20000395	      2.94499646	      0.00000000	      0.00000000	      0.00000000	      9.17252170	     11.05650219	      0.78492962	     -0.24988381	      0.13495004	      1.85708588	      0.00000000	      0.00000000	      0.00000000	     -0.54518781	      7.36136869	      5.84041282	     -1.41260596	      0.03881459	     -0.13668658	      0.00000000	      0.00000000	      0.00000000	     -0.19980178	      3.21491849	      3.07840828	     -0.22892624	      0.00629774	     -0.01436547	      0.00000000	      0.00000000	      0.00000000	    -18.49211876	     25.33959261	     -3.29150549	      0.80571745	      0.15756571	     -3.62007311	      0.00000000	      0.00000000	      0.00000000	      5.07781213	     13.07934556	      0.81794448	      0.08175280	     -0.05239586	      0.80774558	      0.00000000	      0.00000000	      0.00000000	      0.02606619	      8.53866067	     -2.71565125	      0.59049963	     -0.01002398	     -0.08391514	      0.00000000	      0.00000000	      0.00000000	     -0.17719146	      3.67484077	     -1.07571820	      0.07444114	     -0.00125213	     -0.01838766	      0.00000000	      0.00000000	      0.00000000
      6.35933332	      0.00000000	     -0.00000000	     -0.00000000	     -0.00000000	     -0.00000000	     -0.00000000	      0.00000000	      0.00000000	      0.00000000	   -216.00550529	   -867.11036133	    245.50923655	     -0.05408951	     -0.04517632	     -0.09372263	      0.00000000	      0.00000000	      0.00000000	   -287.30681454	  -1023.40829771	     -2.79453406	      1.28236385	      4.23759621	     -6.32822715	     -0.00722252	     -0.00315595	     -0.00132561	    210.32266783	    -12.44623124	    -50.65072258	     -2.20775238	      0.97297218	     -4.23333915	      0.00000000	      0.00000000	      0.00000000	    109.07381036	  -1740.53170368	    -37.62791567	     -0.86257904	      2.21841604	      0.38715416	      0.00000000	      0.00000000	      0.00000000	     75.78371179	  -1731.40561682	   -206.24700506	    -16.31114056	      8.97012956	    -62.11232841	      0.00000000	      0.00000000	      0.00000000	    223.48633720	    -45.06097270	     32.28544406	      0.05891462	      0.45157164	      0.18738850	      0.00000000	      0.00000000	      0.00000000	   -273.79314576	  -2206.42235950	   -351.86661399	     -0.01406427	      0.01365690	      0.00955292	      0.00000000	      0.00000000	      0.00000000	   -420.55705838	  -1957.06852084	    -71.69066406	      8.28409296	     -3.48192248	    -11.72569988	     -0.00712861	     -0.00311491	      0.00130837	    146.69886755	    -11.83904038	     24.36557777	      0.99384836	     -0.33651934	     -3.29055753	      0.00000000	      0.00000000	      0.00000000	   -358.52454815	  -2778.43962202	    105.11972391	      2.78656083	     -5.19554705	      0.61649610	      0.00000000	      0.00000000	      0.00000000	   -293.26488307	  -2741.25429254	   -513.17598896	      5.39845607	     10.99788370	    -87.79306307	      0.00000000	      0.00000000	      0.00000000	    248.44689111	   -161.66101677	    -43.17036876	     -1.80321433	      4.15208935	      1.26966407	      0.00000000	      0.00000000	      0.00000000	     33.15324204	    269.02816138	     32.95287333	      4.89462145	      1.66357965	    -23.58945366	      0.00000000	      0.00000000	      0.00000000	    -10.84839067	     29.19930253	      4.91452132	     -1.39385568	     -0.06816013	     -2.74179429	      0.00000000	      0.00000000	      0.00000000	      0.14071769	     14.37211557	      0.86604914	     -0.32394630	      0.01027693	     -0.12133356	      0.00000000	      0.00000000	      0.00000000	      0.03367130	      9.16563394	     -0.49341606	      0.06624894	     -0.00167090	     -0.02284595	      0.00000000	      0.00000000	      0.00000000	      0.03787814	      3.94012470	     -0.28393505	      0.02151003	      0.00019364	      0.00312702	      0.00000000	      0.00000000	      0.00000000	    -13.84340850	     20.15889168	     -2.90152588	      0.41498714	     -0.07794310	     -2.54563542	      0.00000000	      0.00000000	      0.00000000	      4.28267092	      9.46052881	      1.38821927	     -0.14794354	     -0.02972112	      0.61759891	      0.00000000	      0.00000000	      0.00000000	      0.45790045	      6.17376766	     -2.40613992	      0.48057191	     -0.00737866	      0.08610538	      0.00000000	      0.00000000	      0.00000000	      0.24683082	      2.64782600	     -0.82612184	      0.05469616	      0.00174103	      0.01916133	      0.00000000	      0.00000000	      0.00000000
      6.41066666	      0.00000000	     -0.00000000	     -0.00000000	     -0.00000000	     -0.00000000	      0.00000000	      0.00000000	      0.00000000	      0.00000000	   -227.50233409	   -907.74227690	    244.59010033	     -0.04386160	     -0.02431365	     -0.04655636	      0.00000000	      0.00000000	      0.00000000	   -276.34522058	  -1146.23518043	    -10.06915223	      3.35292517	      4.73828087	     -6.95537079	     -0.00722252	     -0.00315595	     -0.00132561	    261.12540140	    -16.26306535	    -62.68800035	     -2.71698931	      1.26474518	     -5.22054999	      0.00000000	      0.00000000	      0.00000000	    125.42779169	  -1662.63763256	    -26.85413825	     -0.74584705	      1.82161685	      0.24942728	      0.00000000	      0.00000000	      0.00000000	     87.79339272	  -1651.72806037	   -219.33653652	    -16.07255730	      8.97647842	    -59.82657341	      0.00000000	      0.00000000	      0.00000000	    213.42770390	    -46.77139772	     28.28211507	      0.14086162	      0.54760663	      0.23619837	      0.00000000	      0.00000000	      0.00000000	   -317.35628635	  -2197.20751430	   -331.09398208	     -0.02986426	      0.03176319	      0.03581989	      0.00000000	      0.00000000	      0.00000000	   -357.07776261	  -1842.33823836	    -57.65688827	      6.60642158	     -3.57412146	    -11.16924296	     -0.00712861	     -0.00311491	      0.00130837	    166.43846951	    -14.12247540	     26.79396861	      1.10919318	     -0.36640006	     -3.73872096	      0.00000000	      0.00000000	      0.00000000	   -335.10969884	  -2557.00774324	    118.07462729	      3.62052796	     -6.02372318	      0.64316647	      0.00000000	      0.00000000	      0.00000000	   -270.37840477	  -2520.20347632	   -494.05638627	      5.51043107	      9.74272655	    -81.33126939	      0.00000000	      0.00000000	      0.00000000	    207.73044517	   -132.20761863	    -34.16445225	     -1.58373954	      3.70747897	      1.15797516	      0.00000000	      0.00000000	      0.00000000	     45.61568794	    254.07292364	     18.31293799	     -3.81284520	      7.39901862	    -24.18223762	      0.00000000	      0.00000000	      0.00000000	     -8.95031391	     30.49974176	      6.92768328	     -2.29934290	     -0.21365740	     -2.26225055	      0.00000000	      0.00000000	      0.00000000	      0.62248924	     14.83396167	      2.34189197	     -0.63148703	      0.02331326	      0.01378136	      0.00000000	      0.00000000	      0.00000000	     -0.95766576	      9.53779878	     -0.23593052	     -0.02136351	     -0.01223250	     -0.25311199	      0.00000000	      0.00000000	      0.00000000	     -0.47194444	      4.11494638	     -0.06128756	      0.00334032	     -0.00232676	     -0.03505191	      0.00000000	      0.00000000	      0.00000000	    -17.05524598	     17.14145770	     -3.54366149	      0.41141772	     -0.24246240	     -3.84970719	      0.00000000	      0.00000000	      0.00000000	      2.43658375	     10.55634373	      1.82649869	     -0.26865087	      0.00723794	      0.32426670	      0.00000000	      0.00000000	      0.00000000	      1.17873487	      6.73447213	     -1.50261976	      0.34883029	     -0.00316036	      0.25068272	      0.00000000	      0.00000000	      0.00000000	      0.60736303	      2.89582670	     -0.62399091	      0.04424365	      0.00524119	      0.04697313	      0.00000000	      0.00000000	      0.00000000
      6.46199999	     -0.00000000	      0.00000000	     -0.00000000	     -0.00000000	      0.00000000	     -0.00000000	      0.00000000	      0.00000000	      0.00000000	   -242.63427667	   -933.39212430	    270.06087656	      0.01042367	     -0.00357081	      0.01135860	      0.00000000	      0.00000000	      0.00000000	   -257.07035741	  -1132.30350059	    -23.38640764	      7.73314617	      5.97769275	     -5.90153465	     -0.00722252	     -0.00315595	     -0.00132561	    255.53194614	    -17.37820883	    -58.58801336	     -2.59371435	      1.19204436	     -5.03204555	      0.00000000	      0.00000000	      0.00000000	     27.83105485	  -1528.75912685	    -45.25225815	     -1.09648881	      2.24187727	      0.26365987	      0.00000000	      0.00000000	      0.00000000	     -3.03017640	  -1518.47571241	   -191.73638727	    -14.96170782	      8.90951177	    -52.32402053	      0.00000000	      0.00000000	      0.00000000	    175.45919484	    -48.42484033	     17.52007743	      0.21013785	      0.67759759	      0.21797490	      0.00000000	      0.00000000	      0.00000000	   -258.47554873	  -1671.62444172	   -222.35029553	     -0.00133902	      0.01241669	      0.00850555	      0.00000000	      0.00000000	      0.00000000	   -309.75056469	  -1593.48671681	    -32.74620912	     -0.03191372	     -4.80810054	     -8.52208810	     -0.00712861	     -0.00311491	      0.00130837	    121.97073086	     -8.58981098	     24.39426502	      0.99322731	     -0.33443690	     -2.72097060	      0.00000000	      0.00000000	      0.00000000	   -459.38393367	  -2839.96830661	    147.44864403	      4.72710289	     -7.49658757	      0.80169311	      0.00000000	      0.00000000	      0.00000000	   -381.97311883	  -2800.39317403	   -561.45916882	      6.59197068	     10.02789125	    -88.53223923	      0.00000000	      0.00000000	      0.00000000	    368.07552072	   -181.63228192	    -59.29748434	     -1.26727343	      5.72024450	      0.90255714	      0.00000000	      0.00000000	      0.00000000	     50.99533865	    292.61263508	     13.96461253	      0.60626472	      1.14167179	    -28.13790835	      0.00000000	      0.00000000	      0.00000000	     -4.75290925	     32.27159848	      4.80553731	     -1.42986312	     -0.16116874	      0.15411633	      0.00000000	      0.00000000	      0.00000000	      4.83526963	     14.39516825	      1.03114355	     -0.35437966	      0.07135970	      0.91200826	      0.00000000	      0.00000000	      0.00000000	     -0.43866369	      9.35666946	      2.73473997	     -0.70995768	      0.01350016	     -0.13439987	      0.00000000	      0.00000000	      0.00000000	     -0.20551087	      4.06246730	      1.48358232	     -0.11115621	      0.00133996	     -0.01550142	      0.00000000	      0.00000000	      0.00000000	    -21.15162417	     23.11998770	     -6.30252955	      1.53777193	      0.15890021	     -4.90524819	      0.00000000	      0.00000000	      0.00000000	      3.28034242	     14.04420621	      0.17647102	      0.17313726	     -0.02856115	      0.39963568	      0.00000000	      0.00000000	      0.00000000	      0.04491625	      9.08819620	     -1.36389349	      0.28340663	      0.00106590	     -0.04358583	      0.00000000	      0.00000000	      0.00000000	     -0.04385115	      3.89753162	     -0.38343690	      0.02341779	      0.00186053	     -0.00461802	      0.00000000	      0.00000000	      0.00000000
      6.51333332	      0.00000000	     -0.00000000	     -0.00000000	     -0.00000000	      0.00000000	      0.00000000	      0.00000000	      0.00000000	      0.00000000	   -187.07818078	  -1334.18824386	    245.41018632	      0.03948927	      0.03406291	      0.01915208	      0.00000000	      0.00000000	      0.00000000	   -163.60526514	  -1253.88485189	     20.36410743	     -0.71660077	      3.16594755	     -4.73831987	     -0.00722252	     -0.00315595	     -0.00132561	    109.79226336	     -5.67797508	    -30.00080195	     -1.36647103	      0.47858196	     -2.14512696	      0.00000000	      0.00000000	      0.00000000	   -147.48674914	  -1329.36106548	    -40.96542684	      0.12028230	      0.62886294	      0.13770855	      0.00000000	      0.00000000	      0.00000000	   -164.70618452	  -1323.48409453	   -118.77865734	    -10.69396759	      5.61202863	    -40.90278653	      0.00000000	      0.00000000	      0.00000000	     92.55462076	    -63.06877202	     11.79913171	     -0.31822670	      0.21487107	     -0.26995882	      0.00000000	      0.00000000	      0.00000000	   -357.27250801	  -2243.37471940	   -316.97951822	      0.03079231	     -0.00060162	     -0.00214437	      0.00000000	      0.00000000	      0.00000000	   -398.05701830	  -2004.23484517	    -24.40945462	     -1.35631640	     -4.63512731	    -12.98196130	     -0.00712861	     -0.00311491	      0.00130837	    282.52579425	    -23.71094331	     50.77784407	      2.33171796	     -0.55916512	     -6.13517500	      0.00000000	      0.00000000	      0.00000000	   -307.05069824	  -2584.36325052	    242.31329961	      5.98804859	     -9.26241423	      0.97919161	      0.00000000	      0.00000000	      0.00000000	   -215.06881514	  -2565.70233712	   -455.19045192	      9.57083759	      5.77837041	    -86.07879581	      0.00000000	      0.00000000	      0.00000000	    254.04885380	   -132.17166955	    -43.38450809	     -1.03628431	      4.01377875	      0.78854522	      0.00000000	      0.00000000	      0.00000000	     33.76465658	    277.64235317	      1.10465506	     -7.15173895	      9.10974395	    -20.39498472	      0.00000000	      0.00000000	      0.00000000	     -1.56038971	     32.80713453	      7.07702342	     -2.54965085	     -0.39753060	      1.27494935	      0.00000000	      0.00000000	      0.00000000	      6.73732087	     14.10417956	      2.87309150	     -0.76145103	      0.11058630	      1.23937322	      0.00000000	      0.00000000	      0.00000000	     -1.84640481	      9.37719240	      3.75431835	     -0.89708230	      0.00564256	     -0.46891264	      0.00000000	      0.00000000	      0.00000000	     -0.95313125	      4.10783315	      1.82877635	     -0.13391242	      0.00115282	     -0.07293548	      0.00000000	      0.00000000	      0.00000000	    -24.92196666	     15.15086580	     -8.07108430	      2.06051437	      0.05262378	     -7.23499196	      0.00000000	      0.00000000	      0.00000000	     -1.97971214	     14.12494669	     -0.51450071	      0.28968375	      0.03065452	     -0.71898163	      0.00000000	      0.00000000	      0.00000000	      0.99251942	      8.92771244	      2.13996493	     -0.52479241	      0.01494493	      0.19523063	      0.00000000	      0.00000000	      0.00000000	      0.50038424	      3.80372432	      1.41381307	     -0.10953024	      0.00426070	      0.03838994	      0.00000000	      0.00000000	      0.00000000
      6.56466665	      0.00000000	     -0.00000000	      0.00000000	     -0.00000000	      0.00000000	      0.00000000	      0.00000000	      0.00000000	      0.00000000	   -363.40918008	  -2496.37495501	    486.13816224	      0.04182246	      0.01838670	      0.02104035	      0.00000000	      0.00000000	      0.00000000	   -264.70993467	  -1760.01503989	     57.81631110	    -20.06475665	      5.23505522	     -9.72163115	     -0.00722252	     -0.00315595	     -0.00132561	    290.45220215	    -40.18420351	     -9.61965343	     -1.21651086	      0.32897918	     -5.26867250	      0.00000000	      0.00000000	      0.00000000	    -85.88297176	  -1486.37258105	      8.93664443	     -1.11551271	      1.99879085	      0.19613778	      0.00000000	      0.00000000	      0.00000000	    -90.95557757	  -1486.77262303	    -20.50358419	    -10.08963017	      3.18246974	    -48.66782750	      0.00000000	      0.00000000	      0.00000000	    120.80256544	    -82.44512716	     13.72393531	      0.25567934	      0.51326447	      0.14062360	      0.00000000	      0.00000000	      0.00000000	   -238.05302873	  -2082.51646312	   -376.29186609	      0.02140239	      0.02731788	     -0.01822853	      0.00000000	      0.00000000	      0.00000000	   -368.12379822	  -1629.03722765	    -60.21594647	     13.35845526	     -1.38449387	    -11.31152186	     -0.00712861	     -0.00311491	      0.00130837	    197.79157734	    -17.72764371	     30.68455470	      1.38163373	     -0.43446142	     -4.26543391	      0.00000000	      0.00000000	      0.00000000	   -225.93134078	  -2090.25368673	    188.47773673	      3.34190790	     -5.43145628	      0.61493975	      0.00000000	      0.00000000	      0.00000000	   -153.96632921	  -2072.74199244	   -372.79029307	      6.06402819	      6.86476802	    -69.27875137	      0.00000000	      0.00000000	      0.00000000	    168.72761068	    -93.94424276	    -41.54242480	     -1.12342351	      1.99345251	      0.85294380	      0.00000000	      0.00000000	      0.00000000	     57.53643247	    293.35139316	    -17.65521401	     -6.69910959	     -3.91289445	    -44.63506010	      0.00000000	      0.00000000	      0.00000000	     -5.36251068	     30.89494332	     -0.93935886	      0.76854689	      0.16143545	     -0.93498642	      0.00000000	      0.00000000	      0.00000000	      3.29004225	     13.46146764	     -2.44109927	      0.29865763	      0.00813973	      0.27880199	      0.00000000	      0.00000000	      0.00000000	      1.94476322	      8.69018946	      1.38823451	     -0.19723722	      0.00857541	      0.38682981	      0.00000000	      0.00000000	      0.00000000	      0.89741405	      3.78929241	      0.06481485	      0.00538899	     -0.00222193	      0.06504415	      0.00000000	      0.00000000	      0.00000000	    -12.74969472	     25.89921222	    -10.91219157	      2.83284425	      0.50277240	     -1.72179073	      0.00000000	      0.00000000	      0.00000000	      7.38082420	     11.41599643	     -1.90212243	      0.42233171	     -0.11354260	      1.21824480	      0.00000000	      0.00000000	      0.00000000	     -2.22116957	      7.66510771	     -3.53292983	      0.76362203	     -0.01242070	     -0.44169469	      0.00000000	      0.00000000	      0.00000000	     -0.77016196	      3.30237126	     -1.46159846	      0.10228973	     -0.00469022	     -0.05052587	      0.00000000	      0.00000000	      0.00000000
      6.61599998	     -0.00000000	      0.00000000	      0.00000000	      0.00000000	      0.00000000	     -0.00000000	      0.00000000	      0.00000000	      0.00000000	   -426.38729349	  -2576.25272839	    480.88460725	      0.02724589	      0.00552880	     -0.00150002	      0.00000000	      0.00000000	      0.00000000	   -318.30964307	  -1890.85957535	     55.25184887	    -18.19319880	      6.71423203	    -10.82001272	     -0.00722252	     -0.00315595	     -0.00132561	    314.85763694	    -36.84632389	    -25.74018148	     -1.78313256	      0.50542864	     -5.99624358	      0.00000000	      0.00000000	      0.00000000	   -151.26698892	  -1846.48544400	    -32.15759139	     -2.31058369	      3.91225335	      0.38803587	      0.00000000	      0.00000000	      0.00000000	   -142.50614828	  -1848.18479752	     21.76697786	    -12.39048290	      3.95628958	    -59.82012965	      0.00000000	      0.00000000	      0.00000000	    136.33751393	    -71.61020821	     15.66013606	      0.72622029	      0.03472316	      0.50352616	      0.00000000	      0.00000000	      0.00000000	   -208.66169349	  -1716.84947666	   -375.33692217	      0.01560681	      0.04371805	     -0.04006935	      0.00000000	      0.00000000	      0.00000000	   -322.78018824	  -1260.99613037	    -62.00676406	     14.42799196	     -0.79685235	     -8.73777817	     -0.00712861	     -0.00311491	      0.00130837	    126.18701527	     -7.69519746	     29.56861355	      1.29946420	     -0.37996728	     -2.68450026	      0.00000000	      0.00000000	      0.00000000	   -198.05577898	  -1853.77296582	    164.85442898	      2.19852194	     -4.05208461	      0.49260673	      0.00000000	      0.00000000	      0.00000000	   -135.59290686	  -1842.57166729	   -303.90194140	      5.34518731	      5.83495705	    -61.15791516	      0.00000000	      0.00000000	      0.00000000	    139.83188673	    -80.20327194	    -35.88065411	     -0.97966330	      1.83522436	      0.73407716	      0.00000000	      0.00000000	      0.00000000	     43.14337660	    281.27655471	    -22.40017936	     -8.48768391	     -6.39853005	    -28.20715600	      0.00000000	      0.00000000	      0.00000000	     -3.46981664	     28.05310327	     -1.43240564	      0.62352294	      0.13089457	     -0.27685832	      0.00000000	      0.00000000	      0.00000000	      4.00433810	     11.04044689	     -1.91897266	      0.16873413	      0.03347660	      0.31858222	      0.00000000	      0.00000000	      0.00000000	      1.36726039	      7.19619247	      1.69331144	     -0.16916058	      0.00926683	      0.24011165	      0.00000000	      0.00000000	      0.00000000	      0.53817113	      3.07444834	     -0.09416632	      0.02265309	      0.00118131	      0.03621177	      0.00000000	      0.00000000	      0.00000000	    -10.79881423	     24.57124476	     -7.95134654	      1.71287784	      0.22456777	     -1.03994339	      0.00000000	      0.00000000	      0.00000000	      7.47236419	      9.71511661	     -0.20868837	      0.07539477	     -0.08746433	      1.27105893	      0.00000000	      0.00000000	      0.00000000	     -1.32484619	      6.51769376	     -4.05734605	      0.88333759	     -0.01460345	     -0.24961227	      0.00000000	      0.00000000	      0.00000000	     -0.38797666	      2.80682831	     -1.74924683	      0.12407123	     -0.00192272	     -0.02270475	      0.00000000	      0.00000000	      0.00000000
      6.66733332	      0.00000000	      0.00000000	     -0.00000000	      0.00000000	     -0.00000000	      0.00000000	      0.00000000	      0.00000000	      0.00000000	   -291.73373952	  -2103.22344774	    443.56132630	      0.01988072	      0.03221406	      0.00051559	      0.00000000	      0.00000000	      0.00000000	   -327.60132943	  -1606.97476930	     62.45448596	    -17.25106601	      4.21606065	     -9.65136322	     -0.00722252	     -0.00315595	     -0.00132561	    212.00470027	    -19.30122513	    -30.94649441	     -1.64636292	      0.47957672	     -4.20849305	      0.00000000	      0.00000000	      0.00000000	   -234.96619850	  -1932.26719763	    -78.47699510	     -1.26389223	      2.75756517	      0.29992278	      0.00000000	      0.00000000	      0.00000000	   -210.43798504	  -1936.34766694	     65.69184347	    -10.86802379	      1.69753047	    -61.13190998	      0.00000000	      0.00000000	      0.00000000	    158.02879945	    -60.58276740	     25.71128429	      0.61984740	     -0.33793666	      0.46057352	      0.00000000	      0.00000000	      0.00000000	   -225.64666019	  -1500.36867744	   -295.42700846	      0.00995985	      0.03307774	     -0.03750116	      0.00000000	      0.00000000	      0.00000000	   -331.31281082	  -1323.60770626	    -39.39422797	      7.81239791	     -2.24060841	     -8.93757919	     -0.00712861	     -0.00311491	      0.00130837	    184.48155094	    -14.41718055	     36.79715689	      1.73295369	     -0.48137916	     -3.80514754	      0.00000000	      0.00000000	      0.00000000	   -143.10440604	  -1834.61737179	    196.14458875	      3.01707799	     -5.55458960	      0.68223372	      0.00000000	      0.00000000	      0.00000000	    -77.82361169	  -1835.23833828	   -230.94244057	      8.16529093	      2.17878529	    -62.80248175	      0.00000000	      0.00000000	      0.00000000	    167.55397407	    -81.91184244	    -37.53893304	     -0.91733073	      1.20102477	      0.68800276	      0.00000000	      0.00000000	      0.00000000	     26.86570981	    256.24313302	    -14.09744375	     -5.22750075	     -0.55386347	    -20.80472730	      0.00000000	      0.00000000	      0.00000000	     -9.12109513	     27.39224785	      0.11669943	      0.24730791	      0.09707972	     -2.02125635	      0.00000000	      0.00000000	      0.00000000	      2.19990728	     12.88412724	     -1.62567759	      0.14052787	      0.00888553	      0.25585658	      0.00000000	      0.00000000	      0.00000000	      1.42406967	      8.21033752	      0.94962924	     -0.21625270	      0.00951195	      0.25807386	      0.00000000	      0.00000000	      0.00000000	      0.59211088	      3.51973609	      0.29480232	     -0.01878476	     -0.00074377	      0.04152562	      0.00000000	      0.00000000	      0.00000000	    -16.09831202	     19.30069948	    -10.36861294	      2.71946903	      0.50384907	     -3.22823270	      0.00000000	      0.00000000	      0.00000000	      4.00057667	     11.38601311	     -1.98538873	      0.49906680	     -0.05943878	      0.66615496	      0.00000000	      0.00000000	      0.00000000	     -1.57943500	      7.48465875	     -1.54929218	      0.38808261	      0.00628350	     -0.37073159	      0.00000000	      0.00000000	      0.00000000	     -0.72661934	      3.23223189	     -0.73871308	      0.05393140	      0.00129431	     -0.05272596	      0.00000000	      0.00000000	      0.00000000
      6.71866665	      0.00000000	     -0.00000000	      0.00000000	     -0.00000000	     -0.00000000	      0.00000000	      0.00000000	      0.00000000	      0.00000000	   -306.52265061	  -2269.59968894	    468.36672388	      0.00970129	      0.00015870	     -0.00245652	      0.00000000	      0.00000000	      0.00000000	   -348.44852376	  -1720.25622755	     70.33750390	    -19.06654244	      4.61240289	    -10.29360874	     -0.00722252	     -0.00315595	     -0.00132561	    217.26564975	    -19.03116464	    -32.68128217	     -1.66721134	      0.52658335	     -4.37475229	      0.00000000	      0.00000000	      0.00000000	   -324.86587614	  -2152.98229166	   -106.73881391	     -2.05099090	      4.15230591	      0.47863568	      0.00000000	      0.00000000	      0.00000000	   -286.28246402	  -2158.47511531	    122.08079797	    -11.58885746	      1.59726950	    -66.82218264	      0.00000000	      0.00000000	      0.00000000	    181.93621678	    -65.61561445	     29.59102001	      0.73135978	     -0.58852494	      0.52938168	      0.00000000	      0.00000000	      0.00000000	   -257.03767147	  -1506.87274428	   -267.41481080	     -0.00059817	      0.03608978	     -0.03497629	      0.00000000	      0.00000000	      0.00000000	   -329.70862058	  -1404.70346329	    -30.61663269	      6.03967365	     -3.18346303	     -9.18328343	     -0.00712861	     -0.00311491	      0.00130837	    231.80416642	    -21.02321453	     40.87985974	      2.07132324	     -0.54765393	     -4.61722567	      0.00000000	      0.00000000	      0.00000000	   -111.21779358	  -1784.66366154	    185.90185171	      3.09542725	     -5.68135421	      0.66957146	      0.00000000	      0.00000000	      0.00000000	    -51.83176761	  -1787.64594738	   -190.72048212	      8.99266287	      0.78894116	    -61.75505625	      0.00000000	      0.00000000	      0.00000000	    158.49667507	    -81.20849540	    -34.03027803	     -1.00615956	      0.77450274	      0.73705262	      0.00000000	      0.00000000	      0.00000000	     33.59794227	    276.28202015	    -19.37083947	     -7.01404602	      0.12174430	    -25.99107186	      0.00000000	      0.00000000	      0.00000000	     -7.39207486	     30.60354589	      0.71936659	      0.13837639	      0.01121101	     -1.03140828	      0.00000000	      0.00000000	      0.00000000	      3.98422947	     13.93168456	     -1.51502499	      0.13006579	      0.02538147	      0.73738333	      0.00000000	      0.00000000	      0.00000000	      1.33271502	      8.91298375	      2.29350394	     -0.60632403	      0.01403124	      0.24094830	      0.00000000	      0.00000000	      0.00000000	      0.56557767	      3.84940865	      1.25690637	     -0.09463601	     -0.00258438	      0.04036392	      0.00000000	      0.00000000	      0.00000000	    -16.48597473	     20.52671339	    -10.96875688	      2.84264974	      0.41097028	     -3.51784184	      0.00000000	      0.00000000	      0.00000000	      3.54318377	     11.87518441	     -1.93778983	      0.46175111	     -0.05783621	      0.49042465	      0.00000000	      0.00000000	      0.00000000	     -1.31999430	      7.76757418	     -1.16700184	      0.26574985	      0.00214546	     -0.27337978	      0.00000000	      0.00000000	      0.00000000	     -0.45879369	      3.32860611	     -0.41525308	      0.02776909	     -0.00026047	     -0.02947381	      0.00000000	      0.00000000	      0.00000000
      6.76999998	      0.00000000	     -0.00000000	     -0.00000000	      0.00000000	      0.00000000	     -0.00000000	      0.00000000	      0.00000000	      0.00000000	   -270.22740131	  -2254.83682833	    492.17579968	     -0.00531223	      0.00278920	     -0.00082088	      0.00000000	      0.00000000	      0.00000000	   -352.23843269	  -1691.01717085	     72.70964240	    -18.98900640	      3.45688890	    -10.23608858	     -0.00722252	     -0.00315595	     -0.00132561	    203.52352335	    -17.52649272	    -31.66920689	     -1.60699448	      0.51419842	     -4.07902790	      0.00000000	      0.00000000	      0.00000000	   -367.56420663	  -2143.15330393	   -113.97195123	     -0.97928309	      2.88439371	      0.37290580	      0.00000000	      0.00000000	      0.00000000	   -326.20284761	  -2149.98947726	    126.33847750	    -10.37988479	      0.45605896	    -65.22132715	      0.00000000	      0.00000000	      0.00000000	    174.87216130	    -63.86492296	     32.00508426	      0.68080303	     -0.58090732	      0.49202575	      0.00000000	      0.00000000	      0.00000000	   -238.72768535	  -1597.13259924	   -311.55281291	     -0.01444391	      0.06091808	     -0.02344029	      0.00000000	      0.00000000	      0.00000000	   -326.06633260	  -1357.38262723	    -39.82935575	     10.91622026	     -2.11697374	     -9.19020162	     -0.00712861	     -0.00311491	      0.00130837	    227.19285969	    -22.26759155	     37.81196706	      1.98998563	     -0.54207248	     -4.40910497	      0.00000000	      0.00000000	      0.00000000	    -89.10231582	  -1635.88648752	    177.22135810	      2.05547197	     -4.23533894	      0.48616127	      0.00000000	      0.00000000	      0.00000000	    -36.21383170	  -1642.31081415	   -139.90335076	      8.39851576	      0.49123427	    -56.74724340	      0.00000000	      0.00000000	      0.00000000	    169.40391782	    -72.96661594	    -38.31378078	     -0.61370048	      0.20748853	      0.47281662	      0.00000000	      0.00000000	      0.00000000	     17.99451289	    265.96020055	    -24.09967501	    -10.42634071	      2.64327507	    -12.53342992	      0.00000000	      0.00000000	      0.00000000	     -5.20701921	     29.75286324	      1.66871705	     -0.33735846	     -0.01641316	     -0.43747402	      0.00000000	      0.00000000	      0.00000000	      4.38053433	     13.11138380	     -0.67246818	     -0.01547104	      0.05233907	      0.75499868	      0.00000000	      0.00000000	      0.00000000	      0.72803189	      8.45855223	      2.46558777	     -0.59270034	      0.01889934	      0.12514577	      0.00000000	      0.00000000	      0.00000000	      0.34207446	      3.65133600	      1.16652521	     -0.08471816	      0.00157969	      0.02478850	      0.00000000	      0.00000000	      0.00000000	    -20.04726585	     17.06142524	    -10.49751893	      2.73433121	      0.32922146	     -5.25898515	      0.00000000	      0.00000000	      0.00000000	      0.36538740	     12.63112995	     -1.77350946	      0.48175792	     -0.00903641	     -0.15859023	      0.00000000	      0.00000000	      0.00000000	     -0.40301457	      8.10882059	      0.81285033	     -0.18099159	      0.01522525	     -0.10097347	      0.00000000	      0.00000000	      0.00000000	     -0.13101779	      3.46865083	      0.57729945	     -0.04507365	      0.00379622	     -0.00741279	      0.00000000	      0.00000000	      0.00000000
      6.82133331	     -0.00000000	     -0.00000000	      0.00000000	     -0.00000000	      0.00000000	      0.00000000	      0.00000000	      0.00000000	      0.00000000	   -260.93037287	  -1834.20578219	    335.09062053	     -0.01658990	      0.03414716	      0.01743384	      0.00000000	      0.00000000	      0.00000000	   -381.27724473	  -1840.72217724	     33.37859107	     -6.26897460	      4.80909803	    -11.01539189	     -0.00722252	     -0.00315595	     -0.00132561	    282.66489890	    -22.89160853	    -47.13238992	     -2.27391426	      0.83983885	     -5.73246018	      0.00000000	      0.00000000	      0.00000000	   -416.34595627	  -2384.20318618	   -171.94501798	     -1.93948163	      4.49986769	      0.56576607	      0.00000000	      0.00000000	      0.00000000	   -366.40541036	  -2397.66893190	     90.43128225	    -13.94073274	      3.55591287	    -72.76358455	      0.00000000	      0.00000000	      0.00000000	    224.48069688	    -75.00989156	     39.26171237	      0.63788862	     -0.72862429	      0.46071732	      0.00000000	      0.00000000	      0.00000000	   -204.72152449	   -976.98388641	   -203.26587992	     -0.02074199	      0.03858257	      0.00076471	      0.00000000	      0.00000000	      0.00000000	   -303.71860859	  -1141.31649232	    -16.42326070	     -0.19542785	     -3.68094647	     -6.91386056	     -0.00712861	     -0.00311491	      0.00130837	    174.59249050	     -7.86928136	     49.68324842	      2.11086762	     -0.82574681	     -3.60511136	      0.00000000	      0.00000000	      0.00000000	   -197.15480042	  -1880.18688110	    212.70992014	      3.35742988	     -6.24520264	      0.72844898	      0.00000000	      0.00000000	      0.00000000	   -136.07830705	  -1894.75267581	   -116.73309683	     11.96160519	     -2.90674268	    -62.83451806	      0.00000000	      0.00000000	      0.00000000	    176.76475731	    -71.25614801	    -33.28051963	     -0.55634283	      0.54667187	      0.41226475	      0.00000000	      0.00000000	      0.00000000	     20.37869493	    256.45397736	    -26.19895578	     -8.36676946	     -1.05158340	    -13.93080980	      0.00000000	      0.00000000	      0.00000000	     -2.80033225	     27.44001081	     -0.46773914	      0.42430454	      0.06685862	      0.11159030	      0.00000000	      0.00000000	      0.00000000	      4.63699723	     11.16261891	     -1.69810310	      0.17168959	      0.03852828	      0.66097682	      0.00000000	      0.00000000	      0.00000000	      1.29413197	      7.23561904	      2.44018867	     -0.47682463	      0.01429424	      0.23755060	      0.00000000	      0.00000000	      0.00000000	      0.54746941	      3.11326252	      0.77840606	     -0.05003469	     -0.00027448	      0.03846278	      0.00000000	      0.00000000	      0.00000000	    -14.97865277	     19.96792242	    -11.01816917	      2.96519721	      0.55547824	     -2.90080885	      0.00000000	      0.00000000	      0.00000000	      4.03954236	     11.33221352	     -2.43453266	      0.57963474	     -0.06687469	      0.67768974	      0.00000000	      0.00000000	      0.00000000	     -1.84259544	      7.46945599	     -1.48451105	      0.37713390	      0.00552188	     -0.42421671	      0.00000000	      0.00000000	      0.00000000	     -0.83175648	      3.22850340	     -0.72141928	      0.05283063	      0.00016924	     -0.06039365	      0.00000000	      0.00000000	      0.00000000
      6.87266664	     -0.00000000	      0.00000000	      0.00000000	      0.00000000	      0.00000000	     -0.00000000	      0.00000000	      0.00000000	      0.00000000	   -275.98515356	  -1919.55083422	    333.12195361	     -0.01505556	      0.02350592	      0.02545511	      0.00000000	      0.00000000	      0.00000000	   -396.49108406	  -1984.03200727	     26.08911217	     -3.34795367	      5.12003785	    -11.73411791	     -0.00722252	     -0.00315595	     -0.00132561	    317.15868116	    -27.73278664	    -45.66343233	     -2.28802678	      0.85277508	     -6.40641302	      0.00000000	      0.00000000	      0.00000000	   -458.36967116	  -2492.07035269	   -182.53305073	     -1.77424068	      4.39646268	      0.56432969	      0.00000000	      0.00000000	      0.00000000	   -405.65916587	  -2507.10213187	     90.35123311	    -14.44756565	      3.70103184	    -75.36921431	      0.00000000	      0.00000000	      0.00000000	    249.84208883	    -86.02930420	     43.71554897	      0.70582527	     -1.25409865	      0.49512658	      0.00000000	      0.00000000	      0.00000000	   -205.93429167	  -1057.54891861	   -210.09357466	     -0.02022951	      0.01151511	      0.01969183	      0.00000000	      0.00000000	      0.00000000	   -301.19899148	  -1217.78831279	    -18.09837920	     -1.30681321	     -3.75556933	     -7.02614254	     -0.00712861	     -0.00311491	      0.00130837	    171.20229115	     -7.20067534	     49.30253981	      2.05576784	     -0.84675965	     -3.56754782	      0.00000000	      0.00000000	      0.00000000	   -238.56041577	  -1920.85045507	    204.91553892	      2.91170979	     -5.64685734	      0.67276856	      0.00000000	      0.00000000	      0.00000000	   -178.15545782	  -1935.31730298	   -121.22236899	     11.60910869	     -2.43492210	    -62.83439340	      0.00000000	      0.00000000	      0.00000000	    182.15368862	    -79.68521244	    -34.25967041	     -0.47949365	      1.19381721	      0.33535495	      0.00000000	      0.00000000	      0.00000000	     30.04807027	    280.13706406	    -29.63599063	    -12.02011620	     -2.25087437	    -18.57556534	      0.00000000	      0.00000000	      0.00000000	     -4.60311638	     30.51982722	      1.29492068	     -0.19076703	     -0.01306690	     -0.39331483	      0.00000000	      0.00000000	      0.00000000	      4.83586287	     12.69442924	     -1.00632400	      0.01291347	      0.04791513	      0.67113271	      0.00000000	      0.00000000	      0.00000000	      0.89472321	      8.23726564	      2.45274836	     -0.47490283	      0.01170887	      0.14338953	      0.00000000	      0.00000000	      0.00000000	      0.35037550	      3.52949300	      0.74644163	     -0.04700544	     -0.00004151	      0.02376384	      0.00000000	      0.00000000	      0.00000000	    -12.37208372	     22.99444291	    -10.22822970	      2.54572016	      0.46294681	     -1.61223637	      0.00000000	      0.00000000	      0.00000000	      6.23491274	     10.84524291	     -1.65418072	      0.38952910	     -0.08478657	      1.13276679	      0.00000000	      0.00000000	      0.00000000	     -1.89084776	      7.21065144	     -3.09511270	      0.74386736	     -0.00430631	     -0.41780462	      0.00000000	      0.00000000	      0.00000000	     -0.79823609	      3.11639397	     -1.53794203	      0.11309076	     -0.00071551	     -0.05649137	      0.00000000	      0.00000000	      0.00000000
      6.92399998	     -0.00000000	      0.00000000	     -0.00000000	     -0.00000000	     -0.00000000	      0.00000000	      0.00000000	      0.00000000	      0.00000000	   -244.43940401	  -2019.81709118	    404.93874727	     -0.01373400	      0.02760404	      0.02569083	      0.00000000	      0.00000000	      0.00000000	   -395.27229163	  -1896.00440382	     39.72833358	     -8.04480653	      3.52720008	    -11.63509655	     -0.00722252	     -0.00315595	     -0.00132561	    286.95087599	    -26.49842549	    -36.36990105	     -1.91597375	      0.67962037	     -5.76218908	      0.00000000	      0.00000000	      0.00000000	   -436.50382468	  -2295.73905444	   -155.84904104	     -0.35618830	      2.36400763	      0.36272320	      0.00000000	      0.00000000	      0.00000000	   -390.13025779	  -2308.53489884	     86.83711801	    -11.86883647	      1.71644258	    -68.64739211	      0.00000000	      0.00000000	      0.00000000	    201.44922142	    -80.13413367	     41.64774945	      0.79601077	     -0.67821621	      0.55917394	      0.00000000	      0.00000000	      0.00000000	   -222.89250317	  -1165.84605030	   -210.45691410	     -0.02068864	     -0.00233728	      0.01933063	      0.00000000	      0.00000000	      0.00000000	   -332.03365898	  -1326.73279606	    -18.68090323	      1.20147741	     -3.45620048	     -8.44186898	     -0.00712861	     -0.00311491	      0.00130837	    219.86269225	    -14.62109219	     52.19232158	      2.33177253	     -0.86490718	     -4.48495460	      0.00000000	      0.00000000	      0.00000000	   -224.33965068	  -1902.20471832	    199.55188784	      2.64422426	     -5.25047388	      0.63968141	      0.00000000	      0.00000000	      0.00000000	   -164.84303844	  -1915.25993968	   -127.30865331	     11.04043872	     -1.75723108	    -62.43802359	      0.00000000	      0.00000000	      0.00000000	    179.22503356	    -86.95873064	    -37.78887262	     -0.42716121	      0.89104386	      0.29787301	      0.00000000	      0.00000000	      0.00000000	     38.37489333	    272.78040472	    -26.32706165	    -11.12674442	      0.10006332	    -26.48451802	      0.00000000	      0.00000000	      0.00000000	     -4.74831385	     29.84395289	      1.96145987	     -0.14932329	      0.08119149	     -0.49522432	      0.00000000	      0.00000000	      0.00000000	      4.79707499	     12.49338648	     -1.38463439	      0.15045720	      0.04636035	      0.69507844	      0.00000000	      0.00000000	      0.00000000	      1.23410718	      8.05486609	      2.52393420	     -0.50958602	      0.01854788	      0.25699921	      0.00000000	      0.00000000	      0.00000000	      0.64345023	      3.44074184	      0.85517570	     -0.05616020	      0.00074775	      0.04875627	      0.00000000	      0.00000000	      0.00000000	    -14.44017595	     21.71773831	    -10.31144987	      2.79228501	      0.53041222	     -2.73193236	      0.00000000	      0.00000000	      0.00000000	      4.31789700	     11.57473679	     -2.21034125	      0.55666607	     -0.06631126	      0.70135152	      0.00000000	      0.00000000	      0.00000000	     -1.75472459	      7.62822642	     -1.66543959	      0.39571401	      0.00686909	     -0.40987902	      0.00000000	      0.00000000	      0.00000000	     -0.80941138	      3.28069091	     -0.72664921	      0.05184185	      0.00096312	     -0.05883660	      0.00000000	      0.00000000	      0.00000000
      6.97533331	     -0.00000000	     -0.00000000	     -0.00000000	      0.00000000	     -0.00000000	     -0.00000000	      0.00000000	      0.00000000	      0.00000000	   -247.47607101	  -2180.49037050	    464.26862926	     -0.01109250	      0.04408889	      0.02499500	      0.00000000	      0.00000000	      0.00000000	   -396.51693831	  -1900.81459771	     47.96762194	    -10.36031901	      2.89663764	    -11.75384950	     -0.00722252	     -0.00315595	     -0.00132561	    273.68530522	    -27.15584021	    -27.36228547	     -1.57841455	      0.51905279	     -5.47713553	      0.00000000	      0.00000000	      0.00000000	   -426.40349339	  -2198.60093683	   -135.03568305	      0.55039284	      1.04519983	      0.22995806	      0.00000000	      0.00000000	      0.00000000	   -385.07843972	  -2209.60138267	     84.03230898	    -10.37710812	      0.46801118	    -65.19347597	      0.00000000	      0.00000000	      0.00000000	    185.28921749	    -82.89513224	     41.48930410	      0.83108467	     -0.78278760	      0.57803749	      0.00000000	      0.00000000	      0.00000000	   -218.55449757	  -1357.21328187	   -232.76261353	     -0.02024747	      0.00558742	      0.01062484	      0.00000000	      0.00000000	      0.00000000	   -335.20668086	  -1377.40580997	    -28.91673068	      5.30406305	     -2.49712925	     -8.97054022	     -0.00712861	     -0.00311491	      0.00130837	    213.33585274	    -16.47573764	     46.51021749	      2.20505600	     -0.68740590	     -4.29738512	      0.00000000	      0.00000000	      0.00000000	   -221.07144312	  -1799.71053010	    170.03443357	      1.65225459	     -3.74029369	      0.48258900	      0.00000000	      0.00000000	      0.00000000	   -166.37072709	  -1808.33132474	   -147.88768839	      8.77534599	      0.42199294	    -58.38541114	      0.00000000	      0.00000000	      0.00000000	    150.75690667	    -91.97873005	    -38.55389540	     -0.33998735	      0.95934376	      0.22459807	      0.00000000	      0.00000000	      0.00000000	     43.09566015	    277.53759566	    -27.87145193	    -10.72143532	      0.57238409	    -28.70488982	      0.00000000	      0.00000000	      0.00000000	      0.43523530	     29.92217609	      2.21784026	     -0.36499243	     -0.08772817	      1.37765073	      0.00000000	      0.00000000	      0.00000000	      7.19994633	     10.60844156	     -0.78813935	      0.00069113	      0.07691002	      1.08065514	      0.00000000	      0.00000000	      0.00000000	      0.61675778	      7.00348398	      3.91696120	     -0.74012283	      0.01559929	      0.09458984	      0.00000000	      0.00000000	      0.00000000	      0.24455965	      2.98111193	      1.26321288	     -0.08144836	      0.00026368	      0.01667482	      0.00000000	      0.00000000	      0.00000000	    -14.00453256	     22.60779230	     -9.69409433	      2.53563799	      0.43524452	     -2.50586163	      0.00000000	      0.00000000	      0.00000000	      4.76721451	     11.53264826	     -1.72102785	      0.44035654	     -0.07164536	      0.77927177	      0.00000000	      0.00000000	      0.00000000	     -1.52485695	      7.59728643	     -2.06628237	      0.47991102	     -0.00210709	     -0.34383209	      0.00000000	      0.00000000	      0.00000000	     -0.64337468	      3.26602112	     -0.90585895	      0.06451698	     -0.00137454	     -0.04545907	      0.00000000	      0.00000000	      0.00000000
      7.02666664	     -0.00000000	      0.00000000	      0.00000000	     -0.00000000	     -0.00000000	     -0.00000000	      0.00000000	      0.00000000	      0.00000000	   -220.17644937	  -1905.34885188	    398.72011196	     -0.01937943	      0.02998827	      0.02253019	      0.00000000	      0.00000000	      0.00000000	   -392.78019257	  -1811.67818124	     35.62803990	     -5.59514433	      3.25918474	    -10.90846417	     -0.00722252	     -0.00315595	     -0.00132561	    255.03093263	    -24.12239582	    -26.52499141	     -1.47015493	      0.51005813	     -5.15988199	      0.00000000	      0.00000000	      0.00000000	   -450.97211590	  -2216.44821891	   -134.04045304	      0.61613172	      1.02065111	      0.23324409	      0.00000000	      0.00000000	      0.00000000	   -412.33774256	  -2227.93290513	     65.33377795	    -10.90979358	      1.24405118	    -64.96669966	      0.00000000	      0.00000000	      0.00000000	    176.76726151	    -89.93858322	     38.93840891	      0.84283559	     -1.09184902	      0.57709674	      0.00000000	      0.00000000	      0.00000000	   -190.12686446	  -1189.31743883	   -226.16580515	     -0.02294007	      0.00128249	      0.01880504	      0.00000000	      0.00000000	      0.00000000	   -307.73663446	  -1225.94076786	    -28.41549501	      2.94283021	     -2.33502734	     -7.42539824	     -0.00712861	     -0.00311491	      0.00130837	    144.51318008	     -6.79462669	     40.33548604	      1.74491539	     -0.61511753	     -3.01050324	      0.00000000	      0.00000000	      0.00000000	   -290.50418987	  -1828.32763899	    147.72512144	      1.19435082	     -3.12151772	      0.41922505	      0.00000000	      0.00000000	      0.00000000	   -237.24615007	  -1834.60173593	   -173.48644075	      7.74693675	      1.47026913	    -57.03351637	      0.00000000	      0.00000000	      0.00000000	    130.97577027	   -102.35295804	    -35.85935939	     -0.09540755	      1.76725350	      0.02957982	      0.00000000	      0.00000000	      0.00000000	     35.13111349	    280.88772150	    -19.70824727	     -6.43745830	     -1.16217065	    -19.76771717	      0.00000000	      0.00000000	      0.00000000	     -3.52506446	     29.28063584	      2.33997783	     -0.46850316	     -0.09363951	      0.15990972	      0.00000000	      0.00000000	      0.00000000	      5.90872585	     11.44913981	     -0.66455033	     -0.04432550	      0.06082066	      0.88230186	      0.00000000	      0.00000000	      0.00000000	      0.61097659	      7.49114498	      3.14835250	     -0.61553829	      0.01042392	      0.08066541	      0.00000000	      0.00000000	      0.00000000	      0.20207164	      3.20339982	      1.04723533	     -0.06844794	     -0.00096242	      0.01281438	      0.00000000	      0.00000000	      0.00000000	    -14.01479638	     23.49806782	     -9.11858862	      2.34684663	      0.42596173	     -2.34270992	      0.00000000	      0.00000000	      0.00000000	      5.27423429	     11.50954132	     -1.44372018	      0.40253147	     -0.07201880	      0.86881041	      0.00000000	      0.00000000	      0.00000000	     -1.48349303	      7.60479681	     -2.42328658	      0.54769518	     -0.00057659	     -0.34302793	      0.00000000	      0.00000000	      0.00000000	     -0.65495494	      3.27224500	     -1.03443878	      0.07324643	     -0.00017949	     -0.04689841	      0.00000000	      0.00000000	      0.00000000
      7.07799997	      0.00000000	     -0.00000000	      0.00000000	     -0.00000000	     -0.00000000	      0.00000000	      0.00000000	      0.00000000	      0.00000000	   -214.48072166	  -1875.49171657	    421.10301848	     -0.01446977	      0.03000404	      0.03307356	      0.00000000	      0.00000000	      0.00000000	   -393.18452620	  -1718.44239995	     38.03115811	     -7.32645115	      2.99401222	    -10.62312529	     -0.00722252	     -0.00315595	     -0.00132561	    241.86350226	    -22.70445217	    -24.67492071	     -1.38777745	      0.45807349	     -4.90230089	      0.00000000	      0.00000000	      0.00000000	   -404.91676171	  -2064.79224445	   -126.60192179	      0.78411661	      0.66698702	      0.18641870	      0.00000000	      0.00000000	      0.00000000	   -371.67114008	  -2075.24534920	     42.13699287	    -10.44337738	      1.43685748	    -60.82486909	      0.00000000	      0.00000000	      0.00000000	    171.89920604	    -93.91120276	     39.10641656	      0.69795141	     -0.82712819	      0.48312062	      0.00000000	      0.00000000	      0.00000000	   -184.40300453	  -1288.72883523	   -236.91894210	     -0.02281422	     -0.03017613	      0.03448247	      0.00000000	      0.00000000	      0.00000000	   -318.56137864	  -1251.05683317	    -32.09792437	      4.94507076	     -1.65947202	     -7.92085657	     -0.00712861	     -0.00311491	      0.00130837	    146.45307361	     -8.28872276	     38.36837043	      1.71362133	     -0.54485623	     -3.03573499	      0.00000000	      0.00000000	      0.00000000	   -272.76713959	  -1743.74750400	    140.30743372	      0.67185939	     -2.33977501	      0.33656767	      0.00000000	      0.00000000	      0.00000000	   -221.77748309	  -1748.98415374	   -170.86278529	      6.76576255	      2.23314450	    -54.34806351	      0.00000000	      0.00000000	      0.00000000	    117.19207302	   -104.67741237	    -37.88039004	      0.19070214	      1.53422590	     -0.15647685	      0.00000000	      0.00000000	      0.00000000	     33.91532966	    250.06786006	    -14.98036216	     -3.44812894	     -1.45837197	    -20.19730290	      0.00000000	      0.00000000	      0.00000000	     -0.97165037	     26.33038816	      2.65246219	     -0.62726706	     -0.21703490	      1.43802099	      0.00000000	      0.00000000	      0.00000000	      7.41199150	      9.72367964	     -0.16058731	     -0.11652142	      0.08437883	      1.34725648	      0.00000000	      0.00000000	      0.00000000	      0.16323723	      6.44991848	      4.43999071	     -0.99049921	      0.01613718	     -0.01495763	      0.00000000	      0.00000000	      0.00000000	     -0.01260952	      2.79329603	      2.01162855	     -0.14480854	     -0.00100223	     -0.00304053	      0.00000000	      0.00000000	      0.00000000	    -16.89428566	     21.27123859	     -9.05049801	      2.64938749	      0.46712221	     -4.00188501	      0.00000000	      0.00000000	      0.00000000	      2.48406609	     12.55396666	     -2.11367518	      0.58970315	     -0.05011186	      0.23782529	      0.00000000	      0.00000000	      0.00000000	     -1.21637821	      8.19770738	     -0.38529783	      0.05376268	      0.00877388	     -0.29741040	      0.00000000	      0.00000000	      0.00000000	     -0.56675994	      3.51317627	      0.11124611	     -0.01325111	     -0.00012910	     -0.04138416	      0.00000000	      0.00000000	      0.00000000
      7.12933330	     -0.00000000	      0.00000000	      0.00000000	      0.00000000	      0.00000000	      0.00000000	      0.00000000	      0.00000000	      0.00000000	   -212.75344802	  -1787.35498755	    371.59277709	     -0.00977537	      0.02104943	      0.03038182	      0.00000000	      0.00000000	      0.00000000	   -384.29641821	  -1762.68047245	     28.65479851	     -2.56697419	      3.62653937	    -10.19168398	     -0.00722252	     -0.00315595	     -0.00132561	    234.51743335	    -22.98432285	    -18.34438899	     -1.12464419	      0.37100357	     -4.77623581	      0.00000000	      0.00000000	      0.00000000	   -497.68145522	  -2197.11140189	   -108.31929162	      0.72494525	      0.75886665	      0.18711974	      0.00000000	      0.00000000	      0.00000000	   -464.39753240	  -2207.01729095	     64.53262916	    -10.62958367	      1.28915559	    -62.56265379	      0.00000000	      0.00000000	      0.00000000	    129.55613695	   -108.22180734	     32.33570535	      0.82904887	     -1.25267965	      0.53976637	      0.00000000	      0.00000000	      0.00000000	   -213.17784004	  -1330.61577709	   -214.22479666	     -0.01568258	     -0.04301811	      0.03647015	      0.00000000	      0.00000000	      0.00000000	   -332.87365730	  -1427.45571000	    -19.06517193	      1.48707701	     -2.61532174	     -8.80897500	     -0.00712861	     -0.00311491	      0.00130837	    185.36518589	    -13.34512507	     41.97636544	      1.94432176	     -0.57716233	     -3.84601352	      0.00000000	      0.00000000	      0.00000000	   -321.09571850	  -1831.60573898	    119.34035236	      0.88969055	     -2.60869248	      0.35547667	      0.00000000	      0.00000000	      0.00000000	   -270.83392825	  -1832.52630169	   -209.06235598	      6.41824515	      2.99629660	    -55.81683294	      0.00000000	      0.00000000	      0.00000000	    101.86680402	   -128.18378727	    -34.08596188	      0.39854333	      2.02581916	     -0.33064650	      0.00000000	      0.00000000	      0.00000000	     57.67860354	    305.54229902	    -23.51191939	    -11.41438600	      0.64842343	    -34.75122763	      0.00000000	      0.00000000	      0.00000000	      0.83158089	     34.59265507	      6.07412794	     -1.67037039	     -0.39214952	      2.37202234	      0.00000000	      0.00000000	      0.00000000	     10.03932395	     12.60662235	      0.99158177	     -0.35238865	      0.12995195	      1.81399802	      0.00000000	      0.00000000	      0.00000000	     -0.51667981	      8.40817962	      5.98388384	     -1.32210585	      0.02180298	     -0.15423312	      0.00000000	      0.00000000	      0.00000000	     -0.26836196	      3.62336191	      2.67448467	     -0.19168125	      0.00051508	     -0.02046819	      0.00000000	      0.00000000	      0.00000000	    -14.01757051	     26.96657605	     -7.12663947	      1.58759537	      0.22655078	     -2.17805990	      0.00000000	      0.00000000	      0.00000000	      6.48013456	     12.40699654	      0.01260230	      0.11918411	     -0.06926196	      1.09717342	      0.00000000	      0.00000000	      0.00000000	     -0.80902004	      8.16755378	     -3.47824264	      0.78326874	     -0.00947131	     -0.19451909	      0.00000000	      0.00000000	      0.00000000	     -0.32836344	      3.51490259	     -1.53516841	      0.10969544	     -0.00002433	     -0.02267293	      0.00000000	      0.00000000	      0.00000000
      7.18066664	     -0.00000000	      0.00000000	      0.00000000	     -0.00000000	     -0.00000000	      0.00000000	      0.00000000	      0.00000000	      0.00000000	   -255.63972377	  -1748.70585921	    334.86605559	     -0.02230861	      0.02000620	      0.02165340	      0.00000000	      0.00000000	      0.00000000	   -402.26513276	  -1827.26617775	      0.39287038	      6.95710302	      6.77499218	     -9.54374348	     -0.00722252	     -0.00315595	     -0.00132561	    259.10643541	    -25.79072468	    -18.39308839	     -1.24929482	      0.28890249	     -5.27439349	      0.00000000	      0.00000000	      0.00000000	   -571.94850038	  -2512.70543491	   -169.94385974	     -1.76404833	      4.42118075	      0.55265692	      0.00000000	      0.00000000	      0.00000000	   -527.35151797	  -2528.70879706	     46.02788848	    -15.72799345	      5.96670578	    -72.16586716	      0.00000000	      0.00000000	      0.00000000	    255.93775397	   -151.74899201	     37.86064998	      0.49713884	     -3.17666100	      0.30647763	      0.00000000	      0.00000000	      0.00000000	   -211.36143702	  -1268.26306217	   -189.17705188	     -0.02729530	     -0.03233348	      0.02488337	      0.00000000	      0.00000000	      0.00000000	   -302.21027140	  -1390.66200185	    -20.11144551	     -1.37861447	     -4.26404826	     -6.82356658	     -0.00712861	     -0.00311491	      0.00130837	    102.32448308	     -2.39799677	     33.92643554	      1.44331013	     -0.44602929	     -2.18311366	      0.00000000	      0.00000000	      0.00000000	   -481.05956449	  -2136.51999821	    128.06290496	      2.27047925	     -4.68405192	      0.57387422	      0.00000000	      0.00000000	      0.00000000	   -422.20398099	  -2139.26908831	   -248.56770454	      8.66707076	      1.40993562	    -62.39031170	      0.00000000	      0.00000000	      0.00000000	    177.04767314	   -168.73203277	    -35.84785001	      0.84798120	      3.01456645	     -0.67872978	      0.00000000	      0.00000000	      0.00000000	     49.68781959	    314.73966769	    -19.48438281	    -11.00286100	     -4.70056146	    -29.38756270	      0.00000000	      0.00000000	      0.00000000	     -2.48268706	     34.65979474	      4.07777101	     -1.11755129	     -0.32984482	      1.19360425	      0.00000000	      0.00000000	      0.00000000	      8.55604901	     13.26391515	      0.26889329	     -0.27626636	      0.09764152	      1.47444603	      0.00000000	      0.00000000	      0.00000000	     -0.01894265	      8.77182387	      4.90792523	     -1.06409471	      0.01232434	     -0.08547865	      0.00000000	      0.00000000	      0.00000000	     -0.17398373	      3.77577742	      2.07535615	     -0.14672438	     -0.00198257	     -0.01684647	      0.00000000	      0.00000000	      0.00000000	    -13.22889001	     28.25961666	     -7.33339478	      1.75305566	      0.20730441	     -2.09537088	      0.00000000	      0.00000000	      0.00000000	      6.61250111	     12.31970299	     -0.23147280	      0.15003552	     -0.08399550	      1.00303691	      0.00000000	      0.00000000	      0.00000000	     -0.92664481	      8.14919579	     -3.34019613	      0.68095812	     -0.01451935	     -0.17850900	      0.00000000	      0.00000000	      0.00000000	     -0.23393223	      3.48953046	     -1.21292442	      0.08150235	     -0.00314904	     -0.01227462	      0.00000000	      0.00000000	      0.00000000
      7.23199997	      0.00000000	     -0.00000000	     -0.00000000	     -0.00000000	     -0.00000000	      0.00000000	      0.00000000	      0.00000000	      0.00000000	   -161.76745666	  -1088.29454799	    263.97955436	     -0.02547337	      0.01478395	      0.02455113	      0.00000000	      0.00000000	      0.00000000	   -309.88551972	  -1147.00539622	     19.69700614	     -2.08635197	      2.79843964	     -7.05913046	     -0.00722252	     -0.00315595	     -0.00132561	    142.16262603	     -7.92632987	    -21.49679870	     -0.60311185	      0.76922073	     -3.23062887	      0.00000000	      0.00000000	      0.00000000	   -372.81784803	  -1468.82823822	    -55.34154276	      0.22990259	      0.83024233	      0.14292757	      0.00000000	      0.00000000	      0.00000000	   -348.80012915	  -1474.44289359	     78.06816212	     -6.42307898	      0.20485246	    -40.56317354	      0.00000000	      0.00000000	      0.00000000	     70.19185423	    -91.79879663	     17.72263771	      0.72258941	     -1.41259499	      0.51281751	      0.00000000	      0.00000000	      0.00000000	   -170.68067119	  -1083.37577181	   -150.19741245	     -0.03645471	     -0.01610499	      0.01544698	      0.00000000	      0.00000000	      0.00000000	   -266.64685583	  -1114.99392208	    -17.48638368	      2.52268217	     -2.71018452	     -5.98269307	     -0.00712861	     -0.00311491	      0.00130837	     91.85992832	     -6.51276990	     18.16711301	      0.72905290	     -0.37959850	     -1.99442315	      0.00000000	      0.00000000	      0.00000000	   -361.16425425	  -1584.90044135	     55.42766939	      1.01089666	     -2.46426857	      0.33839696	      0.00000000	      0.00000000	      0.00000000	   -323.91006229	  -1578.65899087	   -225.04010936	      4.52326117	      3.35989819	    -45.28364384	      0.00000000	      0.00000000	      0.00000000	     77.60872140	   -147.08536401	    -21.44365132	      0.93605006	      1.61718196	     -0.69933955	      0.00000000	      0.00000000	      0.00000000	     31.39004287	    241.20710011	     -2.81883295	     -0.74178511	     -0.29234662	    -19.19698629	      0.00000000	      0.00000000	      0.00000000	     -1.80869675	     24.75535038	      3.27941505	     -0.66992456	     -0.10906738	      0.59929523	      0.00000000	      0.00000000	      0.00000000	      5.61749548	      9.42014940	     -0.30086385	     -0.05587512	      0.06181753	      0.88435365	      0.00000000	      0.00000000	      0.00000000	      0.40740595	      6.18787840	      3.08926980	     -0.62243675	      0.01246156	      0.06321176	      0.00000000	      0.00000000	      0.00000000	      0.18459104	      2.64945290	      1.12118540	     -0.07555476	     -0.00020528	      0.01341553	      0.00000000	      0.00000000	      0.00000000	    -13.01720713	     20.79080616	     -6.13357849	      1.64840950	      0.30715735	     -2.59632683	      0.00000000	      0.00000000	      0.00000000	      4.03721418	     10.25013814	     -0.76339176	      0.30411806	     -0.05288060	      0.54884971	      0.00000000	      0.00000000	      0.00000000	     -0.86237283	      6.76058371	     -1.69365962	      0.31825457	      0.00157324	     -0.21256263	      0.00000000	      0.00000000	      0.00000000	     -0.39446490	      2.89448188	     -0.45661099	      0.02714752	      0.00007394	     -0.02871292	      0.00000000	      0.00000000	      0.00000000
