Joint Reaction Loads
version=1
nRows=25
nColumns=199
inDegrees=no

This file contains the reaction forces and moments
applied to the specified body of a joint pair and expressed  in the specified reference frame.

Units are S.I. units (seconds, meters, Newtons, ...)
endheader
time	ground_pelvis_on_pelvis_in_pelvis_fx	ground_pelvis_on_pelvis_in_pelvis_fy	ground_pelvis_on_pelvis_in_pelvis_fz	ground_pelvis_on_pelvis_in_pelvis_mx	ground_pelvis_on_pelvis_in_pelvis_my	ground_pelvis_on_pelvis_in_pelvis_mz	ground_pelvis_on_pelvis_in_pelvis_px	ground_pelvis_on_pelvis_in_pelvis_py	ground_pelvis_on_pelvis_in_pelvis_pz	hip_r_on_femur_r_in_femur_r_fx	hip_r_on_femur_r_in_femur_r_fy	hip_r_on_femur_r_in_femur_r_fz	hip_r_on_femur_r_in_femur_r_mx	hip_r_on_femur_r_in_femur_r_my	hip_r_on_femur_r_in_femur_r_mz	hip_r_on_femur_r_in_femur_r_px	hip_r_on_femur_r_in_femur_r_py	hip_r_on_femur_r_in_femur_r_pz	walker_knee_r_on_tibia_r_in_tibia_r_fx	walker_knee_r_on_tibia_r_in_tibia_r_fy	walker_knee_r_on_tibia_r_in_tibia_r_fz	walker_knee_r_on_tibia_r_in_tibia_r_mx	walker_knee_r_on_tibia_r_in_tibia_r_my	walker_knee_r_on_tibia_r_in_tibia_r_mz	walker_knee_r_on_tibia_r_in_tibia_r_px	walker_knee_r_on_tibia_r_in_tibia_r_py	walker_knee_r_on_tibia_r_in_tibia_r_pz	patellofemoral_r_on_patella_r_in_patella_r_fx	patellofemoral_r_on_patella_r_in_patella_r_fy	patellofemoral_r_on_patella_r_in_patella_r_fz	patellofemoral_r_on_patella_r_in_patella_r_mx	patellofemoral_r_on_patella_r_in_patella_r_my	patellofemoral_r_on_patella_r_in_patella_r_mz	patellofemoral_r_on_patella_r_in_patella_r_px	patellofemoral_r_on_patella_r_in_patella_r_py	patellofemoral_r_on_patella_r_in_patella_r_pz	ankle_r_on_talus_r_in_talus_r_fx	ankle_r_on_talus_r_in_talus_r_fy	ankle_r_on_talus_r_in_talus_r_fz	ankle_r_on_talus_r_in_talus_r_mx	ankle_r_on_talus_r_in_talus_r_my	ankle_r_on_talus_r_in_talus_r_mz	ankle_r_on_talus_r_in_talus_r_px	ankle_r_on_talus_r_in_talus_r_py	ankle_r_on_talus_r_in_talus_r_pz	subtalar_r_on_calcn_r_in_calcn_r_fx	subtalar_r_on_calcn_r_in_calcn_r_fy	subtalar_r_on_calcn_r_in_calcn_r_fz	subtalar_r_on_calcn_r_in_calcn_r_mx	subtalar_r_on_calcn_r_in_calcn_r_my	subtalar_r_on_calcn_r_in_calcn_r_mz	subtalar_r_on_calcn_r_in_calcn_r_px	subtalar_r_on_calcn_r_in_calcn_r_py	subtalar_r_on_calcn_r_in_calcn_r_pz	mtp_r_on_toes_r_in_toes_r_fx	mtp_r_on_toes_r_in_toes_r_fy	mtp_r_on_toes_r_in_toes_r_fz	mtp_r_on_toes_r_in_toes_r_mx	mtp_r_on_toes_r_in_toes_r_my	mtp_r_on_toes_r_in_toes_r_mz	mtp_r_on_toes_r_in_toes_r_px	mtp_r_on_toes_r_in_toes_r_py	mtp_r_on_toes_r_in_toes_r_pz	hip_l_on_femur_l_in_femur_l_fx	hip_l_on_femur_l_in_femur_l_fy	hip_l_on_femur_l_in_femur_l_fz	hip_l_on_femur_l_in_femur_l_mx	hip_l_on_femur_l_in_femur_l_my	hip_l_on_femur_l_in_femur_l_mz	hip_l_on_femur_l_in_femur_l_px	hip_l_on_femur_l_in_femur_l_py	hip_l_on_femur_l_in_femur_l_pz	walker_knee_l_on_tibia_l_in_tibia_l_fx	walker_knee_l_on_tibia_l_in_tibia_l_fy	walker_knee_l_on_tibia_l_in_tibia_l_fz	walker_knee_l_on_tibia_l_in_tibia_l_mx	walker_knee_l_on_tibia_l_in_tibia_l_my	walker_knee_l_on_tibia_l_in_tibia_l_mz	walker_knee_l_on_tibia_l_in_tibia_l_px	walker_knee_l_on_tibia_l_in_tibia_l_py	walker_knee_l_on_tibia_l_in_tibia_l_pz	patellofemoral_l_on_patella_l_in_patella_l_fx	patellofemoral_l_on_patella_l_in_patella_l_fy	patellofemoral_l_on_patella_l_in_patella_l_fz	patellofemoral_l_on_patella_l_in_patella_l_mx	patellofemoral_l_on_patella_l_in_patella_l_my	patellofemoral_l_on_patella_l_in_patella_l_mz	patellofemoral_l_on_patella_l_in_patella_l_px	patellofemoral_l_on_patella_l_in_patella_l_py	patellofemoral_l_on_patella_l_in_patella_l_pz	ankle_l_on_talus_l_in_talus_l_fx	ankle_l_on_talus_l_in_talus_l_fy	ankle_l_on_talus_l_in_talus_l_fz	ankle_l_on_talus_l_in_talus_l_mx	ankle_l_on_talus_l_in_talus_l_my	ankle_l_on_talus_l_in_talus_l_mz	ankle_l_on_talus_l_in_talus_l_px	ankle_l_on_talus_l_in_talus_l_py	ankle_l_on_talus_l_in_talus_l_pz	subtalar_l_on_calcn_l_in_calcn_l_fx	subtalar_l_on_calcn_l_in_calcn_l_fy	subtalar_l_on_calcn_l_in_calcn_l_fz	subtalar_l_on_calcn_l_in_calcn_l_mx	subtalar_l_on_calcn_l_in_calcn_l_my	subtalar_l_on_calcn_l_in_calcn_l_mz	subtalar_l_on_calcn_l_in_calcn_l_px	subtalar_l_on_calcn_l_in_calcn_l_py	subtalar_l_on_calcn_l_in_calcn_l_pz	mtp_l_on_toes_l_in_toes_l_fx	mtp_l_on_toes_l_in_toes_l_fy	mtp_l_on_toes_l_in_toes_l_fz	mtp_l_on_toes_l_in_toes_l_mx	mtp_l_on_toes_l_in_toes_l_my	mtp_l_on_toes_l_in_toes_l_mz	mtp_l_on_toes_l_in_toes_l_px	mtp_l_on_toes_l_in_toes_l_py	mtp_l_on_toes_l_in_toes_l_pz	back_on_torso_in_torso_fx	back_on_torso_in_torso_fy	back_on_torso_in_torso_fz	back_on_torso_in_torso_mx	back_on_torso_in_torso_my	back_on_torso_in_torso_mz	back_on_torso_in_torso_px	back_on_torso_in_torso_py	back_on_torso_in_torso_pz	acromial_r_on_humerus_r_in_humerus_r_fx	acromial_r_on_humerus_r_in_humerus_r_fy	acromial_r_on_humerus_r_in_humerus_r_fz	acromial_r_on_humerus_r_in_humerus_r_mx	acromial_r_on_humerus_r_in_humerus_r_my	acromial_r_on_humerus_r_in_humerus_r_mz	acromial_r_on_humerus_r_in_humerus_r_px	acromial_r_on_humerus_r_in_humerus_r_py	acromial_r_on_humerus_r_in_humerus_r_pz	elbow_r_on_ulna_r_in_ulna_r_fx	elbow_r_on_ulna_r_in_ulna_r_fy	elbow_r_on_ulna_r_in_ulna_r_fz	elbow_r_on_ulna_r_in_ulna_r_mx	elbow_r_on_ulna_r_in_ulna_r_my	elbow_r_on_ulna_r_in_ulna_r_mz	elbow_r_on_ulna_r_in_ulna_r_px	elbow_r_on_ulna_r_in_ulna_r_py	elbow_r_on_ulna_r_in_ulna_r_pz	radioulnar_r_on_radius_r_in_radius_r_fx	radioulnar_r_on_radius_r_in_radius_r_fy	radioulnar_r_on_radius_r_in_radius_r_fz	radioulnar_r_on_radius_r_in_radius_r_mx	radioulnar_r_on_radius_r_in_radius_r_my	radioulnar_r_on_radius_r_in_radius_r_mz	radioulnar_r_on_radius_r_in_radius_r_px	radioulnar_r_on_radius_r_in_radius_r_py	radioulnar_r_on_radius_r_in_radius_r_pz	radius_hand_r_on_hand_r_in_hand_r_fx	radius_hand_r_on_hand_r_in_hand_r_fy	radius_hand_r_on_hand_r_in_hand_r_fz	radius_hand_r_on_hand_r_in_hand_r_mx	radius_hand_r_on_hand_r_in_hand_r_my	radius_hand_r_on_hand_r_in_hand_r_mz	radius_hand_r_on_hand_r_in_hand_r_px	radius_hand_r_on_hand_r_in_hand_r_py	radius_hand_r_on_hand_r_in_hand_r_pz	acromial_l_on_humerus_l_in_humerus_l_fx	acromial_l_on_humerus_l_in_humerus_l_fy	acromial_l_on_humerus_l_in_humerus_l_fz	acromial_l_on_humerus_l_in_humerus_l_mx	acromial_l_on_humerus_l_in_humerus_l_my	acromial_l_on_humerus_l_in_humerus_l_mz	acromial_l_on_humerus_l_in_humerus_l_px	acromial_l_on_humerus_l_in_humerus_l_py	acromial_l_on_humerus_l_in_humerus_l_pz	elbow_l_on_ulna_l_in_ulna_l_fx	elbow_l_on_ulna_l_in_ulna_l_fy	elbow_l_on_ulna_l_in_ulna_l_fz	elbow_l_on_ulna_l_in_ulna_l_mx	elbow_l_on_ulna_l_in_ulna_l_my	elbow_l_on_ulna_l_in_ulna_l_mz	elbow_l_on_ulna_l_in_ulna_l_px	elbow_l_on_ulna_l_in_ulna_l_py	elbow_l_on_ulna_l_in_ulna_l_pz	radioulnar_l_on_radius_l_in_radius_l_fx	radioulnar_l_on_radius_l_in_radius_l_fy	radioulnar_l_on_radius_l_in_radius_l_fz	radioulnar_l_on_radius_l_in_radius_l_mx	radioulnar_l_on_radius_l_in_radius_l_my	radioulnar_l_on_radius_l_in_radius_l_mz	radioulnar_l_on_radius_l_in_radius_l_px	radioulnar_l_on_radius_l_in_radius_l_py	radioulnar_l_on_radius_l_in_radius_l_pz	radius_hand_l_on_hand_l_in_hand_l_fx	radius_hand_l_on_hand_l_in_hand_l_fy	radius_hand_l_on_hand_l_in_hand_l_fz	radius_hand_l_on_hand_l_in_hand_l_mx	radius_hand_l_on_hand_l_in_hand_l_my	radius_hand_l_on_hand_l_in_hand_l_mz	radius_hand_l_on_hand_l_in_hand_l_px	radius_hand_l_on_hand_l_in_hand_l_py	radius_hand_l_on_hand_l_in_hand_l_pz
      6.00000000	      0.00000697	      0.00002791	     -0.00002034	      0.00001960	      0.00000198	      0.00000562	      0.00000000	      0.00000000	      0.00000000	    -32.48901130	     65.90273048	      8.15213521	     -6.23924087	     -0.11709585	    -18.62378453	      0.00000000	      0.00000000	      0.00000000	    -23.30386136	     -3.87694059	      7.80909623	     -2.69491642	     -0.74243942	     -8.99449712	     -0.00722252	     -0.00315595	     -0.00132561	     -0.07561363	      0.60920801	     -0.00514424	     -0.00012155	      0.00003987	      0.00274669	      0.00000000	      0.00000000	      0.00000000	    -26.54507362	    -20.44792258	      7.86873228	     -0.44347182	     -0.52969724	     -2.34262483	      0.00000000	      0.00000000	      0.00000000	    -26.78440085	    -20.98492179	      7.82424920	     -0.24034067	     -0.76408612	     -2.25672860	      0.00000000	      0.00000000	      0.00000000	     -3.76308112	     -3.80943469	      2.53708837	     -0.05743322	     -0.14214614	     -0.36436713	      0.00000000	      0.00000000	      0.00000000	     67.25394737	   -398.49576806	    -21.06731977	      8.14896169	     -1.47430647	     36.17610628	      0.00000000	      0.00000000	      0.00000000	    124.23895553	   -457.73910803	    -19.61375148	      1.59879380	     -1.50410526	      8.18433143	     -0.00712861	     -0.00311491	      0.00130837	     -0.07716469	      0.64316804	     -0.06661769	     -0.00156134	      0.00012954	      0.00284390	      0.00000000	      0.00000000	      0.00000000	      1.51840889	   -502.60364137	     -0.64588735	     -2.88107169	     -1.45144001	    -37.55170618	      0.00000000	      0.00000000	      0.00000000	      6.69238767	   -501.35924233	    -44.37148649	     -3.72016470	      3.32381945	    -54.98680680	      0.00000000	      0.00000000	      0.00000000	     65.37072428	   -176.05015117	    -31.65191076	     -1.10623571	      0.05918471	     -5.38931357	      0.00000000	      0.00000000	      0.00000000	     30.05274471	    243.33988049	     42.61916919	     19.76494711	      6.01170750	    -21.82024273	      0.00000000	      0.00000000	      0.00000000	     -2.53778078	     21.98671909	      5.54778798	     -1.00204686	      0.07796965	     -0.82584437	      0.00000000	      0.00000000	      0.00000000	      2.32519373	      9.49555853	     -0.30932708	      0.03734271	      0.01792865	      0.07056281	      0.00000000	      0.00000000	      0.00000000	      0.62143038	      6.14213377	      0.70273908	     -0.00533248	      0.00346483	      0.19128702	      0.00000000	      0.00000000	      0.00000000	      0.56444625	      2.62662695	     -0.34680467	      0.03706745	     -0.00062475	      0.04862029	      0.00000000	      0.00000000	      0.00000000	    -13.92989772	     22.87587507	     -5.42769368	      1.31623117	      0.31639287	     -1.72967845	      0.00000000	      0.00000000	      0.00000000	      6.52851788	     10.98320389	     -0.17984146	      0.17191308	     -0.08133639	      1.30396502	      0.00000000	      0.00000000	      0.00000000	     -0.50892618	      7.23553511	     -3.99214695	      0.99072254	     -0.01825940	     -0.16751417	      0.00000000	      0.00000000	      0.00000000	     -0.32847258	      3.16250132	     -2.14236257	      0.16015328	     -0.00152348	     -0.02677437	      0.00000000	      0.00000000	      0.00000000
      6.05133333	      0.00008546	      0.00000644	     -0.00002233	      0.00002213	      0.00001171	      0.00007791	      0.00000000	      0.00000000	      0.00000000	    -29.24270277	     97.46052147	     12.33312807	     -5.83458121	     -0.01354373	    -17.76926448	      0.00000000	      0.00000000	      0.00000000	    -25.65496118	     13.54760221	      6.50394678	     -2.04682177	     -0.36722818	     -7.92559656	     -0.00722252	     -0.00315595	     -0.00132561	     -0.12969571	      0.72870919	      0.05889517	      0.00137439	     -0.00011198	      0.00413865	      0.00000000	      0.00000000	      0.00000000	    -18.78921852	    -10.76844366	      5.18730172	     -0.28733370	     -0.18059129	     -1.31461595	      0.00000000	      0.00000000	      0.00000000	    -18.81754381	    -11.63894513	      5.00475117	     -0.17605684	     -0.28364028	     -1.14813710	      0.00000000	      0.00000000	      0.00000000	     -2.54504083	     -1.64831822	      0.75604345	     -0.02031630	     -0.01361379	     -0.21490035	      0.00000000	      0.00000000	      0.00000000	     56.71538301	   -494.15687045	    -36.40381392	     23.21432141	     -2.73675202	     25.03768973	      0.00000000	      0.00000000	      0.00000000	    113.80132999	   -568.71649930	    -42.88311086	      9.03280999	     -1.89640339	      3.36507802	     -0.00712861	     -0.00311491	      0.00130837	     -0.04676608	      0.77038356	     -0.03629906	     -0.00084662	      0.00010810	      0.00226397	      0.00000000	      0.00000000	      0.00000000	    -38.34493148	   -613.21153276	    -22.25911819	     -3.59543266	     -1.68441119	    -39.01511417	      0.00000000	      0.00000000	      0.00000000	    -33.60262552	   -610.80953079	    -69.88325410	     -4.50306668	      3.66645406	    -59.05841774	      0.00000000	      0.00000000	      0.00000000	      1.78025802	   -146.09411653	     -1.78794682	     -1.48962134	     -0.20426336	     -5.86819701	      0.00000000	      0.00000000	      0.00000000	     21.05385260	    290.73057924	     53.70011207	     23.59059154	      6.18323314	    -11.33039282	      0.00000000	      0.00000000	      0.00000000	     -3.62013460	     29.84088989	      6.90614194	     -1.58149824	     -0.24711729	      0.39059249	      0.00000000	      0.00000000	      0.00000000	      6.62785801	     13.02406697	      0.50940796	     -0.21005098	      0.06815911	      1.16093085	      0.00000000	      0.00000000	      0.00000000	     -0.20118576	      8.63257380	      3.75221267	     -0.86087664	      0.00694545	     -0.05442112	      0.00000000	      0.00000000	      0.00000000	     -0.01235666	      3.87103003	      1.70159938	     -0.12297505	     -0.00402787	      0.00146503	      0.00000000	      0.00000000	      0.00000000	    -27.05306518	     25.69503091	     -5.88067664	      1.49445192	      0.22262434	     -6.09069615	      0.00000000	      0.00000000	      0.00000000	      3.02163806	     17.25980218	      0.29079804	      0.21500578	     -0.02605577	      0.58112149	      0.00000000	      0.00000000	      0.00000000	      0.43523850	     11.07391557	     -1.56593176	      0.49784395	     -0.00519397	     -0.02675418	      0.00000000	      0.00000000	      0.00000000	     -0.06784388	      4.80749856	     -1.05075720	      0.08201760	      0.00162071	     -0.01201879	      0.00000000	      0.00000000	      0.00000000
      6.10266666	     -0.00000486	      0.00000712	      0.00000698	     -0.00000280	     -0.00000011	     -0.00000450	      0.00000000	      0.00000000	      0.00000000	     -5.12499809	     90.61337768	      5.06183288	      0.09947326	     -0.21642633	     -3.67598210	      0.00000000	      0.00000000	      0.00000000	     -5.60984356	     23.91137512	     -1.91985940	      0.24828976	     -0.15943839	     -2.70251616	     -0.00722252	     -0.00315595	     -0.00132561	      0.03909779	      0.61137366	      0.01305605	      0.00031227	     -0.00003922	      0.00011026	      0.00000000	      0.00000000	      0.00000000	     -5.65330369	     -0.33665185	      0.59689663	     -0.23597923	     -0.05481413	     -1.02504003	      0.00000000	      0.00000000	      0.00000000	     -5.91634760	     -1.00169342	      0.68491541	     -0.21826333	     -0.05033441	     -0.88176138	      0.00000000	      0.00000000	      0.00000000	     -3.06055158	     -2.60150061	      0.76099343	     -0.07251614	      0.00141439	     -0.30735469	      0.00000000	      0.00000000	      0.00000000	     32.03567255	   -398.64420719	    -28.39217351	     20.60643459	     -2.22083058	     17.94257532	      0.00000000	      0.00000000	      0.00000000	     85.22049055	   -451.10639741	    -37.87263466	      8.55499235	     -1.40713480	      3.08232463	     -0.00712861	     -0.00311491	      0.00130837	     -0.12130507	      0.54938513	      0.02146524	      0.00050562	     -0.00000538	      0.00367110	      0.00000000	      0.00000000	      0.00000000	    -30.30719843	   -482.69851902	    -24.04578230	     -3.25342753	     -1.07223400	    -29.20115694	      0.00000000	      0.00000000	      0.00000000	    -26.81140089	   -479.86663495	    -64.13043586	     -4.27135485	      3.48480561	    -44.86843912	      0.00000000	      0.00000000	      0.00000000	    -13.86757146	    -98.66969203	      5.18797410	     -1.35701345	     -0.19956679	     -4.37142512	      0.00000000	      0.00000000	      0.00000000	     23.12060768	    227.45918897	     37.29789561	     12.58206519	      2.90488781	    -17.55435424	      0.00000000	      0.00000000	      0.00000000	     -1.56358490	     25.39579189	      5.72624830	     -1.56497661	     -0.35328085	      1.01309427	      0.00000000	      0.00000000	      0.00000000	      6.43501557	     10.74781791	      1.10544257	     -0.36383965	      0.07093132	      1.14677024	      0.00000000	      0.00000000	      0.00000000	     -0.71425688	      7.22294252	      3.64876601	     -0.82825276	      0.00041246	     -0.20227063	      0.00000000	      0.00000000	      0.00000000	     -0.39108254	      3.25728597	      1.64815721	     -0.11901743	     -0.00435573	     -0.03057584	      0.00000000	      0.00000000	      0.00000000	    -14.48683511	     18.41868884	     -2.03460800	      0.30361159	     -0.08413216	     -3.07617539	      0.00000000	      0.00000000	      0.00000000	      2.79443191	      9.81925292	      1.30218555	     -0.10610374	     -0.02335104	      0.36912531	      0.00000000	      0.00000000	      0.00000000	      0.88790178	      6.33181999	     -1.43763033	      0.29333138	     -0.01392170	      0.15130233	      0.00000000	      0.00000000	      0.00000000	      0.35905861	      2.73146352	     -0.46018784	      0.02944879	     -0.00217337	      0.02432010	      0.00000000	      0.00000000	      0.00000000
      6.15400000	     -0.00000689	      0.00001091	     -0.00000931	      0.00000918	      0.00000046	     -0.00000508	      0.00000000	      0.00000000	      0.00000000	    -13.17722480	    105.17795774	      7.31972751	     -0.55563626	      0.04591341	     -3.85594703	      0.00000000	      0.00000000	      0.00000000	     -3.65466996	     26.83491509	     -0.75252426	      0.27192053	      0.02878467	     -2.52582818	     -0.00722252	     -0.00315595	     -0.00132561	      0.00319637	      0.72160119	      0.03570148	      0.00083817	     -0.00004505	      0.00117251	      0.00000000	      0.00000000	      0.00000000	     -3.30646686	     -3.04089519	     -0.86019906	     -0.14422705	      0.11885673	     -1.80007181	      0.00000000	      0.00000000	      0.00000000	     -3.58177500	     -3.79863894	     -0.87721193	     -0.22625541	      0.21525830	     -1.82769134	      0.00000000	      0.00000000	      0.00000000	     -4.46034247	     -9.00519569	     -0.14538124	     -0.14624400	      0.07725728	     -0.68529349	      0.00000000	      0.00000000	      0.00000000	     53.46613549	   -501.63475627	    -33.59454257	     18.55833125	     -1.72815350	     36.51373219	      0.00000000	      0.00000000	      0.00000000	    118.17481226	   -569.11659329	    -37.71654445	      5.68327486	     -1.44264523	     10.24152632	     -0.00712861	     -0.00311491	      0.00130837	     -0.17925507	      0.69264674	     -0.02762004	     -0.00064530	      0.00008361	      0.00531898	      0.00000000	      0.00000000	      0.00000000	    -20.28951493	   -612.16711164	    -18.61849420	     -5.36894700	     -0.67168634	    -34.31423372	      0.00000000	      0.00000000	      0.00000000	    -14.39102089	   -607.94710043	    -81.86250150	     -6.95530734	      5.59229921	    -54.46665350	      0.00000000	      0.00000000	      0.00000000	    -13.26126403	   -112.51008573	      0.91111298	     -1.75416212	      0.05847619	     -4.77922952	      0.00000000	      0.00000000	      0.00000000	     48.51620828	    294.02732874	     42.68515889	     14.55099039	      3.32816632	    -36.45902273	      0.00000000	      0.00000000	      0.00000000	      2.72300778	     32.34753067	      8.81860254	     -2.47999567	     -0.46243864	      3.25059822	      0.00000000	      0.00000000	      0.00000000	     10.62551353	     12.26470044	      2.15384082	     -0.53189493	      0.15299934	      1.96196785	      0.00000000	      0.00000000	      0.00000000	     -1.46065079	      8.35541449	      6.34196979	     -1.42188350	      0.02617214	     -0.33108630	      0.00000000	      0.00000000	      0.00000000	     -0.58596134	      3.72893624	      2.91570894	     -0.21046871	      0.00361326	     -0.04277072	      0.00000000	      0.00000000	      0.00000000	    -21.02999786	     23.34210772	     -7.19190309	      2.19293101	      0.24856441	     -5.40174398	      0.00000000	      0.00000000	      0.00000000	      1.76324715	     14.27421367	     -1.13084709	      0.42866495	     -0.04093547	     -0.05785603	      0.00000000	      0.00000000	      0.00000000	     -0.32730053	      9.24012996	     -0.01216826	     -0.11845202	      0.00169928	     -0.09992403	      0.00000000	      0.00000000	      0.00000000	     -0.11954646	      3.93234090	      0.63464989	     -0.05762470	     -0.00272971	     -0.00854918	      0.00000000	      0.00000000	      0.00000000
      6.20533333	     -0.00000363	      0.00000960	     -0.00000017	      0.00000173	     -0.00000019	     -0.00000228	      0.00000000	      0.00000000	      0.00000000	     -8.96052573	     95.70517164	      4.76160064	      1.60922829	      0.55457970	      1.94204409	      0.00000000	      0.00000000	      0.00000000	      1.86501789	     29.65856648	     -2.97365264	      1.41378686	      0.68008761	      2.35385689	     -0.00722252	     -0.00315595	     -0.00132561	     -0.13344406	      0.62394539	      0.04186812	      0.00098014	     -0.00003328	      0.00409618	      0.00000000	      0.00000000	      0.00000000	     10.08390241	      1.51021363	     -4.92348712	      0.26897448	      0.63828566	     -0.04506304	      0.00000000	      0.00000000	      0.00000000	      9.82582332	      1.01662647	     -5.36971036	      0.11692368	      0.77185362	     -0.28747135	      0.00000000	      0.00000000	      0.00000000	      6.58809016	     -5.61391620	     -4.51730089	      0.07376415	      0.10013978	     -0.04812085	      0.00000000	      0.00000000	      0.00000000	     42.43463790	   -438.23983286	    -35.24286592	     21.90606064	     -0.82609676	     16.31443797	      0.00000000	      0.00000000	      0.00000000	     68.72771247	   -508.79960349	    -39.79594500	      7.54487696	     -0.43387531	     -2.44472803	     -0.00712861	     -0.00311491	      0.00130837	     -0.01910901	      0.66015822	      0.00849603	      0.00020163	     -0.00001135	      0.00154077	      0.00000000	      0.00000000	      0.00000000	    -56.91376311	   -540.37928688	    -25.28628984	     -4.49137779	      0.22710484	    -28.29645327	      0.00000000	      0.00000000	      0.00000000	    -51.87230533	   -534.26504925	    -92.86340521	     -6.97233222	      6.82767003	    -44.50162230	      0.00000000	      0.00000000	      0.00000000	    -19.46006589	    -76.71157906	     -0.00660028	     -1.83547578	      0.39373669	     -3.51843586	      0.00000000	      0.00000000	      0.00000000	     33.11330536	    252.41056136	     38.14342227	     11.28976776	      1.15854261	    -18.23708039	      0.00000000	      0.00000000	      0.00000000	     -5.19673623	     26.45595125	      6.95749953	     -2.04678641	     -0.24816750	     -0.22058593	      0.00000000	      0.00000000	      0.00000000	      4.54118506	     12.01699384	      1.73092017	     -0.45153098	      0.07872706	      0.76154589	      0.00000000	      0.00000000	      0.00000000	     -0.83289975	      7.93379936	      2.42729405	     -0.55964233	      0.01290602	     -0.19464790	      0.00000000	      0.00000000	      0.00000000	     -0.30777745	      3.50042121	      1.06679952	     -0.07601176	      0.00349551	     -0.02202383	      0.00000000	      0.00000000	      0.00000000	    -19.82942348	     21.86436519	     -5.85208934	      1.55669015	      0.16466346	     -4.47311739	      0.00000000	      0.00000000	      0.00000000	      3.29946341	     13.45031091	     -0.12109477	      0.18869589	     -0.03951801	      0.48617650	      0.00000000	      0.00000000	      0.00000000	     -0.03285630	      8.69185686	     -1.56412673	      0.37066242	     -0.00399847	     -0.04947057	      0.00000000	      0.00000000	      0.00000000	     -0.04537106	      3.73773438	     -0.64486220	      0.04530257	      0.00059700	     -0.00383416	      0.00000000	      0.00000000	      0.00000000
      6.25666666	      0.00000116	      0.00000682	      0.00000217	     -0.00000102	     -0.00000008	      0.00000105	      0.00000000	      0.00000000	      0.00000000	      2.53120930	     83.99719953	     -8.94522773	      4.94043662	     -0.01988870	      3.14391134	      0.00000000	      0.00000000	      0.00000000	      2.16835919	     29.43215884	     -7.04263673	      1.76518264	      0.27890340	      1.49051159	     -0.00722252	     -0.00315595	     -0.00132561	      0.00059114	      0.52117586	     -0.05146750	     -0.00119751	      0.00007490	      0.00082841	      0.00000000	      0.00000000	      0.00000000	      4.74249211	      6.62417150	     -3.19653202	      0.04547136	      0.24740883	      0.30101182	      0.00000000	      0.00000000	      0.00000000	      4.44709069	      6.23038646	     -2.87158676	      0.01144156	      0.30060523	      0.40185360	      0.00000000	      0.00000000	      0.00000000	      1.49535657	     -0.03672235	     -1.15924435	      0.03140277	      0.02398693	      0.01639055	      0.00000000	      0.00000000	      0.00000000	     27.34063854	   -367.10509860	    -21.03600161	      8.80678251	     -2.37368522	      0.12106353	      0.00000000	      0.00000000	      0.00000000	     34.03476584	   -429.35915491	    -20.11004784	      0.75157960	     -2.24787174	    -11.59186136	     -0.00712861	     -0.00311491	      0.00130837	      0.01754511	      0.56417828	     -0.00316528	     -0.00007415	     -0.00002146	      0.00051840	      0.00000000	      0.00000000	      0.00000000	    -73.76184080	   -449.85750505	     -8.74087344	     -5.01321056	     -1.50722119	    -24.69805521	      0.00000000	      0.00000000	      0.00000000	    -67.55711293	   -444.62743349	    -79.05255616	     -7.94476359	      4.97882449	    -37.19258216	      0.00000000	      0.00000000	      0.00000000	    -16.51468120	    -58.71175379	      5.38331536	     -2.36070159	      0.33503409	     -2.62567865	      0.00000000	      0.00000000	      0.00000000	     24.24467141	    208.99666149	     39.32017445	     19.20987336	     -0.72895518	     -8.42632726	      0.00000000	      0.00000000	      0.00000000	     -0.55202442	     20.72239693	      4.53876991	     -1.08241394	     -0.18624355	      2.17532694	      0.00000000	      0.00000000	      0.00000000	      7.34550602	      8.52710180	      0.58879853	     -0.14784394	      0.10054630	      1.60269000	      0.00000000	      0.00000000	      0.00000000	     -0.34449506	      5.71168074	      4.89857391	     -1.25346687	      0.02995772	     -0.06776976	      0.00000000	      0.00000000	      0.00000000	     -0.04555228	      2.58930933	      2.83165480	     -0.21492191	      0.00216431	     -0.00108744	      0.00000000	      0.00000000	      0.00000000	    -15.76693523	     21.68285121	     -3.97308325	      1.00095267	      0.28726799	     -2.51820162	      0.00000000	      0.00000000	      0.00000000	      5.87033835	     11.46177918	      0.21896934	      0.13690143	     -0.06232082	      1.18646893	      0.00000000	      0.00000000	      0.00000000	     -0.56944006	      7.51876922	     -3.55610263	      0.90158436	     -0.00770748	     -0.22001962	      0.00000000	      0.00000000	      0.00000000	     -0.49614362	      3.27835917	     -1.95022903	      0.14668055	      0.00147013	     -0.04207403	      0.00000000	      0.00000000	      0.00000000
      6.30799999	      0.00000166	      0.00000597	      0.00000069	      0.00000076	     -0.00000019	      0.00000168	      0.00000000	      0.00000000	      0.00000000	     20.52081410	    111.93104843	     -2.74523290	      3.65168236	      0.23184290	     10.56071481	      0.00000000	      0.00000000	      0.00000000	     10.46909283	     40.97261165	     -5.62848300	      1.45872033	      0.33644158	      3.51053710	     -0.00722252	     -0.00315595	     -0.00132561	      0.15312159	      0.68216582	     -0.04409807	     -0.00102335	      0.00013330	     -0.00240418	      0.00000000	      0.00000000	      0.00000000	      8.11723963	      9.19801986	     -3.00531005	      0.03755630	      0.26641416	      0.47700256	      0.00000000	      0.00000000	      0.00000000	      7.65198190	      8.58757327	     -2.71166002	      0.03050830	      0.27860458	      0.56586715	      0.00000000	      0.00000000	      0.00000000	      1.79577821	      0.47196485	     -1.04757848	      0.03819675	      0.01710654	      0.02600927	      0.00000000	      0.00000000	      0.00000000	     34.86827089	   -463.47931586	    -33.82402133	     20.54976264	     -2.14950003	      3.93385314	      0.00000000	      0.00000000	      0.00000000	     49.93325545	   -536.93466446	    -37.19223172	      6.71277765	     -1.98574732	    -13.35424525	     -0.00712861	     -0.00311491	      0.00130837	     -0.10004016	      0.67350313	      0.02910530	      0.00068269	     -0.00006033	      0.00342936	      0.00000000	      0.00000000	      0.00000000	    -76.11913130	   -564.35324719	    -24.37240749	     -4.77654620	     -1.43551417	    -33.04646160	      0.00000000	      0.00000000	      0.00000000	    -70.72427865	   -550.19941141	   -134.42878213	    -10.79449209	      9.63020493	    -48.46595337	      0.00000000	      0.00000000	      0.00000000	    -16.28927386	    -87.16822818	     -1.59423370	     -3.54447567	      0.63306684	     -3.51062122	      0.00000000	      0.00000000	      0.00000000	     30.20251412	    260.23407288	     38.75243500	     15.51287475	     -3.01345753	    -16.89981062	      0.00000000	      0.00000000	      0.00000000	      0.57032948	     25.69543611	      4.71367734	     -1.24738994	     -0.20000395	      2.94499643	      0.00000000	      0.00000000	      0.00000000	      8.87996955	     10.08321298	      0.85353817	     -0.24055646	      0.13237618	      1.85497972	      0.00000000	      0.00000000	      0.00000000	     -0.60153095	      6.72468823	      5.76551803	     -1.42295108	      0.03940802	     -0.14131751	      0.00000000	      0.00000000	      0.00000000	     -0.20804221	      2.94865807	      3.15416354	     -0.23639402	      0.00630530	     -0.01448582	      0.00000000	      0.00000000	      0.00000000	    -18.28399518	     24.48985828	     -3.26941549	      0.80571745	      0.15756572	     -3.62007310	      0.00000000	      0.00000000	      0.00000000	      4.90428790	     12.97807615	      0.78588560	      0.07985304	     -0.05066991	      0.80734410	      0.00000000	      0.00000000	      0.00000000	      0.03028889	      8.46015315	     -2.66287424	      0.59993062	     -0.01055853	     -0.08484151	      0.00000000	      0.00000000	      0.00000000	     -0.18234740	      3.64706463	     -1.12871009	      0.07966411	     -0.00130944	     -0.01896704	      0.00000000	      0.00000000	      0.00000000
      6.35933332	     -0.00000064	      0.00000598	     -0.00000010	      0.00000093	      0.00000009	     -0.00000013	      0.00000000	      0.00000000	      0.00000000	     -0.80421194	    102.45575579	      9.92474187	     -0.36555799	      0.51007805	      2.97210871	      0.00000000	      0.00000000	      0.00000000	     -0.36557580	     31.68997782	      0.16254246	      1.13727710	      0.69709314	      2.76189792	     -0.00722252	     -0.00315595	     -0.00132561	     -0.11252540	      0.65400571	      0.11059565	      0.00257866	     -0.00017178	      0.00364115	      0.00000000	      0.00000000	      0.00000000	     11.98521693	      0.50126604	     -5.60579763	      0.49717959	      0.62188885	      0.60105492	      0.00000000	      0.00000000	      0.00000000	     11.73921376	      0.05732344	     -6.68331141	      0.35010132	      0.72877361	      0.26365990	      0.00000000	      0.00000000	      0.00000000	      5.25073580	     -3.05122381	     -3.88488209	      0.12528243	      0.09793925	      0.06012155	      0.00000000	      0.00000000	      0.00000000	     57.97769602	   -434.19977994	    -37.43140450	     25.08075264	     -0.75109039	     23.29256509	      0.00000000	      0.00000000	      0.00000000	     72.88277159	   -501.70675221	    -41.94056346	      9.68366259	     -0.64489786	     -2.19087398	     -0.00712861	     -0.00311491	      0.00130837	     -0.11385564	      0.62293849	      0.01926579	      0.00045381	     -0.00002332	      0.00365793	      0.00000000	      0.00000000	      0.00000000	    -42.48202609	   -533.52572398	    -28.37554496	     -3.27860106	     -0.33105008	    -29.88554791	      0.00000000	      0.00000000	      0.00000000	    -39.50612921	   -513.88575011	   -149.69840562	    -10.03601900	     11.54586040	    -44.76002086	      0.00000000	      0.00000000	      0.00000000	    -15.81513899	    -85.74696158	     -7.83968152	     -3.37802145	      0.87539436	     -3.41091925	      0.00000000	      0.00000000	      0.00000000	     33.75982681	    245.92948984	     28.37845480	      4.89462151	      1.66357966	    -23.58945363	      0.00000000	      0.00000000	      0.00000000	    -10.62526481	     26.56739023	      4.88600634	     -1.39385569	     -0.06816014	     -2.74179425	      0.00000000	      0.00000000	      0.00000000	     -0.15505794	     13.30499429	      0.93509911	     -0.31363896	      0.00765206	     -0.12366600	      0.00000000	      0.00000000	      0.00000000	     -0.02554372	      8.46924454	     -0.56829189	      0.05651111	     -0.00111045	     -0.02815278	      0.00000000	      0.00000000	      0.00000000	      0.02732676	      3.64819991	     -0.20906697	      0.01412284	      0.00020491	      0.00281066	      0.00000000	      0.00000000	      0.00000000	    -13.61812194	     19.21466055	     -2.86716590	      0.41498713	     -0.07794311	     -2.54563542	      0.00000000	      0.00000000	      0.00000000	      4.09096775	      9.35643693	      1.34979983	     -0.14953068	     -0.02794208	      0.61727119	      0.00000000	      0.00000000	      0.00000000	      0.46189578	      6.09184124	     -2.34817433	      0.49111475	     -0.00797736	      0.08449258	      0.00000000	      0.00000000	      0.00000000	      0.23939305	      2.61928159	     -0.88491209	      0.06048464	      0.00166335	      0.01835271	      0.00000000	      0.00000000	      0.00000000
      6.41066666	      0.00000950	     -0.00000138	     -0.00000358	      0.00000428	      0.00000134	      0.00000779	      0.00000000	      0.00000000	      0.00000000	    -26.00680815	     67.51071879	      9.13432598	      1.98597517	      0.53877931	     -0.28419283	      0.00000000	      0.00000000	      0.00000000	     -2.28376474	      5.47530725	     -1.83806069	      3.07339857	      1.28436238	      5.59524990	     -0.00722252	     -0.00315595	     -0.00132561	     -0.44218424	      0.54462618	      0.19120569	      0.00445559	     -0.00037178	      0.01105432	      0.00000000	      0.00000000	      0.00000000	     22.74053854	    -21.74802936	    -11.69146796	      1.30512645	      1.10416657	      0.90764640	      0.00000000	      0.00000000	      0.00000000	     21.98429136	    -21.36840577	    -16.37799357	      0.79669477	      1.44051343	     -0.49799325	      0.00000000	      0.00000000	      0.00000000	      7.10829447	     -7.23188222	     -6.19146208	      0.20831121	      0.20726079	      0.01402641	      0.00000000	      0.00000000	      0.00000000	     67.12286710	   -381.18019544	    -31.58875920	     20.49837208	     -0.77086877	     32.16891203	      0.00000000	      0.00000000	      0.00000000	     77.62151851	   -447.91781604	    -34.56492027	      7.71835613	     -0.70657376	      4.33803865	     -0.00712861	     -0.00311491	      0.00130837	     -0.05313698	      0.61050085	      0.01523916	      0.00035812	     -0.00001822	      0.00224125	      0.00000000	      0.00000000	      0.00000000	    -33.25786400	   -481.01608786	    -21.70115648	     -2.94785287	     -0.34642891	    -24.47231359	      0.00000000	      0.00000000	      0.00000000	    -30.58328253	   -461.54468697	   -140.35759857	     -9.05432558	     10.39863221	    -37.88959210	      0.00000000	      0.00000000	      0.00000000	    -14.35604899	    -67.99563469	     -6.02546558	     -2.92551827	      0.82660570	     -2.72453503	      0.00000000	      0.00000000	      0.00000000	     46.13366668	    233.21302187	     14.76583186	     -3.81284514	      7.39901864	    -24.18223755	      0.00000000	      0.00000000	      0.00000000	     -8.75869657	     28.13352295	      6.91464649	     -2.29934291	     -0.21365739	     -2.26225055	      0.00000000	      0.00000000	      0.00000000	      0.36725711	     13.86158963	      2.39833374	     -0.62118672	      0.02090958	      0.01144546	      0.00000000	      0.00000000	      0.00000000	     -1.00684634	      8.90387797	     -0.30071645	     -0.02909646	     -0.01178739	     -0.25735430	      0.00000000	      0.00000000	      0.00000000	     -0.48091157	      3.84878108	      0.00165773	     -0.00288665	     -0.00232890	     -0.03533296	      0.00000000	      0.00000000	      0.00000000	    -16.84499322	     16.28612961	     -3.49666977	      0.41141770	     -0.24246240	     -3.84970720	      0.00000000	      0.00000000	      0.00000000	      2.26251631	     10.46937477	      1.78749636	     -0.26949465	      0.00868610	      0.32410395	      0.00000000	      0.00000000	      0.00000000	      1.18103375	      6.66472408	     -1.45034458	      0.35853485	     -0.00371275	      0.24853515	      0.00000000	      0.00000000	      0.00000000	      0.59873304	      2.87197374	     -0.67764742	      0.04952024	      0.00515523	      0.04606492	      0.00000000	      0.00000000	      0.00000000
      6.46199999	      0.00000252	     -0.00000092	     -0.00000106	      0.00000173	      0.00000059	      0.00000192	      0.00000000	      0.00000000	      0.00000000	     -1.84732112	     34.89178866	    -12.79648556	     12.99296720	      0.77739843	      8.34930503	      0.00000000	      0.00000000	      0.00000000	     17.80911600	    -34.08805753	    -15.28835461	      7.16338362	      2.39316561	      6.92717061	     -0.00722252	     -0.00315595	     -0.00132561	     -0.18220557	      0.65901641	      0.07168051	      0.00167298	     -0.00020552	      0.00524442	      0.00000000	      0.00000000	      0.00000000	     14.44575742	    -65.40124858	    -18.65176253	      1.97970393	      2.07840538	     -2.10826007	      0.00000000	      0.00000000	      0.00000000	     11.99058023	    -64.23419205	    -25.87670618	      0.73657978	      3.09417148	     -4.64924865	      0.00000000	      0.00000000	      0.00000000	      3.13861580	    -15.30927841	    -10.45885084	      0.33539526	      0.47425617	     -0.56459758	      0.00000000	      0.00000000	      0.00000000	     50.91619922	   -403.06585618	    -11.28303334	      3.46468874	     -1.81789941	     21.34288055	      0.00000000	      0.00000000	      0.00000000	     68.70393076	   -479.86310924	    -12.46110482	     -1.50971193	     -1.87304673	     -1.54993524	     -0.00712861	     -0.00311491	      0.00130837	     -0.10719623	      0.71346570	      0.00975648	      0.00022845	     -0.00002053	      0.00365175	      0.00000000	      0.00000000	      0.00000000	    -57.81783950	   -512.70626448	      1.58896117	     -4.43830785	     -1.26448719	    -27.75870016	      0.00000000	      0.00000000	      0.00000000	    -49.86450072	   -497.64218200	   -130.17062387	    -10.96998290	     10.19676716	    -41.40087395	      0.00000000	      0.00000000	      0.00000000	    -15.64818732	    -72.95108247	     -5.33583700	     -3.28864284	      0.89713321	     -2.92169313	      0.00000000	      0.00000000	      0.00000000	     51.62864454	    272.75561601	     11.93481281	      0.60626482	      1.14167181	    -28.13790820	      0.00000000	      0.00000000	      0.00000000	     -4.58722475	     30.14902769	      4.81708886	     -1.42986313	     -0.16116874	      0.15411632	      0.00000000	      0.00000000	      0.00000000	      4.60326810	     13.52744123	      1.07616715	     -0.34329429	      0.06890052	      0.90949142	      0.00000000	      0.00000000	      0.00000000	     -0.47632135	      8.79006264	      2.67439669	     -0.71671455	      0.01388590	     -0.13647243	      0.00000000	      0.00000000	      0.00000000	     -0.20947233	      3.82459220	      1.54003095	     -0.11676182	      0.00130458	     -0.01541976	      0.00000000	      0.00000000	      0.00000000	    -20.94247750	     22.25201754	     -6.22824409	      1.53777192	      0.15890021	     -4.90524818	      0.00000000	      0.00000000	      0.00000000	      3.10506049	     13.95596488	      0.12917286	      0.17330476	     -0.02742280	      0.39970059	      0.00000000	      0.00000000	      0.00000000	      0.04192103	      9.01760863	     -1.31172746	      0.29333738	      0.00049867	     -0.04678772	      0.00000000	      0.00000000	      0.00000000	     -0.05457387	      3.87336702	     -0.43791804	      0.02876662	      0.00175723	     -0.00567252	      0.00000000	      0.00000000	      0.00000000
      6.51333332	      0.00000055	      0.00000101	     -0.00000140	      0.00000158	     -0.00000004	      0.00000040	      0.00000000	      0.00000000	      0.00000000	    -34.24407241	    -69.88194043	      8.60437421	     -0.22968470	      0.12668303	    -26.35929637	      0.00000000	      0.00000000	      0.00000000	    -10.20604758	   -144.89220858	      2.79980405	      2.49662539	      0.12048196	    -14.44461201	     -0.00722252	     -0.00315595	     -0.00132561	     -0.04279389	      0.66288699	      0.04486213	      0.00104635	     -0.00000990	      0.00202541	      0.00000000	      0.00000000	      0.00000000	    -44.77480376	   -166.69703934	     -3.99933239	      2.17212725	     -0.12179458	    -12.66477626	      0.00000000	      0.00000000	      0.00000000	    -46.86928544	   -166.46353848	    -12.61999176	      0.25789751	      1.37223781	    -17.15657009	      0.00000000	      0.00000000	      0.00000000	    -10.72791061	    -44.03448872	     -3.91909160	     -0.05905383	      0.24594603	     -2.39513174	      0.00000000	      0.00000000	      0.00000000	     78.02878574	   -271.14411052	     -7.58826366	      3.21239875	     -0.92177936	     51.83663527	      0.00000000	      0.00000000	      0.00000000	     98.97752181	   -339.46243020	    -10.92144943	     -0.58877058	     -1.03620655	     19.20776203	     -0.00712861	     -0.00311491	      0.00130837	     -0.12034892	      0.64706150	      0.00398787	      0.00009627	     -0.00001314	      0.00385779	      0.00000000	      0.00000000	      0.00000000	      3.85232041	   -381.91531119	      3.18861103	     -3.22952454	     -0.43429309	    -17.41870487	      0.00000000	      0.00000000	      0.00000000	      8.86640565	   -366.96574648	   -108.27228555	     -7.86704950	      8.04575989	    -28.80851634	      0.00000000	      0.00000000	      0.00000000	     -8.07944116	    -57.31514309	     -8.43732482	     -2.46486949	      0.65759550	     -2.14071277	      0.00000000	      0.00000000	      0.00000000	     36.36342723	    255.99820660	     -0.46224908	     -7.15173903	      9.10974388	    -20.39498471	      0.00000000	      0.00000000	      0.00000000	     -1.37238271	     30.67608331	      7.12142343	     -2.54965079	     -0.39753060	      1.27494935	      0.00000000	      0.00000000	      0.00000000	      6.48027871	     13.26103233	      2.91315860	     -0.74754375	      0.10742742	      1.23621737	      0.00000000	      0.00000000	      0.00000000	     -1.87415842	      8.82342697	      3.68380092	     -0.90490077	      0.00608215	     -0.46785999	      0.00000000	      0.00000000	      0.00000000	     -0.94908070	      3.87612208	      1.89201100	     -0.14022040	      0.00106019	     -0.07216555	      0.00000000	      0.00000000	      0.00000000	    -24.68093973	     14.29540670	     -7.96412332	      2.06051437	      0.05262379	     -7.23499196	      0.00000000	      0.00000000	      0.00000000	     -2.15627344	     14.05429845	     -0.56950042	      0.29090586	      0.03150534	     -0.71867851	      0.00000000	      0.00000000	      0.00000000	      0.98517019	      8.86822558	      2.19232683	     -0.51444834	      0.01435284	      0.19125793	      0.00000000	      0.00000000	      0.00000000	      0.48843300	      3.78440284	      1.35799714	     -0.10406030	      0.00414329	      0.03726445	      0.00000000	      0.00000000	      0.00000000
      6.56466665	     -0.00000022	      0.00000139	      0.00000113	     -0.00000068	     -0.00000025	     -0.00000016	      0.00000000	      0.00000000	      0.00000000	     25.69298058	   -178.51921706	     63.94711132	    -47.95461436	      3.87504006	     32.65777601	      0.00000000	      0.00000000	      0.00000000	     76.53577391	   -241.13218015	     70.87022437	    -24.73297067	      0.59085014	     16.86840075	     -0.00722252	     -0.00315595	     -0.00132561	     -0.13065097	      0.66008464	     -0.03057908	     -0.00071381	      0.00005138	      0.00415077	      0.00000000	      0.00000000	      0.00000000	     19.78723994	   -283.22108871	     63.18262248	     -0.03870035	      0.63507807	    -12.49717532	      0.00000000	      0.00000000	      0.00000000	     19.86805302	   -285.30081417	     56.98727187	     -0.12224616	     -1.20940876	    -23.05427107	      0.00000000	      0.00000000	      0.00000000	      3.95937033	    -59.12120094	     -3.43189741	      0.50368028	      0.32414825	     -2.30945807	      0.00000000	      0.00000000	      0.00000000	     29.35733048	   -183.69416427	    -51.48442868	     31.09179377	      1.40794269	     24.25650058	      0.00000000	      0.00000000	      0.00000000	     58.90711795	   -247.69300707	    -44.69067317	     13.67996755	      2.00950935	      7.35724173	     -0.00712861	     -0.00311491	      0.00130837	     -0.16371992	      0.60382917	     -0.03878614	     -0.00091090	      0.00001469	      0.00484067	      0.00000000	      0.00000000	      0.00000000	     -8.02175255	   -282.57318039	    -33.44881159	      0.03405040	      1.88796060	    -15.34062091	      0.00000000	      0.00000000	      0.00000000	    -11.86629731	   -262.89639945	   -110.36265318	     -4.95558189	      9.82664935	    -22.66132273	      0.00000000	      0.00000000	      0.00000000	     -9.66591666	    -48.29701909	    -14.86627420	     -1.77818078	      0.94409677	     -1.94335750	      0.00000000	      0.00000000	      0.00000000	     59.50674786	    269.46996325	    -17.91355628	     -6.69910955	     -3.91289452	    -44.63506010	      0.00000000	      0.00000000	      0.00000000	     -5.18859791	     28.69607002	     -0.88244414	      0.76854691	      0.16143545	     -0.93498638	      0.00000000	      0.00000000	      0.00000000	      3.00239693	     12.63542468	     -2.39683492	      0.31270762	      0.00457821	      0.27562225	      0.00000000	      0.00000000	      0.00000000	      1.91803333	      8.14499351	      1.30712341	     -0.20687160	      0.00911640	      0.38848722	      0.00000000	      0.00000000	      0.00000000	      0.90338820	      3.56225665	      0.13785393	     -0.00189366	     -0.00232193	      0.06599513	      0.00000000	      0.00000000	      0.00000000	    -12.47720515	     24.87018316	    -10.76045162	      2.83284425	      0.50277240	     -1.72179071	      0.00000000	      0.00000000	      0.00000000	      7.17151972	     11.32541705	     -1.97547375	      0.42479096	     -0.11285991	      1.21883124	      0.00000000	      0.00000000	      0.00000000	     -2.23592219	      7.59040552	     -3.47118977	      0.77596754	     -0.01312938	     -0.44747484	      0.00000000	      0.00000000	      0.00000000	     -0.78631759	      3.27765252	     -1.52807174	      0.10879779	     -0.00484451	     -0.05198614	      0.00000000	      0.00000000	      0.00000000
      6.61599998	      0.00000020	      0.00000162	      0.00000159	     -0.00000086	     -0.00000012	      0.00000018	      0.00000000	      0.00000000	      0.00000000	     38.00615183	   -236.24635902	     62.45343861	    -43.86930590	      4.26818812	     37.58772196	      0.00000000	      0.00000000	      0.00000000	     80.95505461	   -301.93640165	     66.79366700	    -21.57559451	      2.11462482	     19.48382085	     -0.00722252	     -0.00315595	     -0.00132561	     -0.08734027	      0.66996396	      0.01341711	      0.00031367	     -0.00008714	      0.00312701	      0.00000000	      0.00000000	      0.00000000	     -0.63062696	   -343.96983001	     56.07468892	      1.81065703	      1.73597019	    -11.28253309	      0.00000000	      0.00000000	      0.00000000	     -0.46363920	   -342.85589628	     66.77851802	      2.09961978	     -0.93393075	    -23.25398188	      0.00000000	      0.00000000	      0.00000000	     -0.97079892	    -42.60839704	     -4.89966121	      1.07376878	      0.29203034	     -1.68402041	      0.00000000	      0.00000000	      0.00000000	      8.78029722	   -118.50838276	    -46.06908274	     29.97589368	      1.68032426	      3.06935500	      0.00000000	      0.00000000	      0.00000000	     27.36871168	   -187.93309074	    -42.80603981	     13.65289218	      2.38696087	     -3.60947793	     -0.00712861	     -0.00311491	      0.00130837	     -0.08731808	      0.64742619	     -0.02571303	     -0.00060326	      0.00002994	      0.00309664	      0.00000000	      0.00000000	      0.00000000	    -24.54259618	   -217.76347758	    -35.34469778	      0.46624272	      2.12031712	    -14.68836848	      0.00000000	      0.00000000	      0.00000000	    -28.61677425	   -202.94433576	    -87.15659813	     -3.91807838	      8.76089843	    -19.61204860	      0.00000000	      0.00000000	      0.00000000	    -11.42049327	    -43.45946948	    -13.48713033	     -1.52750297	      0.97979193	     -1.91337737	      0.00000000	      0.00000000	      0.00000000	     44.59295002	    259.69004476	    -22.96460812	     -8.48768395	     -6.39853007	    -28.20715600	      0.00000000	      0.00000000	      0.00000000	     -3.31944643	     26.06306091	     -1.39111433	      0.62352291	      0.13089457	     -0.27685835	      0.00000000	      0.00000000	      0.00000000	      3.72667312	     10.33204671	     -1.87191937	      0.17986506	      0.03025149	      0.31607230	      0.00000000	      0.00000000	      0.00000000	      1.33995849	      6.72674052	      1.61453551	     -0.17944882	      0.00984638	      0.24093254	      0.00000000	      0.00000000	      0.00000000	      0.54251485	      2.87994073	     -0.02115079	      0.01539432	      0.00111038	      0.03700144	      0.00000000	      0.00000000	      0.00000000	    -10.55363926	     23.67428029	     -7.81488965	      1.71287784	      0.22456777	     -1.03994338	      0.00000000	      0.00000000	      0.00000000	      7.28881147	      9.63573397	     -0.27362024	      0.07767525	     -0.08689374	      1.27160130	      0.00000000	      0.00000000	      0.00000000	     -1.33798383	      6.45219461	     -4.00314244	      0.89413784	     -0.01522381	     -0.25486318	      0.00000000	      0.00000000	      0.00000000	     -0.40270609	      2.78517530	     -1.80746831	      0.12977218	     -0.00206155	     -0.02403969	      0.00000000	      0.00000000	      0.00000000
      6.66733332	     -0.00000094	      0.00000152	      0.00000197	     -0.00000143	     -0.00000022	     -0.00000075	      0.00000000	      0.00000000	      0.00000000	     16.03466200	   -251.48938682	     53.69347096	    -39.18972579	      2.02316147	     13.69789374	      0.00000000	      0.00000000	      0.00000000	     43.76549367	   -315.26752185	     60.11740008	    -18.61839299	      0.02311933	      6.01568699	     -0.00722252	     -0.00315595	     -0.00132561	      0.01374968	      0.60234790	     -0.06562126	     -0.00153197	      0.00016385	      0.00066765	      0.00000000	      0.00000000	      0.00000000	    -52.73421739	   -342.54326416	     51.40240856	      1.97241099	     -0.53229369	    -10.85428331	      0.00000000	      0.00000000	      0.00000000	    -52.52230141	   -338.71794207	     76.01215978	      2.92983276	     -3.72989405	    -20.88717120	      0.00000000	      0.00000000	      0.00000000	     -5.31723811	    -25.33597886	      0.88894493	      0.90778563	     -0.19702905	     -1.11187494	      0.00000000	      0.00000000	      0.00000000	     25.85728782	    -68.34960460	    -32.30021528	     18.24111068	      0.66377455	     15.23467605	      0.00000000	      0.00000000	      0.00000000	     38.66886718	   -130.55726308	    -27.23868984	      7.54590149	      1.10987480	      3.92097027	     -0.00712861	     -0.00311491	      0.00130837	     -0.05280690	      0.58496299	     -0.05682754	     -0.00133145	      0.00009429	      0.00218006	      0.00000000	      0.00000000	      0.00000000	      2.33783368	   -162.40434393	    -19.31905362	     -0.54846274	      1.13072420	    -10.88459456	      0.00000000	      0.00000000	      0.00000000	      0.98229091	   -153.59044642	    -58.18717442	     -3.34801404	      5.66287752	    -15.41157710	      0.00000000	      0.00000000	      0.00000000	     -4.36533656	    -41.32380760	    -11.14615562	     -1.39079334	      0.57475181	     -1.60992135	      0.00000000	      0.00000000	      0.00000000	     27.66679426	    237.47273180	    -15.05654919	     -5.22750074	     -0.55386358	    -20.80472728	      0.00000000	      0.00000000	      0.00000000	     -9.00174150	     25.56533565	      0.14045202	      0.24730793	      0.09707972	     -2.02125636	      0.00000000	      0.00000000	      0.00000000	      1.95057273	     12.22860230	     -1.57851622	      0.14946211	      0.00620953	      0.25384400	      0.00000000	      0.00000000	      0.00000000	      1.39374871	      7.77693218	      0.88037035	     -0.22565970	      0.01004421	      0.25762363	      0.00000000	      0.00000000	      0.00000000	      0.59346192	      3.33996959	      0.36078781	     -0.02532688	     -0.00078674	      0.04204849	      0.00000000	      0.00000000	      0.00000000	    -15.89078205	     18.51481413	    -10.26007235	      2.71946904	      0.50384908	     -3.22823270	      0.00000000	      0.00000000	      0.00000000	      3.84024452	     11.30641741	     -2.03949934	      0.50072004	     -0.05883992	      0.66655239	      0.00000000	      0.00000000	      0.00000000	     -1.58935032	      7.42091222	     -1.50187930	      0.39732362	      0.00575275	     -0.37519991	      0.00000000	      0.00000000	      0.00000000	     -0.73961681	      3.21051214	     -0.78903117	      0.05886325	      0.00117508	     -0.05392435	      0.00000000	      0.00000000	      0.00000000
      6.71866665	      0.00000022	     -0.00000131	      0.00000052	     -0.00000037	     -0.00000024	      0.00000014	      0.00000000	      0.00000000	      0.00000000	     13.86330859	   -296.30191087	     57.99687434	    -43.26437724	      2.21576547	     13.88930923	      0.00000000	      0.00000000	      0.00000000	     46.43404627	   -365.00032661	     66.25559207	    -20.65637178	      0.23635708	      6.23689963	     -0.00722252	     -0.00315595	     -0.00132561	     -0.02561763	      0.64929627	     -0.06854609	     -0.00160069	      0.00014008	      0.00164820	      0.00000000	      0.00000000	      0.00000000	    -72.35054018	   -391.78888610	     55.99083711	      2.09233200	     -0.36117749	    -11.98751187	      0.00000000	      0.00000000	      0.00000000	    -72.25766642	   -384.84893652	     95.72264629	      3.73286857	     -4.62852439	    -22.90066253	      0.00000000	      0.00000000	      0.00000000	     -5.46310722	    -25.71115664	      1.10389212	      1.07422752	     -0.24708317	     -1.09657751	      0.00000000	      0.00000000	      0.00000000	     26.42478337	    -50.34813783	    -31.87856878	     16.24271614	     -0.08020128	     21.89902312	      0.00000000	      0.00000000	      0.00000000	     47.80264745	   -114.31526223	    -24.63912198	      6.49410589	      0.40377339	      9.10796624	     -0.00712861	     -0.00311491	      0.00130837	     -0.14281207	      0.61977833	     -0.07129707	     -0.00167147	      0.00010875	      0.00431608	      0.00000000	      0.00000000	      0.00000000	     19.16924703	   -150.76864577	    -15.96165996	     -0.84943169	      0.50930429	     -9.66136121	      0.00000000	      0.00000000	      0.00000000	     18.51945146	   -143.53564791	    -51.26866842	     -3.09296741	      4.40922743	    -14.62950912	      0.00000000	      0.00000000	      0.00000000	      1.73987209	    -45.17681491	    -10.07565671	     -1.43392413	      0.27059031	     -1.55104651	      0.00000000	      0.00000000	      0.00000000	     34.13127992	    257.16341494	    -20.33542156	     -7.01404571	      0.12174416	    -25.99107125	      0.00000000	      0.00000000	      0.00000000	     -7.28799271	     28.66105611	      0.73649385	      0.13837640	      0.01121101	     -1.03140826	      0.00000000	      0.00000000	      0.00000000	      3.73698184	     13.20560778	     -1.46500079	      0.13895490	      0.02285860	      0.73537774	      0.00000000	      0.00000000	      0.00000000	      1.29633034	      8.43536167	      2.22678166	     -0.61527140	      0.01453967	      0.23941273	      0.00000000	      0.00000000	      0.00000000	      0.56434257	      3.65045508	      1.32139877	     -0.10102111	     -0.00261491	      0.04070164	      0.00000000	      0.00000000	      0.00000000	    -16.27909447	     19.68946489	    -10.86033782	      2.84264973	      0.41097028	     -3.51784184	      0.00000000	      0.00000000	      0.00000000	      3.37412424	     11.77711843	     -1.99395396	      0.46335558	     -0.05717277	      0.49081225	      0.00000000	      0.00000000	      0.00000000	     -1.33053391	      7.69144288	     -1.11705836	      0.27531383	      0.00159584	     -0.27817059	      0.00000000	      0.00000000	      0.00000000	     -0.47286970	      3.30185383	     -0.46783718	      0.03292626	     -0.00038599	     -0.03077348	      0.00000000	      0.00000000	      0.00000000
      6.76999998	      0.00000171	     -0.00000277	      0.00000431	     -0.00000445	     -0.00000073	      0.00000104	      0.00000000	      0.00000000	      0.00000000	      9.43911341	   -309.67703418	     63.07863258	    -44.09914436	      0.91523937	      8.45105557	      0.00000000	      0.00000000	      0.00000000	     40.83358266	   -379.53374976	     67.45344446	    -20.28424289	     -1.00607428	      3.60281959	     -0.00722252	     -0.00315595	     -0.00132561	     -0.04267926	      0.66213874	     -0.01405683	     -0.00032806	     -0.00000126	      0.00201200	      0.00000000	      0.00000000	      0.00000000	    -88.54852986	   -402.81448823	     55.13021868	      2.05995379	     -1.62195357	    -12.91775192	      0.00000000	      0.00000000	      0.00000000	    -88.30750023	   -395.56308692	     97.54151204	      3.86817567	     -6.05397551	    -23.51801848	      0.00000000	      0.00000000	      0.00000000	     -6.88717763	    -25.57937492	      3.89730693	      0.98287614	     -0.42198902	     -1.14220141	      0.00000000	      0.00000000	      0.00000000	     23.22511179	    -28.01766453	    -35.99344693	     24.17859768	      0.72989390	     17.04504232	      0.00000000	      0.00000000	      0.00000000	     37.36801255	    -94.41059244	    -34.48991351	     11.67055886	      1.70402721	      7.13010923	     -0.00712861	     -0.00311491	      0.00130837	     -0.11598242	      0.64030667	     -0.03653740	     -0.00085734	      0.00011593	      0.00368615	      0.00000000	      0.00000000	      0.00000000	     12.66095687	   -130.24313597	    -29.31936672	      0.61747012	      1.49765417	     -7.89770978	      0.00000000	      0.00000000	      0.00000000	     10.00045072	   -122.12539011	    -56.27528132	     -1.54186022	      5.05372310	    -12.01366703	      0.00000000	      0.00000000	      0.00000000	     -0.51616904	    -35.21786956	    -11.48550331	     -0.82722283	      0.41964253	     -1.31715278	      0.00000000	      0.00000000	      0.00000000	     18.89708218	    248.18782201	    -24.71879987	    -10.42634053	      2.64327488	    -12.53342945	      0.00000000	      0.00000000	      0.00000000	     -5.12049793	     27.95813916	      1.68515255	     -0.33735842	     -0.01641315	     -0.43747401	      0.00000000	      0.00000000	      0.00000000	      4.15641485	     12.43515552	     -0.62676503	     -0.00731028	      0.05006329	      0.75315650	      0.00000000	      0.00000000	      0.00000000	      0.69378389	      8.01423011	      2.40549192	     -0.60069645	      0.01935405	      0.12359775	      0.00000000	      0.00000000	      0.00000000	      0.34062464	      3.46606154	      1.22469867	     -0.09047688	      0.00155255	      0.02507734	      0.00000000	      0.00000000	      0.00000000	    -19.85517796	     16.26758268	    -10.39174013	      2.73433124	      0.32922146	     -5.25898514	      0.00000000	      0.00000000	      0.00000000	      0.20578390	     12.53125974	     -1.82780457	      0.48346135	     -0.00846603	     -0.15818180	      0.00000000	      0.00000000	      0.00000000	     -0.41451363	      8.03242611	      0.85990905	     -0.17201091	      0.01470861	     -0.10574872	      0.00000000	      0.00000000	      0.00000000	     -0.14478990	      3.44143342	      0.52775781	     -0.04021505	      0.00367511	     -0.00866921	      0.00000000	      0.00000000	      0.00000000
      6.82133331	      0.00000331	     -0.00000758	      0.00000137	     -0.00000170	     -0.00000028	      0.00000187	      0.00000000	      0.00000000	      0.00000000	     23.68617635	   -295.17137712	     31.58640424	    -19.97884495	      0.80361538	     22.31816750	      0.00000000	      0.00000000	      0.00000000	     59.69549154	   -358.34325305	     36.93139443	     -7.73939008	      0.09394697	     11.55464769	     -0.00722252	     -0.00315595	     -0.00132561	     -0.04881194	      0.61464051	     -0.02100161	     -0.00049068	      0.00002756	      0.00211187	      0.00000000	      0.00000000	      0.00000000	    -69.54618590	   -385.06894789	     23.62072525	      4.12458274	     -1.25133548	    -11.70222067	      0.00000000	      0.00000000	      0.00000000	    -66.51397795	   -381.53224035	     65.23437877	      4.89591440	     -4.46197911	    -22.34549126	      0.00000000	      0.00000000	      0.00000000	     -5.73225270	    -25.68187208	      2.96850835	      1.02579208	     -0.34627665	     -1.09415280	      0.00000000	      0.00000000	      0.00000000	      3.00551637	    -28.66207925	     -8.24406891	      0.77162203	      0.09200765	     -0.49578229	      0.00000000	      0.00000000	      0.00000000	     14.62515299	    -95.23074257	     -3.56902286	     -1.30536849	     -0.07596076	     -2.09571642	     -0.00712861	     -0.00311491	      0.00130837	     -0.05338046	      0.61564116	     -0.05746890	     -0.00134659	      0.00011011	      0.00221067	      0.00000000	      0.00000000	      0.00000000	    -14.66627271	   -122.44179729	      2.32404617	     -1.59289736	      0.18273271	     -8.79220169	      0.00000000	      0.00000000	      0.00000000	    -12.32252529	   -122.04691859	    -18.62414403	     -2.64263315	      2.29176580	    -12.19072087	      0.00000000	      0.00000000	      0.00000000	     -5.47863611	    -31.11789776	     -4.12372607	     -0.89085984	      0.34196255	     -1.38514786	      0.00000000	      0.00000000	      0.00000000	     20.65157805	    238.47068327	    -26.34240866	     -8.36676931	     -1.05158355	    -13.93080955	      0.00000000	      0.00000000	      0.00000000	     -2.73151746	     25.66557390	     -0.46045744	      0.42430455	      0.06685862	      0.11159030	      0.00000000	      0.00000000	      0.00000000	      4.40910605	     10.51134603	     -1.64805486	      0.17857170	      0.03638654	      0.65942836	      0.00000000	      0.00000000	      0.00000000	      1.25713855	      6.80713595	      2.37945561	     -0.48550412	      0.01478895	      0.23528677	      0.00000000	      0.00000000	      0.00000000	      0.54459760	      2.93499878	      0.83893352	     -0.05600998	     -0.00028349	      0.03864039	      0.00000000	      0.00000000	      0.00000000	    -14.78561028	     19.07838452	    -10.90893954	      2.96519721	      0.55547824	     -2.90080885	      0.00000000	      0.00000000	      0.00000000	      3.86399631	     11.20366039	     -2.49346789	      0.58135197	     -0.06621880	      0.67810334	      0.00000000	      0.00000000	      0.00000000	     -1.85593900	      7.37368520	     -1.43289762	      0.38682060	      0.00496430	     -0.42953398	      0.00000000	      0.00000000	      0.00000000	     -0.84709370	      3.19347607	     -0.77542758	      0.05812992	      0.00003771	     -0.06178552	      0.00000000	      0.00000000	      0.00000000
      6.87266664	      0.00000351	     -0.00000905	     -0.00000042	     -0.00000027	     -0.00000007	      0.00000175	      0.00000000	      0.00000000	      0.00000000	     33.22629871	   -306.26578435	     28.19409635	    -16.14658469	      0.57897054	     31.10760462	      0.00000000	      0.00000000	      0.00000000	     74.81877089	   -373.57493901	     33.24468571	     -5.37315887	      0.16989147	     15.98161752	     -0.00722252	     -0.00315595	     -0.00132561	     -0.08355405	      0.66664540	     -0.01292166	     -0.00030185	      0.00000722	      0.00300744	      0.00000000	      0.00000000	      0.00000000	    -64.38102500	   -406.13466647	     17.90915200	      4.98759151	     -1.51230600	    -13.03195636	      0.00000000	      0.00000000	      0.00000000	    -60.53690401	   -403.04824216	     62.86047941	      5.68830268	     -4.82076861	    -24.47235774	      0.00000000	      0.00000000	      0.00000000	     -6.05326525	    -31.51753805	      4.50499772	      1.21686042	     -0.41596338	     -1.30336424	      0.00000000	      0.00000000	      0.00000000	     -1.80666368	    -48.49769798	     -7.02554332	     -0.94144318	      0.26958426	     -2.66934854	      0.00000000	      0.00000000	      0.00000000	     16.50010145	   -120.71208139	     -1.63837178	     -2.52514161	     -0.00065632	     -3.70582854	     -0.00712861	     -0.00311491	      0.00130837	     -0.06342267	      0.67270794	     -0.06783293	     -0.00158884	      0.00012231	      0.00255879	      0.00000000	      0.00000000	      0.00000000	    -22.58357530	   -149.20280163	      5.78553963	     -1.82227049	      0.28081995	    -11.14207702	      0.00000000	      0.00000000	      0.00000000	    -19.32198223	   -149.39495443	    -18.76397898	     -3.02189929	      2.74213868	    -15.18508242	      0.00000000	      0.00000000	      0.00000000	     -7.27188748	    -38.84702923	     -5.61983193	     -0.94549504	      0.45348135	     -1.77332892	      0.00000000	      0.00000000	      0.00000000	     30.36840773	    260.95544474	    -29.75938098	    -12.02011598	     -2.25087441	    -18.57556493	      0.00000000	      0.00000000	      0.00000000	     -4.53240836	     28.66340270	      1.29836639	     -0.19076704	     -0.01306690	     -0.39331482	      0.00000000	      0.00000000	      0.00000000	      4.58563853	     12.03902892	     -0.95019213	      0.01951196	      0.04563301	      0.66965329	      0.00000000	      0.00000000	      0.00000000	      0.85507337	      7.80469368	      2.38558999	     -0.48499854	      0.01228382	      0.14100575	      0.00000000	      0.00000000	      0.00000000	      0.34782465	      3.35014949	      0.81427337	     -0.05369385	     -0.00004642	      0.02400610	      0.00000000	      0.00000000	      0.00000000	    -12.16527736	     22.03709455	    -10.11355928	      2.54572014	      0.46294681	     -1.61223637	      0.00000000	      0.00000000	      0.00000000	      6.04629411	     10.69904974	     -1.71684970	      0.39129192	     -0.08405869	      1.13319260	      0.00000000	      0.00000000	      0.00000000	     -1.90552132	      7.10272184	     -3.03973864	      0.75420537	     -0.00490141	     -0.42349461	      0.00000000	      0.00000000	      0.00000000	     -0.81461211	      3.07657152	     -1.59580098	      0.11876866	     -0.00085500	     -0.05797200	      0.00000000	      0.00000000	      0.00000000
      6.92399998	      0.00000047	     -0.00000533	      0.00000092	     -0.00000130	      0.00000016	     -0.00000053	      0.00000000	      0.00000000	      0.00000000	     25.68279625	   -275.45967750	     37.73834737	    -24.81136708	     -0.57026857	     25.98809800	      0.00000000	      0.00000000	      0.00000000	     67.55340906	   -337.82794535	     44.26372224	    -10.01607211	     -1.48918065	     12.80495832	     -0.00722252	     -0.00315595	     -0.00132561	     -0.12583697	      0.62159046	     -0.02670925	     -0.00062463	      0.00003706	      0.00391356	      0.00000000	      0.00000000	      0.00000000	    -58.81216486	   -368.58125836	     30.31542866	      3.71775533	     -2.82917713	    -13.81145254	      0.00000000	      0.00000000	      0.00000000	    -56.68221255	   -364.28041715	     69.75535616	      4.92707816	     -6.47784867	    -23.98768134	      0.00000000	      0.00000000	      0.00000000	     -7.68648608	    -35.01309939	      9.03191839	      1.14066151	     -0.64294739	     -1.49242734	      0.00000000	      0.00000000	      0.00000000	     11.53117407	    -64.41320383	    -17.75719417	      5.69745261	      0.48287455	     10.99963917	      0.00000000	      0.00000000	      0.00000000	     36.87295836	   -129.13775874	    -10.26510942	      0.93241849	      0.52065895	      3.49006585	     -0.00712861	     -0.00311491	      0.00130837	     -0.12029543	      0.62401713	     -0.08752793	     -0.00205067	      0.00014780	      0.00381729	      0.00000000	      0.00000000	      0.00000000	     -3.95284366	   -161.74874887	     -0.45810490	     -1.03893017	      0.62079610	    -11.39080612	      0.00000000	      0.00000000	      0.00000000	     -1.53205730	   -159.75136277	    -29.89145080	     -2.56660721	      3.66751464	    -16.36153688	      0.00000000	      0.00000000	      0.00000000	     -3.31907589	    -47.23285752	     -9.74157721	     -0.82933271	      0.50095579	     -1.95708827	      0.00000000	      0.00000000	      0.00000000	     38.81340002	    251.05924039	    -26.17814993	    -11.12674404	      0.10006332	    -26.48451745	      0.00000000	      0.00000000	      0.00000000	     -4.67118704	     27.79457137	      1.96568093	     -0.14932330	      0.08119149	     -0.49522432	      0.00000000	      0.00000000	      0.00000000	      4.51299859	     11.78876500	     -1.32107639	      0.15756436	      0.04377219	      0.69348795	      0.00000000	      0.00000000	      0.00000000	      1.19047780	      7.58876422	      2.44717178	     -0.52135647	      0.01921745	      0.25460288	      0.00000000	      0.00000000	      0.00000000	      0.64156307	      3.24792236	      0.93291800	     -0.06382424	      0.00074022	      0.04911530	      0.00000000	      0.00000000	      0.00000000	    -14.20434714	     20.61118187	    -10.17786028	      2.79228500	      0.53041222	     -2.73193237	      0.00000000	      0.00000000	      0.00000000	      4.10059251	     11.40094760	     -2.28318220	      0.55879384	     -0.06550149	      0.70186392	      0.00000000	      0.00000000	      0.00000000	     -1.77278538	      7.50058570	     -1.60176253	      0.40761158	      0.00618400	     -0.41653757	      0.00000000	      0.00000000	      0.00000000	     -0.82834808	      3.23337092	     -0.79329749	      0.05838135	      0.00080215	     -0.06053501	      0.00000000	      0.00000000	      0.00000000
      6.97533331	      0.00000144	     -0.00000561	      0.00000652	     -0.00000641	     -0.00000068	      0.00000031	      0.00000000	      0.00000000	      0.00000000	     29.39169548	   -262.39659461	     45.57353627	    -29.92875556	     -1.03593439	     27.43756688	      0.00000000	      0.00000000	      0.00000000	     70.32807440	   -326.08428300	     50.89424162	    -12.53469865	     -2.20974849	     12.27412434	     -0.00722252	     -0.00315595	     -0.00132561	     -0.10619600	      0.63012429	     -0.03263379	     -0.00076176	      0.00006590	      0.00350667	      0.00000000	      0.00000000	      0.00000000	    -53.60029679	   -359.31346661	     37.31049865	      3.24513630	     -3.42802527	    -15.16779848	      0.00000000	      0.00000000	      0.00000000	    -52.24894067	   -354.57017261	     73.99460053	      4.70926788	     -7.33671923	    -25.14748069	      0.00000000	      0.00000000	      0.00000000	     -8.69596840	    -40.91832131	     11.85805755	      1.18184483	     -0.77870142	     -1.75542656	      0.00000000	      0.00000000	      0.00000000	     16.08742883	    -81.37634331	    -24.10413834	     12.60345478	      1.07796071	     12.91402334	      0.00000000	      0.00000000	      0.00000000	     42.73707555	   -144.94852370	    -18.93926459	      5.06614509	      1.53066995	      3.46574602	     -0.00712861	     -0.00311491	      0.00130837	     -0.13808673	      0.61301734	     -0.04823445	     -0.00113188	      0.00007514	      0.00421327	      0.00000000	      0.00000000	      0.00000000	     -1.97965223	   -179.01692660	    -10.39361517	      0.12270184	      1.30390743	    -13.63779587	      0.00000000	      0.00000000	      0.00000000	     -0.74359488	   -174.56274688	    -44.17824851	     -2.14607594	      5.37716773	    -19.09091004	      0.00000000	      0.00000000	      0.00000000	     -3.35753979	    -58.72447794	    -15.15933119	     -0.72203294	      0.70976441	     -2.43094951	      0.00000000	      0.00000000	      0.00000000	     43.73064304	    253.69057034	    -28.04599870	    -10.72143504	      0.57238410	    -28.70488925	      0.00000000	      0.00000000	      0.00000000	      0.52815306	     27.67981677	      2.21874959	     -0.36499243	     -0.08772817	      1.37765074	      0.00000000	      0.00000000	      0.00000000	      6.87980739	      9.85898510	     -0.71607160	      0.00814001	      0.07402527	      1.07899211	      0.00000000	      0.00000000	      0.00000000	      0.56849994	      6.50652683	      3.83008165	     -0.75378136	      0.01637560	      0.09215139	      0.00000000	      0.00000000	      0.00000000	      0.24346041	      2.77602791	      1.35174767	     -0.09017190	      0.00025459	      0.01717097	      0.00000000	      0.00000000	      0.00000000	    -13.74793413	     21.40364839	     -9.55567066	      2.53563799	      0.43524451	     -2.50586160	      0.00000000	      0.00000000	      0.00000000	      4.53061044	     11.34290706	     -1.79833289	      0.44235605	     -0.07067868	      0.77975799	      0.00000000	      0.00000000	      0.00000000	     -1.54336918	      7.45798222	     -1.99695989	      0.49286485	     -0.00285231	     -0.35072046	      0.00000000	      0.00000000	      0.00000000	     -0.66309516	      3.21433794	     -0.97842231	      0.07163731	     -0.00154351	     -0.04723173	      0.00000000	      0.00000000	      0.00000000
      7.02666664	     -0.00000172	     -0.00000208	      0.00000377	     -0.00000277	      0.00000011	     -0.00000186	      0.00000000	      0.00000000	      0.00000000	     34.17042946	   -241.87043853	     33.44364329	    -19.83694895	     -1.16573877	     26.15326798	      0.00000000	      0.00000000	      0.00000000	     69.68589966	   -308.52036030	     37.75954720	     -6.94366131	     -1.70305069	     10.44560212	     -0.00722252	     -0.00315595	     -0.00132561	     -0.11904018	      0.65523794	     -0.00374696	     -0.00008834	     -0.00001345	      0.00380844	      0.00000000	      0.00000000	      0.00000000	    -48.77326945	   -343.20266796	     23.50143838	      4.05500230	     -3.10506835	    -16.96933679	      0.00000000	      0.00000000	      0.00000000	    -46.48242256	   -340.58869068	     55.73599269	      5.08753977	     -6.44365284	    -26.67415867	      0.00000000	      0.00000000	      0.00000000	     -9.60494867	    -49.24663081	     11.47519813	      1.28886651	     -0.78117472	     -2.13025170	      0.00000000	      0.00000000	      0.00000000	     12.64333158	   -104.42163460	    -16.38721571	      6.44499155	      1.36341806	      1.81403376	      0.00000000	      0.00000000	      0.00000000	     33.29079985	   -174.51159308	    -10.45792194	      1.47609007	      1.43530860	     -4.67985946	     -0.00712861	     -0.00311491	      0.00130837	     -0.08615840	      0.65955766	     -0.07918657	     -0.00185505	      0.00015435	      0.00305885	      0.00000000	      0.00000000	      0.00000000	    -23.21062477	   -205.62216130	     -0.28709914	     -0.00880921	      1.07383549	    -18.22586112	      0.00000000	      0.00000000	      0.00000000	    -19.86234057	   -203.36852092	    -37.34217028	     -2.63623952	      5.73053356	    -23.97184180	      0.00000000	      0.00000000	      0.00000000	    -10.34109063	    -71.56532136	    -16.12778518	     -0.65782635	      0.92386758	     -3.26793169	      0.00000000	      0.00000000	      0.00000000	     35.53809920	    254.48052056	    -20.16736741	     -6.43745811	     -1.16217064	    -19.76771685	      0.00000000	      0.00000000	      0.00000000	     -3.42003496	     26.78681168	      2.33339847	     -0.46850317	     -0.09363951	      0.15990970	      0.00000000	      0.00000000	      0.00000000	      5.54839323	     10.62763236	     -0.58142429	     -0.03662808	      0.05767143	      0.88058718	      0.00000000	      0.00000000	      0.00000000	      0.55535881	      6.94591984	      3.05093730	     -0.63123928	      0.01131660	      0.07772031	      0.00000000	      0.00000000	      0.00000000	      0.20072130	      2.97865874	      1.14764992	     -0.07833217	     -0.00096632	      0.01337666	      0.00000000	      0.00000000	      0.00000000	    -13.73692503	     22.12880946	     -8.97627771	      2.34684661	      0.42596172	     -2.34270992	      0.00000000	      0.00000000	      0.00000000	      5.00690668	     11.29163405	     -1.52774283	      0.40422089	     -0.07078357	      0.86923079	      0.00000000	      0.00000000	      0.00000000	     -1.50223201	      7.44511300	     -2.34492082	      0.56226741	     -0.00141391	     -0.35026945	      0.00000000	      0.00000000	      0.00000000	     -0.67604480	      3.21284250	     -1.11624705	      0.08127638	     -0.00036105	     -0.04880757	      0.00000000	      0.00000000	      0.00000000
      7.07799997	     -0.00000197	      0.00000058	      0.00000480	     -0.00000320	      0.00000007	     -0.00000170	      0.00000000	      0.00000000	      0.00000000	     29.97514770	   -192.51913116	     34.78840063	    -22.09577169	     -1.31445860	     23.78465918	      0.00000000	      0.00000000	      0.00000000	     63.73400258	   -247.75051613	     39.07169458	     -8.71427470	     -2.01536259	      9.00470506	     -0.00722252	     -0.00315595	     -0.00132561	     -0.14710485	      0.55128883	     -0.01049628	     -0.00024567	      0.00000004	      0.00429946	      0.00000000	      0.00000000	      0.00000000	    -30.39211804	   -280.39852269	     27.25946778	      2.88809530	     -3.00779737	    -16.18765467	      0.00000000	      0.00000000	      0.00000000	    -29.19697487	   -277.74862768	     51.70162698	      3.99739342	     -6.10165916	    -24.40516241	      0.00000000	      0.00000000	      0.00000000	     -9.22850003	    -53.23942582	     12.26056831	      1.10888691	     -0.76983281	     -2.31490209	      0.00000000	      0.00000000	      0.00000000	     15.78910734	   -108.28849042	    -20.06015567	      9.86205311	      1.85726381	      4.08248539	      0.00000000	      0.00000000	      0.00000000	     36.40962166	   -167.40115136	    -14.02236862	      3.62270067	      2.18732814	     -3.95797846	     -0.00712861	     -0.00311491	      0.00130837	     -0.10116840	      0.56422644	     -0.05731154	     -0.00134340	      0.00007978	      0.00325703	      0.00000000	      0.00000000	      0.00000000	    -17.49152590	   -195.84995703	     -4.38452762	      1.02509053	      1.55043891	    -18.48868429	      0.00000000	      0.00000000	      0.00000000	    -14.97934231	   -192.52941698	    -40.70981736	     -1.86729098	      6.49126256	    -24.03481177	      0.00000000	      0.00000000	      0.00000000	    -11.19226412	    -75.98554801	    -19.38653938	     -0.29153616	      1.08680924	     -3.52523018	      0.00000000	      0.00000000	      0.00000000	     34.57110187	    222.55743191	    -15.38493163	     -3.44812870	     -1.45837204	    -20.19730256	      0.00000000	      0.00000000	      0.00000000	     -0.86212733	     23.73426563	      2.64652091	     -0.62726706	     -0.21703489	      1.43802095	      0.00000000	      0.00000000	      0.00000000	      7.04048115	      8.85862176	     -0.07500785	     -0.10834820	      0.08111863	      1.34543389	      0.00000000	      0.00000000	      0.00000000	      0.10502953	      5.87637452	      4.33984652	     -1.00654166	      0.01704937	     -0.01801493	      0.00000000	      0.00000000	      0.00000000	     -0.01398775	      2.55662831	      2.11478579	     -0.15496349	     -0.00100858	     -0.00244816	      0.00000000	      0.00000000	      0.00000000	    -16.61087131	     19.80052843	     -8.90530475	      2.64938747	      0.46712221	     -4.00188504	      0.00000000	      0.00000000	      0.00000000	      2.19889733	     12.31975211	     -2.20218367	      0.59127947	     -0.04874357	      0.23822246	      0.00000000	      0.00000000	      0.00000000	     -1.23560446	      8.02621963	     -0.30169768	      0.06928351	      0.00788243	     -0.30492696	      0.00000000	      0.00000000	      0.00000000	     -0.58878167	      3.44930495	      0.02404225	     -0.00469072	     -0.00031906	     -0.04338201	      0.00000000	      0.00000000	      0.00000000
      7.12933330	     -0.00000331	      0.00000476	      0.00000424	     -0.00000371	     -0.00000004	     -0.00000311	      0.00000000	      0.00000000	      0.00000000	     33.99310182	   -220.82270729	     27.80674944	    -13.74498250	     -1.09730164	     27.79828607	      0.00000000	      0.00000000	      0.00000000	     79.39334846	   -286.10827052	     29.46876999	     -3.55823821	     -1.34421528	      9.30167048	     -0.00722252	     -0.00315595	     -0.00132561	     -0.19782976	      0.65310958	      0.00053564	      0.00001330	     -0.00000155	      0.00567756	      0.00000000	      0.00000000	      0.00000000	    -31.54109469	   -325.83852170	     14.88280188	      4.29167838	     -2.70349165	    -22.01390712	      0.00000000	      0.00000000	      0.00000000	    -28.93578367	   -324.33047626	     43.39444559	      5.27919055	     -6.01681734	    -31.76189466	      0.00000000	      0.00000000	      0.00000000	    -10.40061146	    -77.22127684	     13.34007813	      1.37774833	     -0.82981068	     -3.32700779	      0.00000000	      0.00000000	      0.00000000	     27.20400682	   -144.68703134	    -11.43679357	      3.07372454	      1.33267039	     17.03052232	      0.00000000	      0.00000000	      0.00000000	     63.37797003	   -209.39043213	     -4.71076340	      0.24423005	      1.32805616	      1.51348789	     -0.00712861	     -0.00311491	      0.00130837	     -0.19319308	      0.62936561	     -0.07716275	     -0.00180705	      0.00010440	      0.00555105	      0.00000000	      0.00000000	      0.00000000	     -3.82939826	   -247.25402762	      9.25202024	      1.15973786	      0.48741084	    -23.17314352	      0.00000000	      0.00000000	      0.00000000	      1.50798963	   -244.84639853	    -40.88293465	     -2.19642056	      6.58081720	    -31.09421296	      0.00000000	      0.00000000	      0.00000000	     -5.93321383	   -103.70963094	    -19.92239088	     -0.27461748	      1.04688180	     -4.50619106	      0.00000000	      0.00000000	      0.00000000	     57.72934170	    272.17739397	    -23.43948907	    -11.41438571	      0.64842329	    -34.75122697	      0.00000000	      0.00000000	      0.00000000	      0.94902583	     31.45343853	      6.06082852	     -1.67037037	     -0.39214951	      2.37202237	      0.00000000	      0.00000000	      0.00000000	      9.59860867	     11.54412971	      1.09597514	     -0.34299215	      0.12620352	      1.81190269	      0.00000000	      0.00000000	      0.00000000	     -0.59011618	      7.70507807	      5.86652253	     -1.34107763	      0.02288323	     -0.15861449	      0.00000000	      0.00000000	      0.00000000	     -0.27163099	      3.33277875	      2.79669507	     -0.20370032	      0.00051826	     -0.01987604	      0.00000000	      0.00000000	      0.00000000	    -13.68232979	     25.05323675	     -6.95121367	      1.58759535	      0.22655078	     -2.17805988	      0.00000000	      0.00000000	      0.00000000	      6.11371419	     12.09716204	     -0.09971001	      0.12088457	     -0.06743934	      1.09760980	      0.00000000	      0.00000000	      0.00000000	     -0.83304491	      7.94155316	     -3.37086337	      0.80311057	     -0.01061062	     -0.20397598	      0.00000000	      0.00000000	      0.00000000	     -0.35624720	      3.43037847	     -1.64695825	      0.12067137	     -0.00026391	     -0.02520643	      0.00000000	      0.00000000	      0.00000000
      7.18066664	     -0.00000413	      0.00000916	      0.00000132	      0.00000018	      0.00000013	     -0.00000316	      0.00000000	      0.00000000	      0.00000000	     54.42103632	   -199.07401079	      3.07969680	      6.23887846	      1.15021574	     38.26312472	      0.00000000	      0.00000000	      0.00000000	     93.92256678	   -267.65449652	      2.41106208	      6.63629768	      1.79838690	     13.53468486	     -0.00722252	     -0.00315595	     -0.00132561	     -0.17609571	      0.68395963	      0.01901274	      0.00044504	     -0.00002316	      0.00521359	      0.00000000	      0.00000000	      0.00000000	    -16.29613817	   -313.99734037	    -13.83860662	      5.82775087	      0.07878022	    -22.79595833	      0.00000000	      0.00000000	      0.00000000	    -11.45797986	   -314.88811940	     17.44439152	      6.25386898	     -2.67079415	    -32.81615141	      0.00000000	      0.00000000	      0.00000000	     -8.67183038	    -85.49931342	      3.20458243	      1.77863991	     -0.35128504	     -3.60749447	      0.00000000	      0.00000000	      0.00000000	     10.27614171	   -176.44224146	      4.87575460	     -7.13589243	     -0.32357292	     -4.12757553	      0.00000000	      0.00000000	      0.00000000	     42.59908116	   -249.05066220	     10.37740582	     -4.66595021	     -0.58237827	    -12.64182748	     -0.00712861	     -0.00311491	      0.00130837	     -0.13647409	      0.68536531	     -0.07356608	     -0.00172106	      0.00009275	      0.00432214	      0.00000000	      0.00000000	      0.00000000	    -41.76310212	   -279.22720687	     24.53419562	      1.33957107	     -1.82797029	    -29.58073947	      0.00000000	      0.00000000	      0.00000000	    -33.01614427	   -280.88931776	    -28.25931587	     -2.51226611	      5.09664803	    -37.97774466	      0.00000000	      0.00000000	      0.00000000	    -22.10898067	   -118.35848824	    -10.37692645	     -0.34866229	      0.66677966	     -5.79402389	      0.00000000	      0.00000000	      0.00000000	     49.70696565	    279.87034473	    -21.21336129	    -11.00286074	     -4.70056155	    -29.38756223	      0.00000000	      0.00000000	      0.00000000	     -2.34786221	     31.22740448	      4.03412801	     -1.11755131	     -0.32984482	      1.19360425	      0.00000000	      0.00000000	      0.00000000	      8.07133279	     12.11031913	      0.39158871	     -0.26791795	      0.09388373	      1.47259417	      0.00000000	      0.00000000	      0.00000000	     -0.10649446	      8.00855864	      4.78108181	     -1.08568222	      0.01355601	     -0.09173058	      0.00000000	      0.00000000	      0.00000000	     -0.18037345	      3.46054279	      2.21147909	     -0.16007689	     -0.00194739	     -0.01639566	      0.00000000	      0.00000000	      0.00000000	    -12.89080643	     26.33936902	     -7.19122627	      1.75305562	      0.20730441	     -2.09537091	      0.00000000	      0.00000000	      0.00000000	      6.24287225	     12.02153615	     -0.33449473	      0.15027185	     -0.08172680	      1.00314364	      0.00000000	      0.00000000	      0.00000000	     -0.94207471	      7.92996058	     -3.23126598	      0.70089815	     -0.01566136	     -0.18650270	      0.00000000	      0.00000000	      0.00000000	     -0.25917536	      3.40806300	     -1.32539512	      0.09255423	     -0.00336938	     -0.01464799	      0.00000000	      0.00000000	      0.00000000
      7.23199997	     -0.00000235	      0.00000617	     -0.00000008	      0.00000194	      0.00000059	     -0.00000121	      0.00000000	      0.00000000	      0.00000000	     22.45889843	   -115.26571368	     15.54362780	     -8.11093035	     -0.58500390	     11.94787936	      0.00000000	      0.00000000	      0.00000000	     47.53979379	   -168.37652511	     17.93161213	     -1.99616940	     -0.74825767	      0.44718119	     -0.00722252	     -0.00315595	     -0.00132561	     -0.12237800	      0.51479424	     -0.01449186	     -0.00033807	      0.00002714	      0.00368129	      0.00000000	      0.00000000	      0.00000000	    -21.75737008	   -197.78509408	      9.36323315	      2.52985776	     -1.43315681	    -18.55647169	      0.00000000	      0.00000000	      0.00000000	    -20.05481281	   -196.61342587	     29.63037393	      3.84281296	     -4.33244269	    -24.26713745	      0.00000000	      0.00000000	      0.00000000	    -15.17863769	    -71.94019495	      7.10232501	      1.32329555	     -0.64069312	     -3.30776831	      0.00000000	      0.00000000	      0.00000000	     32.53929272	   -161.01611078	     -6.59974845	      2.23026215	      0.39011521	     10.12196796	      0.00000000	      0.00000000	      0.00000000	     57.29542889	   -215.10159125	     -0.34095976	      0.94230232	      0.38614819	     -5.09917569	     -0.00712861	     -0.00311491	      0.00130837	     -0.11314364	      0.52516109	     -0.07756278	     -0.00181661	      0.00012336	      0.00349273	      0.00000000	      0.00000000	      0.00000000	    -15.78544758	   -245.24258334	     13.01278514	      3.15694751	     -1.31433481	    -26.73234395	      0.00000000	      0.00000000	      0.00000000	     -9.74064732	   -243.77314903	    -36.86765631	     -0.80594324	      5.61422477	    -34.79161925	      0.00000000	      0.00000000	      0.00000000	    -19.55338837	   -122.57157118	     -9.67873508	      0.11155671	      0.48890177	     -5.90701001	      0.00000000	      0.00000000	      0.00000000	     31.15965400	    205.48927823	     -4.24505784	     -0.74178448	     -0.29234677	    -19.19698532	      0.00000000	      0.00000000	      0.00000000	     -1.69976066	     21.26134382	      3.21666764	     -0.66992455	     -0.10906738	      0.59929522	      0.00000000	      0.00000000	      0.00000000	      5.12277259	      8.26098826	     -0.16883255	     -0.04910481	      0.05829920	      0.88286261	      0.00000000	      0.00000000	      0.00000000	      0.31241345	      5.42088066	      2.96173273	     -0.64514404	      0.01375903	      0.05565500	      0.00000000	      0.00000000	      0.00000000	      0.17584990	      2.33292293	      1.26170813	     -0.08930838	     -0.00014248	      0.01371917	      0.00000000	      0.00000000	      0.00000000	    -12.68206028	     18.71842831	     -5.99536809	      1.64840947	      0.30715734	     -2.59632685	      0.00000000	      0.00000000	      0.00000000	      3.64148889	      9.93751991	     -0.87112743	      0.30398507	     -0.05034213	      0.54887688	      0.00000000	      0.00000000	      0.00000000	     -0.87640631	      6.52992421	     -1.57686927	      0.33961324	      0.00035083	     -0.22068913	      0.00000000	      0.00000000	      0.00000000	     -0.42066998	      2.80902129	     -0.57701946	      0.03898126	     -0.00015640	     -0.03120189	      0.00000000	      0.00000000	      0.00000000
